{
  "provinces": [
    {
      "id": 1,
      "districts": [
        {
          "id": "taplejung",
          "regions": [
            {
              "id": 1,
              "declared": false,
              "result": [
                { "party": "NC", "name_np": "हिमिला यामी", "name_en": "Hisila Yami", "vote": 27629 },
                { "party": "CPNMC", "name_np": "शेरबहादुर देउवा", "name_en": "Sher Bahadur Deuba", "vote": 1616 },
                { "party": "CPNUS", "name_np": "माधव कुमार नेपाल", "name_en": "Madhab Kumar Nepal", "vote": 6457 },
                { "party": "CPNUML", "name_np": "रवि लामिछाने", "name_en": "Rabi Lamichhane", "vote": 12648 }
              ],
              "elected": {}
            }
          ]
        },
        {
          "id": "panchthar",
          "regions": [
            {
              "id": 1,
              "declared": false,
              "result": [
                { "party": "CPNMC", "name_np": "जलनाथ खनाल", "name_en": "Jhalanath Khanal", "vote": 6781 },
                { "party": "CPNUML", "name_np": "विश्वप्रकाश सुवेदी", "name_en": "Bishwa Prakash Subedi", "vote": 29597 },
                { "party": "CPNUS", "name_np": "योगेश भट्टराई", "name_en": "Yogesh Bhattarai", "vote": 12339 },
                { "party": "O", "name_np": "सागर ढकाल", "name_en": "Sagar Dhakal", "vote": 17131 }
              ],
              "elected": {}
            }
          ]
        },
        {
          "id": "illam",
          "regions": [
            {
              "id": 1,
              "declared": false,
              "result": [
                { "party": "CPNUML", "name_np": "गगन थापा", "name_en": "Gagan Thapa", "vote": 27763 },
                { "party": "NC", "name_np": "बाबुरल भट्टराई", "name_en": "Baburam Bhattara", "vote": 2385 },
                { "party": "CPNUS", "name_np": "जलनाथ खनाल", "name_en": "Jhalanath Khanal", "vote": 12328 },
                { "party": "CPNMC", "name_np": "केपी ओली", "name_en": "KP Oli", "vote": 10646 }
              ],
              "elected": {}
            },
            {
              "id": 2,
              "declared": false,
              "result": [
                { "party": "CPNUS", "name_np": "सागर ढकाल", "name_en": "Sagar Dhakal", "vote": 2948 },
                { "party": "CPNMC", "name_np": "पुष्पकमल दाहाल", "name_en": "Pushpakamal Dahal", "vote": 6728 },
                { "party": "NC", "name_np": "रवि लामिछाने", "name_en": "Rabi Lamichhane", "vote": 5626 },
                { "party": "O", "name_np": "विश्वप्रकाश सुवेदी", "name_en": "Bishwa Prakash Subedi", "vote": 15585 }
              ],
              "elected": {}
            }
          ]
        },
        {
          "id": "jhapa",
          "regions": [
            {
              "id": 1,
              "declared": false,
              "result": [
                { "party": "CPNMC", "name_np": "सागर ढकाल", "name_en": "Sagar Dhakal", "vote": 9622 },
                { "party": "NC", "name_np": "जलनाथ खनाल", "name_en": "Jhalanath Khanal", "vote": 26090 },
                { "party": "O", "name_np": "बाबुरल भट्टराई", "name_en": "Baburam Bhattara", "vote": 21189 },
                { "party": "CPNUS", "name_np": "केपी ओली", "name_en": "KP Oli", "vote": 24862 }
              ],
              "elected": {}
            },
            {
              "id": 2,
              "declared": false,
              "result": [
                { "party": "CPNUML", "name_np": "रवि लामिछाने", "name_en": "Rabi Lamichhane", "vote": 13019 },
                { "party": "O", "name_np": "गगन थापा", "name_en": "Gagan Thapa", "vote": 22249 },
                { "party": "CPNUS", "name_np": "पुष्पकमल दाहाल", "name_en": "Pushpakamal Dahal", "vote": 11823 },
                { "party": "NC", "name_np": "योगेश भट्टराई", "name_en": "Yogesh Bhattarai", "vote": 6277 }
              ],
              "elected": {}
            },
            {
              "id": 3,
              "declared": true,
              "result": [
                { "party": "CPNUS", "name_np": "रवि लामिछाने", "name_en": "Rabi Lamichhane", "vote": 22551 },
                { "party": "NC", "name_np": "शेरबहादुर देउवा", "name_en": "Sher Bahadur Deuba", "vote": 15143 },
                { "party": "CPNUML", "name_np": "केपी ओली", "name_en": "KP Oli", "vote": 10038 },
                { "party": "O", "name_np": "माधव कुमार नेपाल", "name_en": "Madhab Kumar Nepal", "vote": 8526 }
              ],
              "elected": { "party": "CPNUS", "name_np": "रवि लामिछाने", "name_en": "Rabi Lamichhane", "vote": 22551 }
            },
            {
              "id": 4,
              "declared": false,
              "result": [
                { "party": "CPNUS", "name_np": "केपी ओली", "name_en": "KP Oli", "vote": 12460 },
                { "party": "O", "name_np": "विश्वप्रकाश सुवेदी", "name_en": "Bishwa Prakash Subedi", "vote": 6594 },
                { "party": "CPNUML", "name_np": "रवि लामिछाने", "name_en": "Rabi Lamichhane", "vote": 6082 },
                { "party": "NC", "name_np": "सागर ढकाल", "name_en": "Sagar Dhakal", "vote": 19614 }
              ],
              "elected": {}
            },
            {
              "id": 5,
              "declared": false,
              "result": [
                { "party": "CPNUS", "name_np": "बाबुरल भट्टराई", "name_en": "Baburam Bhattara", "vote": 20465 },
                { "party": "CPNMC", "name_np": "जलनाथ खनाल", "name_en": "Jhalanath Khanal", "vote": 19815 },
                { "party": "NC", "name_np": "हिमिला यामी", "name_en": "Hisila Yami", "vote": 14631 },
                { "party": "CPNUML", "name_np": "विश्वप्रकाश सुवेदी", "name_en": "Bishwa Prakash Subedi", "vote": 24722 }
              ],
              "elected": {}
            }
          ]
        },
        {
          "id": "morang",
          "regions": [
            {
              "id": 1,
              "declared": false,
              "result": [
                { "party": "CPNMC", "name_np": "राजेन्द्र लिङ्देन", "name_en": "Ranjendra Lingden", "vote": 18882 },
                { "party": "CPNUS", "name_np": "रवि लामिछाने", "name_en": "Rabi Lamichhane", "vote": 13604 },
                { "party": "CPNUML", "name_np": "शेरबहादुर देउवा", "name_en": "Sher Bahadur Deuba", "vote": 14413 },
                { "party": "NC", "name_np": "सागर ढकाल", "name_en": "Sagar Dhakal", "vote": 27568 }
              ],
              "elected": {}
            },
            {
              "id": 2,
              "declared": false,
              "result": [
                { "party": "CPNMC", "name_np": "योगेश भट्टराई", "name_en": "Yogesh Bhattarai", "vote": 13039 },
                { "party": "NC", "name_np": "हिमिला यामी", "name_en": "Hisila Yami", "vote": 3703 },
                { "party": "O", "name_np": "राजेन्द्र लिङ्देन", "name_en": "Ranjendra Lingden", "vote": 16559 },
                { "party": "CPNUS", "name_np": "पुष्पकमल दाहाल", "name_en": "Pushpakamal Dahal", "vote": 19273 }
              ],
              "elected": {}
            },
            {
              "id": 3,
              "declared": true,
              "result": [
                { "party": "CPNMC", "name_np": "सागर ढकाल", "name_en": "Sagar Dhakal", "vote": 11895 },
                { "party": "O", "name_np": "केपी ओली", "name_en": "KP Oli", "vote": 7036 },
                { "party": "CPNUML", "name_np": "बाबुरल भट्टराई", "name_en": "Baburam Bhattara", "vote": 5880 },
                { "party": "NC", "name_np": "योगेश भट्टराई", "name_en": "Yogesh Bhattarai", "vote": 193 }
              ],
              "elected": { "party": "CPNMC", "name_np": "सागर ढकाल", "name_en": "Sagar Dhakal", "vote": 11895 }
            },
            {
              "id": 4,
              "declared": false,
              "result": [
                { "party": "O", "name_np": "राजेन्द्र लिङ्देन", "name_en": "Ranjendra Lingden", "vote": 17750 },
                { "party": "NC", "name_np": "केपी ओली", "name_en": "KP Oli", "vote": 3935 },
                { "party": "CPNUML", "name_np": "जलनाथ खनाल", "name_en": "Jhalanath Khanal", "vote": 27014 },
                { "party": "CPNMC", "name_np": "बाबुरल भट्टराई", "name_en": "Baburam Bhattara", "vote": 12666 }
              ],
              "elected": {}
            },
            {
              "id": 5,
              "declared": false,
              "result": [
                { "party": "CPNMC", "name_np": "विश्वप्रकाश सुवेदी", "name_en": "Bishwa Prakash Subedi", "vote": 8971 },
                { "party": "CPNUML", "name_np": "हिमिला यामी", "name_en": "Hisila Yami", "vote": 6473 },
                { "party": "CPNUS", "name_np": "गगन थापा", "name_en": "Gagan Thapa", "vote": 17085 },
                { "party": "NC", "name_np": "बाबुरल भट्टराई", "name_en": "Baburam Bhattara", "vote": 13755 }
              ],
              "elected": {}
            },
            {
              "id": 6,
              "declared": false,
              "result": [
                { "party": "CPNUML", "name_np": "सागर ढकाल", "name_en": "Sagar Dhakal", "vote": 404 },
                { "party": "CPNUS", "name_np": "विश्वप्रकाश सुवेदी", "name_en": "Bishwa Prakash Subedi", "vote": 13128 },
                { "party": "NC", "name_np": "बाबुरल भट्टराई", "name_en": "Baburam Bhattara", "vote": 11290 },
                { "party": "CPNMC", "name_np": "पुष्पकमल दाहाल", "name_en": "Pushpakamal Dahal", "vote": 27588 }
              ],
              "elected": {}
            }
          ]
        },
        {
          "id": "sunsari",
          "regions": [
            {
              "id": 1,
              "declared": false,
              "result": [
                { "party": "NC", "name_np": "माधव कुमार नेपाल", "name_en": "Madhab Kumar Nepal", "vote": 21342 },
                { "party": "CPNMC", "name_np": "रवि लामिछाने", "name_en": "Rabi Lamichhane", "vote": 23787 },
                { "party": "O", "name_np": "योगेश भट्टराई", "name_en": "Yogesh Bhattarai", "vote": 12969 },
                { "party": "CPNUML", "name_np": "केपी ओली", "name_en": "KP Oli", "vote": 18070 }
              ],
              "elected": {}
            },
            {
              "id": 2,
              "declared": false,
              "result": [
                { "party": "CPNMC", "name_np": "गगन थापा", "name_en": "Gagan Thapa", "vote": 28858 },
                { "party": "O", "name_np": "माधव कुमार नेपाल", "name_en": "Madhab Kumar Nepal", "vote": 6892 },
                { "party": "NC", "name_np": "बाबुरल भट्टराई", "name_en": "Baburam Bhattara", "vote": 2338 },
                { "party": "CPNUML", "name_np": "हिमिला यामी", "name_en": "Hisila Yami", "vote": 5011 }
              ],
              "elected": {}
            },
            {
              "id": 3,
              "declared": true,
              "result": [
                { "party": "CPNMC", "name_np": "योगेश भट्टराई", "name_en": "Yogesh Bhattarai", "vote": 25636 },
                { "party": "CPNUS", "name_np": "गगन थापा", "name_en": "Gagan Thapa", "vote": 12265 },
                { "party": "NC", "name_np": "शेरबहादुर देउवा", "name_en": "Sher Bahadur Deuba", "vote": 11261 },
                { "party": "CPNUML", "name_np": "विश्वप्रकाश सुवेदी", "name_en": "Bishwa Prakash Subedi", "vote": 652 }
              ],
              "elected": { "party": "CPNMC", "name_np": "योगेश भट्टराई", "name_en": "Yogesh Bhattarai", "vote": 25636 }
            },
            {
              "id": 4,
              "declared": false,
              "result": [
                { "party": "O", "name_np": "विश्वप्रकाश सुवेदी", "name_en": "Bishwa Prakash Subedi", "vote": 17333 },
                { "party": "CPNUS", "name_np": "सागर ढकाल", "name_en": "Sagar Dhakal", "vote": 8993 },
                { "party": "CPNMC", "name_np": "केपी ओली", "name_en": "KP Oli", "vote": 18644 },
                { "party": "NC", "name_np": "गगन थापा", "name_en": "Gagan Thapa", "vote": 10678 }
              ],
              "elected": {}
            }
          ]
        },
        {
          "id": "dhankuta",
          "regions": [
            {
              "id": 1,
              "declared": false,
              "result": [
                { "party": "CPNMC", "name_np": "योगेश भट्टराई", "name_en": "Yogesh Bhattarai", "vote": 15149 },
                { "party": "CPNUML", "name_np": "जलनाथ खनाल", "name_en": "Jhalanath Khanal", "vote": 29089 },
                { "party": "O", "name_np": "पुष्पकमल दाहाल", "name_en": "Pushpakamal Dahal", "vote": 3024 },
                { "party": "CPNUS", "name_np": "विश्वप्रकाश सुवेदी", "name_en": "Bishwa Prakash Subedi", "vote": 28999 }
              ],
              "elected": {}
            }
          ]
        },
        {
          "id": "sankhuwasabha",
          "regions": [
            {
              "id": 1,
              "declared": false,
              "result": [
                { "party": "CPNUML", "name_np": "रवि लामिछाने", "name_en": "Rabi Lamichhane", "vote": 29806 },
                { "party": "O", "name_np": "योगेश भट्टराई", "name_en": "Yogesh Bhattarai", "vote": 13208 },
                { "party": "NC", "name_np": "राजेन्द्र लिङ्देन", "name_en": "Ranjendra Lingden", "vote": 5382 },
                { "party": "CPNMC", "name_np": "जलनाथ खनाल", "name_en": "Jhalanath Khanal", "vote": 23957 }
              ],
              "elected": {}
            }
          ]
        },
        {
          "id": "bhojpur",
          "regions": [
            {
              "id": 1,
              "declared": false,
              "result": [
                { "party": "NC", "name_np": "पुष्पकमल दाहाल", "name_en": "Pushpakamal Dahal", "vote": 6557 },
                { "party": "O", "name_np": "जलनाथ खनाल", "name_en": "Jhalanath Khanal", "vote": 4253 },
                { "party": "CPNUS", "name_np": "हिमिला यामी", "name_en": "Hisila Yami", "vote": 23740 },
                { "party": "CPNUML", "name_np": "माधव कुमार नेपाल", "name_en": "Madhab Kumar Nepal", "vote": 19975 }
              ],
              "elected": {}
            }
          ]
        },
        {
          "id": "terhathum",
          "regions": [
            {
              "id": 1,
              "declared": false,
              "result": [
                { "party": "CPNUML", "name_np": "गगन थापा", "name_en": "Gagan Thapa", "vote": 22920 },
                { "party": "O", "name_np": "हिमिला यामी", "name_en": "Hisila Yami", "vote": 2991 },
                { "party": "CPNMC", "name_np": "सागर ढकाल", "name_en": "Sagar Dhakal", "vote": 24645 },
                { "party": "CPNUS", "name_np": "रवि लामिछाने", "name_en": "Rabi Lamichhane", "vote": 12245 }
              ],
              "elected": {}
            }
          ]
        },
        {
          "id": "okhaldhunga",
          "regions": [
            {
              "id": 1,
              "declared": false,
              "result": [
                { "party": "CPNUS", "name_np": "विश्वप्रकाश सुवेदी", "name_en": "Bishwa Prakash Subedi", "vote": 25861 },
                { "party": "CPNMC", "name_np": "बाबुरल भट्टराई", "name_en": "Baburam Bhattara", "vote": 3975 },
                { "party": "CPNUML", "name_np": "गगन थापा", "name_en": "Gagan Thapa", "vote": 8490 },
                { "party": "NC", "name_np": "सागर ढकाल", "name_en": "Sagar Dhakal", "vote": 23367 }
              ],
              "elected": {}
            }
          ]
        },
        {
          "id": "khotang",
          "regions": [
            {
              "id": 1,
              "declared": false,
              "result": [
                { "party": "O", "name_np": "जलनाथ खनाल", "name_en": "Jhalanath Khanal", "vote": 13372 },
                { "party": "CPNUS", "name_np": "गगन थापा", "name_en": "Gagan Thapa", "vote": 13301 },
                { "party": "NC", "name_np": "बाबुरल भट्टराई", "name_en": "Baburam Bhattara", "vote": 18918 },
                { "party": "CPNMC", "name_np": "योगेश भट्टराई", "name_en": "Yogesh Bhattarai", "vote": 16469 }
              ],
              "elected": {}
            }
          ]
        },
        {
          "id": "solukhumbu",
          "regions": [
            {
              "id": 1,
              "declared": false,
              "result": [
                { "party": "CPNMC", "name_np": "हिमिला यामी", "name_en": "Hisila Yami", "vote": 18312 },
                { "party": "CPNUS", "name_np": "सागर ढकाल", "name_en": "Sagar Dhakal", "vote": 4731 },
                { "party": "NC", "name_np": "जलनाथ खनाल", "name_en": "Jhalanath Khanal", "vote": 10028 },
                { "party": "CPNUML", "name_np": "विश्वप्रकाश सुवेदी", "name_en": "Bishwa Prakash Subedi", "vote": 1974 }
              ],
              "elected": {}
            }
          ]
        },
        {
          "id": "udayapur",
          "regions": [
            {
              "id": 1,
              "declared": false,
              "result": [
                { "party": "O", "name_np": "केपी ओली", "name_en": "KP Oli", "vote": 1521 },
                { "party": "CPNUML", "name_np": "बाबुरल भट्टराई", "name_en": "Baburam Bhattara", "vote": 18586 },
                { "party": "CPNUS", "name_np": "जलनाथ खनाल", "name_en": "Jhalanath Khanal", "vote": 8707 },
                { "party": "CPNMC", "name_np": "राजेन्द्र लिङ्देन", "name_en": "Ranjendra Lingden", "vote": 7271 }
              ],
              "elected": {}
            },
            {
              "id": 2,
              "declared": false,
              "result": [
                { "party": "CPNUML", "name_np": "हिमिला यामी", "name_en": "Hisila Yami", "vote": 315 },
                { "party": "O", "name_np": "रवि लामिछाने", "name_en": "Rabi Lamichhane", "vote": 18459 },
                { "party": "CPNMC", "name_np": "केपी ओली", "name_en": "KP Oli", "vote": 5982 },
                { "party": "NC", "name_np": "शेरबहादुर देउवा", "name_en": "Sher Bahadur Deuba", "vote": 18925 }
              ],
              "elected": {}
            }
          ]
        }
      ]
    },
    {
      "id": 2,
      "districts": [
        {
          "id": "saptari",
          "regions": [
            {
              "id": 1,
              "declared": false,
              "result": [
                { "party": "O", "name_np": "शेरबहादुर देउवा", "name_en": "Sher Bahadur Deuba", "vote": 13288 },
                { "party": "CPNUS", "name_np": "बाबुरल भट्टराई", "name_en": "Baburam Bhattara", "vote": 15490 },
                { "party": "CPNUML", "name_np": "विश्वप्रकाश सुवेदी", "name_en": "Bishwa Prakash Subedi", "vote": 3421 },
                { "party": "CPNMC", "name_np": "सागर ढकाल", "name_en": "Sagar Dhakal", "vote": 14013 }
              ],
              "elected": {}
            },
            {
              "id": 2,
              "declared": false,
              "result": [
                { "party": "CPNMC", "name_np": "गगन थापा", "name_en": "Gagan Thapa", "vote": 9551 },
                { "party": "CPNUML", "name_np": "जलनाथ खनाल", "name_en": "Jhalanath Khanal", "vote": 2717 },
                { "party": "O", "name_np": "पुष्पकमल दाहाल", "name_en": "Pushpakamal Dahal", "vote": 24754 },
                { "party": "NC", "name_np": "राजेन्द्र लिङ्देन", "name_en": "Ranjendra Lingden", "vote": 23124 }
              ],
              "elected": {}
            },
            {
              "id": 3,
              "declared": true,
              "result": [
                { "party": "O", "name_np": "केपी ओली", "name_en": "KP Oli", "vote": 23495 },
                { "party": "NC", "name_np": "बाबुरल भट्टराई", "name_en": "Baburam Bhattara", "vote": 17723 },
                { "party": "CPNUS", "name_np": "पुष्पकमल दाहाल", "name_en": "Pushpakamal Dahal", "vote": 14382 },
                { "party": "CPNMC", "name_np": "सागर ढकाल", "name_en": "Sagar Dhakal", "vote": 11904 }
              ],
              "elected": { "party": "O", "name_np": "केपी ओली", "name_en": "KP Oli", "vote": 23495 }
            },
            {
              "id": 4,
              "declared": false,
              "result": [
                { "party": "CPNUS", "name_np": "बाबुरल भट्टराई", "name_en": "Baburam Bhattara", "vote": 22647 },
                { "party": "CPNMC", "name_np": "विश्वप्रकाश सुवेदी", "name_en": "Bishwa Prakash Subedi", "vote": 7556 },
                { "party": "O", "name_np": "गगन थापा", "name_en": "Gagan Thapa", "vote": 17370 },
                { "party": "CPNUML", "name_np": "रवि लामिछाने", "name_en": "Rabi Lamichhane", "vote": 27718 }
              ],
              "elected": {}
            }
          ]
        },
        {
          "id": "siraha",
          "regions": [
            {
              "id": 1,
              "declared": false,
              "result": [
                { "party": "CPNUML", "name_np": "गगन थापा", "name_en": "Gagan Thapa", "vote": 15065 },
                { "party": "CPNMC", "name_np": "सागर ढकाल", "name_en": "Sagar Dhakal", "vote": 11672 },
                { "party": "O", "name_np": "माधव कुमार नेपाल", "name_en": "Madhab Kumar Nepal", "vote": 8784 },
                { "party": "CPNUS", "name_np": "हिमिला यामी", "name_en": "Hisila Yami", "vote": 7996 }
              ],
              "elected": {}
            },
            {
              "id": 2,
              "declared": false,
              "result": [
                { "party": "O", "name_np": "हिमिला यामी", "name_en": "Hisila Yami", "vote": 3321 },
                { "party": "NC", "name_np": "केपी ओली", "name_en": "KP Oli", "vote": 29167 },
                { "party": "CPNUS", "name_np": "शेरबहादुर देउवा", "name_en": "Sher Bahadur Deuba", "vote": 4223 },
                { "party": "CPNUML", "name_np": "योगेश भट्टराई", "name_en": "Yogesh Bhattarai", "vote": 21060 }
              ],
              "elected": {}
            },
            {
              "id": 3,
              "declared": true,
              "result": [
                { "party": "NC", "name_np": "हिमिला यामी", "name_en": "Hisila Yami", "vote": 14462 },
                { "party": "CPNMC", "name_np": "गगन थापा", "name_en": "Gagan Thapa", "vote": 11408 },
                { "party": "CPNUS", "name_np": "केपी ओली", "name_en": "KP Oli", "vote": 10072 },
                { "party": "O", "name_np": "राजेन्द्र लिङ्देन", "name_en": "Ranjendra Lingden", "vote": 3187 }
              ],
              "elected": { "party": "NC", "name_np": "हिमिला यामी", "name_en": "Hisila Yami", "vote": 14462 }
            },
            {
              "id": 4,
              "declared": false,
              "result": [
                { "party": "NC", "name_np": "योगेश भट्टराई", "name_en": "Yogesh Bhattarai", "vote": 18512 },
                { "party": "CPNUML", "name_np": "राजेन्द्र लिङ्देन", "name_en": "Ranjendra Lingden", "vote": 1661 },
                { "party": "CPNUS", "name_np": "माधव कुमार नेपाल", "name_en": "Madhab Kumar Nepal", "vote": 23074 },
                { "party": "CPNMC", "name_np": "शेरबहादुर देउवा", "name_en": "Sher Bahadur Deuba", "vote": 19386 }
              ],
              "elected": {}
            }
          ]
        },
        {
          "id": "dhanusa",
          "regions": [
            {
              "id": 1,
              "declared": false,
              "result": [
                { "party": "CPNMC", "name_np": "रवि लामिछाने", "name_en": "Rabi Lamichhane", "vote": 21527 },
                { "party": "NC", "name_np": "हिमिला यामी", "name_en": "Hisila Yami", "vote": 28242 },
                { "party": "O", "name_np": "बाबुरल भट्टराई", "name_en": "Baburam Bhattara", "vote": 27793 },
                { "party": "CPNUML", "name_np": "गगन थापा", "name_en": "Gagan Thapa", "vote": 19492 }
              ],
              "elected": {}
            },
            {
              "id": 2,
              "declared": false,
              "result": [
                { "party": "CPNMC", "name_np": "विश्वप्रकाश सुवेदी", "name_en": "Bishwa Prakash Subedi", "vote": 5637 },
                { "party": "CPNUML", "name_np": "रवि लामिछाने", "name_en": "Rabi Lamichhane", "vote": 20730 },
                { "party": "CPNUS", "name_np": "राजेन्द्र लिङ्देन", "name_en": "Ranjendra Lingden", "vote": 1109 },
                { "party": "O", "name_np": "केपी ओली", "name_en": "KP Oli", "vote": 22170 }
              ],
              "elected": {}
            },
            {
              "id": 3,
              "declared": true,
              "result": [
                { "party": "NC", "name_np": "पुष्पकमल दाहाल", "name_en": "Pushpakamal Dahal", "vote": 11629 },
                { "party": "CPNMC", "name_np": "गगन थापा", "name_en": "Gagan Thapa", "vote": 10279 },
                { "party": "CPNUS", "name_np": "विश्वप्रकाश सुवेदी", "name_en": "Bishwa Prakash Subedi", "vote": 7518 },
                { "party": "CPNUML", "name_np": "सागर ढकाल", "name_en": "Sagar Dhakal", "vote": 4747 }
              ],
              "elected": { "party": "NC", "name_np": "पुष्पकमल दाहाल", "name_en": "Pushpakamal Dahal", "vote": 11629 }
            },
            {
              "id": 4,
              "declared": false,
              "result": [
                { "party": "CPNUML", "name_np": "बाबुरल भट्टराई", "name_en": "Baburam Bhattara", "vote": 934 },
                { "party": "NC", "name_np": "योगेश भट्टराई", "name_en": "Yogesh Bhattarai", "vote": 25957 },
                { "party": "CPNUS", "name_np": "राजेन्द्र लिङ्देन", "name_en": "Ranjendra Lingden", "vote": 24878 },
                { "party": "CPNMC", "name_np": "गगन थापा", "name_en": "Gagan Thapa", "vote": 25313 }
              ],
              "elected": {}
            }
          ]
        },
        {
          "id": "mahottari",
          "regions": [
            {
              "id": 1,
              "declared": false,
              "result": [
                { "party": "CPNUML", "name_np": "पुष्पकमल दाहाल", "name_en": "Pushpakamal Dahal", "vote": 22985 },
                { "party": "O", "name_np": "माधव कुमार नेपाल", "name_en": "Madhab Kumar Nepal", "vote": 24962 },
                { "party": "NC", "name_np": "राजेन्द्र लिङ्देन", "name_en": "Ranjendra Lingden", "vote": 6724 },
                { "party": "CPNMC", "name_np": "केपी ओली", "name_en": "KP Oli", "vote": 1784 }
              ],
              "elected": {}
            },
            {
              "id": 2,
              "declared": false,
              "result": [
                { "party": "CPNUML", "name_np": "रवि लामिछाने", "name_en": "Rabi Lamichhane", "vote": 24524 },
                { "party": "O", "name_np": "राजेन्द्र लिङ्देन", "name_en": "Ranjendra Lingden", "vote": 22971 },
                { "party": "CPNMC", "name_np": "विश्वप्रकाश सुवेदी", "name_en": "Bishwa Prakash Subedi", "vote": 14878 },
                { "party": "NC", "name_np": "सागर ढकाल", "name_en": "Sagar Dhakal", "vote": 9582 }
              ],
              "elected": {}
            },
            {
              "id": 3,
              "declared": true,
              "result": [
                { "party": "CPNMC", "name_np": "राजेन्द्र लिङ्देन", "name_en": "Ranjendra Lingden", "vote": 19739 },
                { "party": "CPNUML", "name_np": "गगन थापा", "name_en": "Gagan Thapa", "vote": 14773 },
                { "party": "CPNUS", "name_np": "योगेश भट्टराई", "name_en": "Yogesh Bhattarai", "vote": 14725 },
                { "party": "O", "name_np": "बाबुरल भट्टराई", "name_en": "Baburam Bhattara", "vote": 6012 }
              ],
              "elected": { "party": "CPNMC", "name_np": "राजेन्द्र लिङ्देन", "name_en": "Ranjendra Lingden", "vote": 19739 }
            },
            {
              "id": 4,
              "declared": false,
              "result": [
                { "party": "CPNMC", "name_np": "राजेन्द्र लिङ्देन", "name_en": "Ranjendra Lingden", "vote": 21474 },
                { "party": "NC", "name_np": "बाबुरल भट्टराई", "name_en": "Baburam Bhattara", "vote": 14509 },
                { "party": "O", "name_np": "विश्वप्रकाश सुवेदी", "name_en": "Bishwa Prakash Subedi", "vote": 4325 },
                { "party": "CPNUML", "name_np": "केपी ओली", "name_en": "KP Oli", "vote": 17754 }
              ],
              "elected": {}
            }
          ]
        },
        {
          "id": "sarlahi",
          "regions": [
            {
              "id": 1,
              "declared": false,
              "result": [
                { "party": "NC", "name_np": "योगेश भट्टराई", "name_en": "Yogesh Bhattarai", "vote": 11717 },
                { "party": "CPNUML", "name_np": "जलनाथ खनाल", "name_en": "Jhalanath Khanal", "vote": 9986 },
                { "party": "CPNUS", "name_np": "गगन थापा", "name_en": "Gagan Thapa", "vote": 7461 },
                { "party": "O", "name_np": "सागर ढकाल", "name_en": "Sagar Dhakal", "vote": 24186 }
              ],
              "elected": {}
            },
            {
              "id": 2,
              "declared": false,
              "result": [
                { "party": "O", "name_np": "गगन थापा", "name_en": "Gagan Thapa", "vote": 968 },
                { "party": "CPNUS", "name_np": "हिमिला यामी", "name_en": "Hisila Yami", "vote": 5107 },
                { "party": "CPNUML", "name_np": "पुष्पकमल दाहाल", "name_en": "Pushpakamal Dahal", "vote": 453 },
                { "party": "NC", "name_np": "रवि लामिछाने", "name_en": "Rabi Lamichhane", "vote": 17816 }
              ],
              "elected": {}
            },
            {
              "id": 3,
              "declared": true,
              "result": [
                { "party": "CPNUML", "name_np": "योगेश भट्टराई", "name_en": "Yogesh Bhattarai", "vote": 23638 },
                { "party": "CPNMC", "name_np": "राजेन्द्र लिङ्देन", "name_en": "Ranjendra Lingden", "vote": 22418 },
                { "party": "NC", "name_np": "रवि लामिछाने", "name_en": "Rabi Lamichhane", "vote": 10960 },
                { "party": "O", "name_np": "गगन थापा", "name_en": "Gagan Thapa", "vote": 10397 }
              ],
              "elected": { "party": "CPNUML", "name_np": "योगेश भट्टराई", "name_en": "Yogesh Bhattarai", "vote": 23638 }
            },
            {
              "id": 4,
              "declared": false,
              "result": [
                { "party": "NC", "name_np": "जलनाथ खनाल", "name_en": "Jhalanath Khanal", "vote": 9887 },
                { "party": "CPNUS", "name_np": "बाबुरल भट्टराई", "name_en": "Baburam Bhattara", "vote": 29254 },
                { "party": "O", "name_np": "विश्वप्रकाश सुवेदी", "name_en": "Bishwa Prakash Subedi", "vote": 5588 },
                { "party": "CPNUML", "name_np": "हिमिला यामी", "name_en": "Hisila Yami", "vote": 16828 }
              ],
              "elected": {}
            }
          ]
        },
        {
          "id": "rauthat",
          "regions": [
            {
              "id": 1,
              "declared": false,
              "result": [
                { "party": "CPNUML", "name_np": "जलनाथ खनाल", "name_en": "Jhalanath Khanal", "vote": 22300 },
                { "party": "CPNUS", "name_np": "सागर ढकाल", "name_en": "Sagar Dhakal", "vote": 12892 },
                { "party": "O", "name_np": "बाबुरल भट्टराई", "name_en": "Baburam Bhattara", "vote": 3347 },
                { "party": "NC", "name_np": "माधव कुमार नेपाल", "name_en": "Madhab Kumar Nepal", "vote": 27858 }
              ],
              "elected": {}
            },
            {
              "id": 2,
              "declared": false,
              "result": [
                { "party": "CPNUML", "name_np": "रवि लामिछाने", "name_en": "Rabi Lamichhane", "vote": 6877 },
                { "party": "O", "name_np": "गगन थापा", "name_en": "Gagan Thapa", "vote": 267 },
                { "party": "CPNUS", "name_np": "राजेन्द्र लिङ्देन", "name_en": "Ranjendra Lingden", "vote": 15953 },
                { "party": "CPNMC", "name_np": "जलनाथ खनाल", "name_en": "Jhalanath Khanal", "vote": 27390 }
              ],
              "elected": {}
            },
            {
              "id": 3,
              "declared": true,
              "result": [
                { "party": "NC", "name_np": "योगेश भट्टराई", "name_en": "Yogesh Bhattarai", "vote": 29686 },
                { "party": "O", "name_np": "हिमिला यामी", "name_en": "Hisila Yami", "vote": 16276 },
                { "party": "CPNUML", "name_np": "बाबुरल भट्टराई", "name_en": "Baburam Bhattara", "vote": 8071 },
                { "party": "CPNUS", "name_np": "शेरबहादुर देउवा", "name_en": "Sher Bahadur Deuba", "vote": 2601 }
              ],
              "elected": { "party": "NC", "name_np": "योगेश भट्टराई", "name_en": "Yogesh Bhattarai", "vote": 29686 }
            },
            {
              "id": 4,
              "declared": false,
              "result": [
                { "party": "CPNMC", "name_np": "जलनाथ खनाल", "name_en": "Jhalanath Khanal", "vote": 5314 },
                { "party": "O", "name_np": "गगन थापा", "name_en": "Gagan Thapa", "vote": 2312 },
                { "party": "CPNUML", "name_np": "बाबुरल भट्टराई", "name_en": "Baburam Bhattara", "vote": 1883 },
                { "party": "CPNUS", "name_np": "योगेश भट्टराई", "name_en": "Yogesh Bhattarai", "vote": 18262 }
              ],
              "elected": {}
            }
          ]
        },
        {
          "id": "bara",
          "regions": [
            {
              "id": 1,
              "declared": false,
              "result": [
                { "party": "O", "name_np": "केपी ओली", "name_en": "KP Oli", "vote": 19231 },
                { "party": "CPNMC", "name_np": "रवि लामिछाने", "name_en": "Rabi Lamichhane", "vote": 14897 },
                { "party": "CPNUS", "name_np": "राजेन्द्र लिङ्देन", "name_en": "Ranjendra Lingden", "vote": 22303 },
                { "party": "CPNUML", "name_np": "बाबुरल भट्टराई", "name_en": "Baburam Bhattara", "vote": 26927 }
              ],
              "elected": {}
            },
            {
              "id": 2,
              "declared": false,
              "result": [
                { "party": "NC", "name_np": "केपी ओली", "name_en": "KP Oli", "vote": 16466 },
                { "party": "CPNUML", "name_np": "बाबुरल भट्टराई", "name_en": "Baburam Bhattara", "vote": 25529 },
                { "party": "O", "name_np": "हिमिला यामी", "name_en": "Hisila Yami", "vote": 20828 },
                { "party": "CPNMC", "name_np": "रवि लामिछाने", "name_en": "Rabi Lamichhane", "vote": 23425 }
              ],
              "elected": {}
            },
            {
              "id": 3,
              "declared": true,
              "result": [
                { "party": "NC", "name_np": "विश्वप्रकाश सुवेदी", "name_en": "Bishwa Prakash Subedi", "vote": 29152 },
                { "party": "CPNUML", "name_np": "जलनाथ खनाल", "name_en": "Jhalanath Khanal", "vote": 18548 },
                { "party": "CPNUS", "name_np": "केपी ओली", "name_en": "KP Oli", "vote": 16013 },
                { "party": "O", "name_np": "शेरबहादुर देउवा", "name_en": "Sher Bahadur Deuba", "vote": 6036 }
              ],
              "elected": { "party": "NC", "name_np": "विश्वप्रकाश सुवेदी", "name_en": "Bishwa Prakash Subedi", "vote": 29152 }
            },
            {
              "id": 4,
              "declared": false,
              "result": [
                { "party": "O", "name_np": "केपी ओली", "name_en": "KP Oli", "vote": 8878 },
                { "party": "NC", "name_np": "शेरबहादुर देउवा", "name_en": "Sher Bahadur Deuba", "vote": 28428 },
                { "party": "CPNUML", "name_np": "योगेश भट्टराई", "name_en": "Yogesh Bhattarai", "vote": 2293 },
                { "party": "CPNMC", "name_np": "पुष्पकमल दाहाल", "name_en": "Pushpakamal Dahal", "vote": 28581 }
              ],
              "elected": {}
            }
          ]
        },
        {
          "id": "parsa",
          "regions": [
            {
              "id": 1,
              "declared": false,
              "result": [
                { "party": "NC", "name_np": "हिमिला यामी", "name_en": "Hisila Yami", "vote": 1249 },
                { "party": "CPNMC", "name_np": "माधव कुमार नेपाल", "name_en": "Madhab Kumar Nepal", "vote": 20962 },
                { "party": "O", "name_np": "सागर ढकाल", "name_en": "Sagar Dhakal", "vote": 5494 },
                { "party": "CPNUS", "name_np": "जलनाथ खनाल", "name_en": "Jhalanath Khanal", "vote": 24512 }
              ],
              "elected": {}
            },
            {
              "id": 2,
              "declared": false,
              "result": [
                { "party": "CPNUS", "name_np": "माधव कुमार नेपाल", "name_en": "Madhab Kumar Nepal", "vote": 11641 },
                { "party": "CPNUML", "name_np": "योगेश भट्टराई", "name_en": "Yogesh Bhattarai", "vote": 22183 },
                { "party": "NC", "name_np": "बाबुरल भट्टराई", "name_en": "Baburam Bhattara", "vote": 13253 },
                { "party": "O", "name_np": "शेरबहादुर देउवा", "name_en": "Sher Bahadur Deuba", "vote": 21866 }
              ],
              "elected": {}
            },
            {
              "id": 3,
              "declared": true,
              "result": [
                { "party": "CPNMC", "name_np": "हिमिला यामी", "name_en": "Hisila Yami", "vote": 26231 },
                { "party": "CPNUML", "name_np": "योगेश भट्टराई", "name_en": "Yogesh Bhattarai", "vote": 12763 },
                { "party": "NC", "name_np": "रवि लामिछाने", "name_en": "Rabi Lamichhane", "vote": 11771 },
                { "party": "O", "name_np": "विश्वप्रकाश सुवेदी", "name_en": "Bishwa Prakash Subedi", "vote": 11489 }
              ],
              "elected": { "party": "CPNMC", "name_np": "हिमिला यामी", "name_en": "Hisila Yami", "vote": 26231 }
            },
            {
              "id": 4,
              "declared": false,
              "result": [
                { "party": "NC", "name_np": "सागर ढकाल", "name_en": "Sagar Dhakal", "vote": 25733 },
                { "party": "CPNMC", "name_np": "जलनाथ खनाल", "name_en": "Jhalanath Khanal", "vote": 28096 },
                { "party": "CPNUML", "name_np": "केपी ओली", "name_en": "KP Oli", "vote": 24002 },
                { "party": "O", "name_np": "शेरबहादुर देउवा", "name_en": "Sher Bahadur Deuba", "vote": 22299 }
              ],
              "elected": {}
            }
          ]
        }
      ]
    },
    {
      "id": 3,
      "districts": [
        {
          "id": "sindhuli",
          "regions": [
            {
              "id": 1,
              "declared": false,
              "result": [
                { "party": "CPNUS", "name_np": "पुष्पकमल दाहाल", "name_en": "Pushpakamal Dahal", "vote": 22561 },
                { "party": "O", "name_np": "केपी ओली", "name_en": "KP Oli", "vote": 468 },
                { "party": "NC", "name_np": "जलनाथ खनाल", "name_en": "Jhalanath Khanal", "vote": 6667 },
                { "party": "CPNUML", "name_np": "सागर ढकाल", "name_en": "Sagar Dhakal", "vote": 16574 }
              ],
              "elected": {}
            },
            {
              "id": 2,
              "declared": false,
              "result": [
                { "party": "O", "name_np": "रवि लामिछाने", "name_en": "Rabi Lamichhane", "vote": 12634 },
                { "party": "CPNMC", "name_np": "गगन थापा", "name_en": "Gagan Thapa", "vote": 11824 },
                { "party": "CPNUML", "name_np": "बाबुरल भट्टराई", "name_en": "Baburam Bhattara", "vote": 20945 },
                { "party": "CPNUS", "name_np": "योगेश भट्टराई", "name_en": "Yogesh Bhattarai", "vote": 13696 }
              ],
              "elected": {}
            }
          ]
        },
        {
          "id": "ramechhap",
          "regions": [
            {
              "id": 1,
              "declared": false,
              "result": [
                { "party": "CPNMC", "name_np": "माधव कुमार नेपाल", "name_en": "Madhab Kumar Nepal", "vote": 1036 },
                { "party": "CPNUML", "name_np": "बाबुरल भट्टराई", "name_en": "Baburam Bhattara", "vote": 13853 },
                { "party": "CPNUS", "name_np": "योगेश भट्टराई", "name_en": "Yogesh Bhattarai", "vote": 17772 },
                { "party": "NC", "name_np": "रवि लामिछाने", "name_en": "Rabi Lamichhane", "vote": 6676 }
              ],
              "elected": {}
            }
          ]
        },
        {
          "id": "dolkha",
          "regions": [
            {
              "id": 1,
              "declared": false,
              "result": [
                { "party": "NC", "name_np": "पुष्पकमल दाहाल", "name_en": "Pushpakamal Dahal", "vote": 18592 },
                { "party": "O", "name_np": "विश्वप्रकाश सुवेदी", "name_en": "Bishwa Prakash Subedi", "vote": 11689 },
                { "party": "CPNUS", "name_np": "राजेन्द्र लिङ्देन", "name_en": "Ranjendra Lingden", "vote": 11259 },
                { "party": "CPNUML", "name_np": "केपी ओली", "name_en": "KP Oli", "vote": 19876 }
              ],
              "elected": {}
            }
          ]
        },
        {
          "id": "sindhupalchowk",
          "regions": [
            {
              "id": 1,
              "declared": false,
              "result": [
                { "party": "CPNMC", "name_np": "पुष्पकमल दाहाल", "name_en": "Pushpakamal Dahal", "vote": 14801 },
                { "party": "CPNUS", "name_np": "विश्वप्रकाश सुवेदी", "name_en": "Bishwa Prakash Subedi", "vote": 11069 },
                { "party": "CPNUML", "name_np": "जलनाथ खनाल", "name_en": "Jhalanath Khanal", "vote": 14460 },
                { "party": "NC", "name_np": "माधव कुमार नेपाल", "name_en": "Madhab Kumar Nepal", "vote": 6743 }
              ],
              "elected": {}
            },
            {
              "id": 2,
              "declared": false,
              "result": [
                { "party": "CPNUML", "name_np": "रवि लामिछाने", "name_en": "Rabi Lamichhane", "vote": 83 },
                { "party": "NC", "name_np": "योगेश भट्टराई", "name_en": "Yogesh Bhattarai", "vote": 25185 },
                { "party": "O", "name_np": "शेरबहादुर देउवा", "name_en": "Sher Bahadur Deuba", "vote": 27526 },
                { "party": "CPNMC", "name_np": "हिमिला यामी", "name_en": "Hisila Yami", "vote": 15239 }
              ],
              "elected": {}
            }
          ]
        },
        {
          "id": "kavrepalanchowk",
          "regions": [
            {
              "id": 1,
              "declared": false,
              "result": [
                { "party": "O", "name_np": "सागर ढकाल", "name_en": "Sagar Dhakal", "vote": 26918 },
                { "party": "CPNMC", "name_np": "योगेश भट्टराई", "name_en": "Yogesh Bhattarai", "vote": 7089 },
                { "party": "CPNUS", "name_np": "गगन थापा", "name_en": "Gagan Thapa", "vote": 29097 },
                { "party": "NC", "name_np": "हिमिला यामी", "name_en": "Hisila Yami", "vote": 11358 }
              ],
              "elected": {}
            },
            {
              "id": 2,
              "declared": false,
              "result": [
                { "party": "CPNUML", "name_np": "सागर ढकाल", "name_en": "Sagar Dhakal", "vote": 21221 },
                { "party": "CPNUS", "name_np": "पुष्पकमल दाहाल", "name_en": "Pushpakamal Dahal", "vote": 21672 },
                { "party": "NC", "name_np": "राजेन्द्र लिङ्देन", "name_en": "Ranjendra Lingden", "vote": 19417 },
                { "party": "O", "name_np": "शेरबहादुर देउवा", "name_en": "Sher Bahadur Deuba", "vote": 18724 }
              ],
              "elected": {}
            }
          ]
        },
        {
          "id": "lalitpur",
          "regions": [
            {
              "id": 1,
              "declared": false,
              "result": [
                { "party": "O", "name_np": "राजेन्द्र लिङ्देन", "name_en": "Ranjendra Lingden", "vote": 5489 },
                { "party": "CPNUS", "name_np": "गगन थापा", "name_en": "Gagan Thapa", "vote": 19891 },
                { "party": "CPNUML", "name_np": "जलनाथ खनाल", "name_en": "Jhalanath Khanal", "vote": 14382 },
                { "party": "CPNMC", "name_np": "सागर ढकाल", "name_en": "Sagar Dhakal", "vote": 4483 }
              ],
              "elected": {}
            },
            {
              "id": 2,
              "declared": false,
              "result": [
                { "party": "CPNUS", "name_np": "विश्वप्रकाश सुवेदी", "name_en": "Bishwa Prakash Subedi", "vote": 2931 },
                { "party": "CPNUML", "name_np": "केपी ओली", "name_en": "KP Oli", "vote": 4529 },
                { "party": "NC", "name_np": "पुष्पकमल दाहाल", "name_en": "Pushpakamal Dahal", "vote": 22912 },
                { "party": "CPNMC", "name_np": "रवि लामिछाने", "name_en": "Rabi Lamichhane", "vote": 1827 }
              ],
              "elected": {}
            },
            {
              "id": 3,
              "declared": true,
              "result": [
                { "party": "CPNUML", "name_np": "जलनाथ खनाल", "name_en": "Jhalanath Khanal", "vote": 7904 },
                { "party": "CPNMC", "name_np": "गगन थापा", "name_en": "Gagan Thapa", "vote": 5940 },
                { "party": "O", "name_np": "शेरबहादुर देउवा", "name_en": "Sher Bahadur Deuba", "vote": 5861 },
                { "party": "NC", "name_np": "केपी ओली", "name_en": "KP Oli", "vote": 4239 }
              ],
              "elected": { "party": "CPNUML", "name_np": "जलनाथ खनाल", "name_en": "Jhalanath Khanal", "vote": 7904 }
            }
          ]
        },
        {
          "id": "bhaktapur",
          "regions": [
            {
              "id": 1,
              "declared": false,
              "result": [
                { "party": "CPNMC", "name_np": "बाबुरल भट्टराई", "name_en": "Baburam Bhattara", "vote": 24393 },
                { "party": "O", "name_np": "माधव कुमार नेपाल", "name_en": "Madhab Kumar Nepal", "vote": 1477 },
                { "party": "NC", "name_np": "हिमिला यामी", "name_en": "Hisila Yami", "vote": 28974 },
                { "party": "CPNUML", "name_np": "सागर ढकाल", "name_en": "Sagar Dhakal", "vote": 4713 }
              ],
              "elected": {}
            },
            {
              "id": 2,
              "declared": false,
              "result": [
                { "party": "NC", "name_np": "गगन थापा", "name_en": "Gagan Thapa", "vote": 25327 },
                { "party": "CPNUS", "name_np": "बाबुरल भट्टराई", "name_en": "Baburam Bhattara", "vote": 773 },
                { "party": "O", "name_np": "राजेन्द्र लिङ्देन", "name_en": "Ranjendra Lingden", "vote": 5825 },
                { "party": "CPNUML", "name_np": "रवि लामिछाने", "name_en": "Rabi Lamichhane", "vote": 29230 }
              ],
              "elected": {}
            }
          ]
        },
        {
          "id": "kathmandu",
          "regions": [
            {
              "id": 1,
              "declared": false,
              "result": [
                { "party": "CPNMC", "name_np": "पुष्पकमल दाहाल", "name_en": "Pushpakamal Dahal", "vote": 18792 },
                { "party": "O", "name_np": "बाबुरल भट्टराई", "name_en": "Baburam Bhattara", "vote": 3358 },
                { "party": "NC", "name_np": "राजेन्द्र लिङ्देन", "name_en": "Ranjendra Lingden", "vote": 2648 },
                { "party": "CPNUS", "name_np": "विश्वप्रकाश सुवेदी", "name_en": "Bishwa Prakash Subedi", "vote": 3920 }
              ],
              "elected": {}
            },
            {
              "id": 2,
              "declared": false,
              "result": [
                { "party": "CPNMC", "name_np": "माधव कुमार नेपाल", "name_en": "Madhab Kumar Nepal", "vote": 28280 },
                { "party": "O", "name_np": "विश्वप्रकाश सुवेदी", "name_en": "Bishwa Prakash Subedi", "vote": 16131 },
                { "party": "CPNUML", "name_np": "सागर ढकाल", "name_en": "Sagar Dhakal", "vote": 23225 },
                { "party": "CPNUS", "name_np": "योगेश भट्टराई", "name_en": "Yogesh Bhattarai", "vote": 3025 }
              ],
              "elected": {}
            },
            {
              "id": 3,
              "declared": true,
              "result": [
                { "party": "CPNUS", "name_np": "गगन थापा", "name_en": "Gagan Thapa", "vote": 27335 },
                { "party": "NC", "name_np": "रवि लामिछाने", "name_en": "Rabi Lamichhane", "vote": 21952 },
                { "party": "CPNMC", "name_np": "सागर ढकाल", "name_en": "Sagar Dhakal", "vote": 15295 },
                { "party": "CPNUML", "name_np": "योगेश भट्टराई", "name_en": "Yogesh Bhattarai", "vote": 7216 }
              ],
              "elected": { "party": "CPNUS", "name_np": "गगन थापा", "name_en": "Gagan Thapa", "vote": 27335 }
            },
            {
              "id": 4,
              "declared": false,
              "result": [
                { "party": "CPNUS", "name_np": "योगेश भट्टराई", "name_en": "Yogesh Bhattarai", "vote": 13721 },
                { "party": "O", "name_np": "गगन थापा", "name_en": "Gagan Thapa", "vote": 20844 },
                { "party": "CPNUML", "name_np": "शेरबहादुर देउवा", "name_en": "Sher Bahadur Deuba", "vote": 23437 },
                { "party": "NC", "name_np": "राजेन्द्र लिङ्देन", "name_en": "Ranjendra Lingden", "vote": 11055 }
              ],
              "elected": {}
            },
            {
              "id": 5,
              "declared": false,
              "result": [
                { "party": "CPNUML", "name_np": "गगन थापा", "name_en": "Gagan Thapa", "vote": 28488 },
                { "party": "NC", "name_np": "जलनाथ खनाल", "name_en": "Jhalanath Khanal", "vote": 28084 },
                { "party": "O", "name_np": "योगेश भट्टराई", "name_en": "Yogesh Bhattarai", "vote": 19303 },
                { "party": "CPNUS", "name_np": "राजेन्द्र लिङ्देन", "name_en": "Ranjendra Lingden", "vote": 24827 }
              ],
              "elected": {}
            },
            {
              "id": 6,
              "declared": false,
              "result": [
                { "party": "NC", "name_np": "राजेन्द्र लिङ्देन", "name_en": "Ranjendra Lingden", "vote": 10913 },
                { "party": "O", "name_np": "विश्वप्रकाश सुवेदी", "name_en": "Bishwa Prakash Subedi", "vote": 21986 },
                { "party": "CPNUS", "name_np": "रवि लामिछाने", "name_en": "Rabi Lamichhane", "vote": 8021 },
                { "party": "CPNUML", "name_np": "हिमिला यामी", "name_en": "Hisila Yami", "vote": 20494 }
              ],
              "elected": {}
            },
            {
              "id": 7,
              "declared": false,
              "result": [
                { "party": "CPNUML", "name_np": "गगन थापा", "name_en": "Gagan Thapa", "vote": 17139 },
                { "party": "CPNUS", "name_np": "पुष्पकमल दाहाल", "name_en": "Pushpakamal Dahal", "vote": 7764 },
                { "party": "CPNMC", "name_np": "माधव कुमार नेपाल", "name_en": "Madhab Kumar Nepal", "vote": 26723 },
                { "party": "NC", "name_np": "रवि लामिछाने", "name_en": "Rabi Lamichhane", "vote": 2942 }
              ],
              "elected": {}
            },
            {
              "id": 8,
              "declared": false,
              "result": [
                { "party": "O", "name_np": "जलनाथ खनाल", "name_en": "Jhalanath Khanal", "vote": 4614 },
                { "party": "CPNUS", "name_np": "केपी ओली", "name_en": "KP Oli", "vote": 22163 },
                { "party": "CPNUML", "name_np": "गगन थापा", "name_en": "Gagan Thapa", "vote": 22412 },
                { "party": "NC", "name_np": "रवि लामिछाने", "name_en": "Rabi Lamichhane", "vote": 20410 }
              ],
              "elected": {}
            },
            {
              "id": 9,
              "declared": false,
              "result": [
                { "party": "CPNUS", "name_np": "राजेन्द्र लिङ्देन", "name_en": "Ranjendra Lingden", "vote": 4396 },
                { "party": "NC", "name_np": "सागर ढकाल", "name_en": "Sagar Dhakal", "vote": 22253 },
                { "party": "CPNUML", "name_np": "माधव कुमार नेपाल", "name_en": "Madhab Kumar Nepal", "vote": 27215 },
                { "party": "CPNMC", "name_np": "जलनाथ खनाल", "name_en": "Jhalanath Khanal", "vote": 4638 }
              ],
              "elected": {}
            },
            {
              "id": 10,
              "declared": false,
              "result": [
                { "party": "CPNMC", "name_np": "शेरबहादुर देउवा", "name_en": "Sher Bahadur Deuba", "vote": 21966 },
                { "party": "CPNUS", "name_np": "केपी ओली", "name_en": "KP Oli", "vote": 6041 },
                { "party": "CPNUML", "name_np": "पुष्पकमल दाहाल", "name_en": "Pushpakamal Dahal", "vote": 7912 },
                { "party": "O", "name_np": "माधव कुमार नेपाल", "name_en": "Madhab Kumar Nepal", "vote": 18334 }
              ],
              "elected": {}
            }
          ]
        },
        {
          "id": "nuwakot",
          "regions": [
            {
              "id": 1,
              "declared": false,
              "result": [
                { "party": "O", "name_np": "हिमिला यामी", "name_en": "Hisila Yami", "vote": 12241 },
                { "party": "NC", "name_np": "गगन थापा", "name_en": "Gagan Thapa", "vote": 16570 },
                { "party": "CPNUS", "name_np": "रवि लामिछाने", "name_en": "Rabi Lamichhane", "vote": 3160 },
                { "party": "CPNMC", "name_np": "विश्वप्रकाश सुवेदी", "name_en": "Bishwa Prakash Subedi", "vote": 4862 }
              ],
              "elected": {}
            },
            {
              "id": 2,
              "declared": false,
              "result": [
                { "party": "CPNUML", "name_np": "शेरबहादुर देउवा", "name_en": "Sher Bahadur Deuba", "vote": 10074 },
                { "party": "NC", "name_np": "रवि लामिछाने", "name_en": "Rabi Lamichhane", "vote": 22254 },
                { "party": "CPNMC", "name_np": "विश्वप्रकाश सुवेदी", "name_en": "Bishwa Prakash Subedi", "vote": 26570 },
                { "party": "CPNUS", "name_np": "जलनाथ खनाल", "name_en": "Jhalanath Khanal", "vote": 5439 }
              ],
              "elected": {}
            }
          ]
        },
        {
          "id": "rasuwa",
          "regions": [
            {
              "id": 1,
              "declared": false,
              "result": [
                { "party": "CPNMC", "name_np": "शेरबहादुर देउवा", "name_en": "Sher Bahadur Deuba", "vote": 1909 },
                { "party": "CPNUML", "name_np": "केपी ओली", "name_en": "KP Oli", "vote": 8032 },
                { "party": "CPNUS", "name_np": "योगेश भट्टराई", "name_en": "Yogesh Bhattarai", "vote": 28241 },
                { "party": "NC", "name_np": "पुष्पकमल दाहाल", "name_en": "Pushpakamal Dahal", "vote": 14912 }
              ],
              "elected": {}
            }
          ]
        },
        {
          "id": "dhading",
          "regions": [
            {
              "id": 1,
              "declared": false,
              "result": [
                { "party": "O", "name_np": "बाबुरल भट्टराई", "name_en": "Baburam Bhattara", "vote": 12688 },
                { "party": "NC", "name_np": "सागर ढकाल", "name_en": "Sagar Dhakal", "vote": 17440 },
                { "party": "CPNUS", "name_np": "रवि लामिछाने", "name_en": "Rabi Lamichhane", "vote": 3344 },
                { "party": "CPNUML", "name_np": "माधव कुमार नेपाल", "name_en": "Madhab Kumar Nepal", "vote": 12012 }
              ],
              "elected": {}
            },
            {
              "id": 2,
              "declared": false,
              "result": [
                { "party": "CPNUS", "name_np": "राजेन्द्र लिङ्देन", "name_en": "Ranjendra Lingden", "vote": 21407 },
                { "party": "CPNUML", "name_np": "सागर ढकाल", "name_en": "Sagar Dhakal", "vote": 12822 },
                { "party": "NC", "name_np": "गगन थापा", "name_en": "Gagan Thapa", "vote": 6681 },
                { "party": "CPNMC", "name_np": "हिमिला यामी", "name_en": "Hisila Yami", "vote": 578 }
              ],
              "elected": {}
            }
          ]
        },
        {
          "id": "makwanpur",
          "regions": [
            {
              "id": 1,
              "declared": false,
              "result": [
                { "party": "CPNUS", "name_np": "योगेश भट्टराई", "name_en": "Yogesh Bhattarai", "vote": 27315 },
                { "party": "NC", "name_np": "रवि लामिछाने", "name_en": "Rabi Lamichhane", "vote": 16059 },
                { "party": "CPNUML", "name_np": "विश्वप्रकाश सुवेदी", "name_en": "Bishwa Prakash Subedi", "vote": 26135 },
                { "party": "CPNMC", "name_np": "हिमिला यामी", "name_en": "Hisila Yami", "vote": 17849 }
              ],
              "elected": {}
            },
            {
              "id": 2,
              "declared": false,
              "result": [
                { "party": "O", "name_np": "माधव कुमार नेपाल", "name_en": "Madhab Kumar Nepal", "vote": 820 },
                { "party": "NC", "name_np": "जलनाथ खनाल", "name_en": "Jhalanath Khanal", "vote": 22702 },
                { "party": "CPNUS", "name_np": "शेरबहादुर देउवा", "name_en": "Sher Bahadur Deuba", "vote": 18685 },
                { "party": "CPNUML", "name_np": "पुष्पकमल दाहाल", "name_en": "Pushpakamal Dahal", "vote": 687 }
              ],
              "elected": {}
            }
          ]
        },
        {
          "id": "chitwan",
          "regions": [
            {
              "id": 1,
              "declared": false,
              "result": [
                { "party": "NC", "name_np": "गगन थापा", "name_en": "Gagan Thapa", "vote": 872 },
                { "party": "CPNUML", "name_np": "केपी ओली", "name_en": "KP Oli", "vote": 6209 },
                { "party": "CPNMC", "name_np": "विश्वप्रकाश सुवेदी", "name_en": "Bishwa Prakash Subedi", "vote": 5106 },
                { "party": "CPNUS", "name_np": "बाबुरल भट्टराई", "name_en": "Baburam Bhattara", "vote": 6084 }
              ],
              "elected": {}
            },
            {
              "id": 2,
              "declared": false,
              "result": [
                { "party": "CPNUS", "name_np": "माधव कुमार नेपाल", "name_en": "Madhab Kumar Nepal", "vote": 18650 },
                { "party": "O", "name_np": "गगन थापा", "name_en": "Gagan Thapa", "vote": 12366 },
                { "party": "NC", "name_np": "बाबुरल भट्टराई", "name_en": "Baburam Bhattara", "vote": 23251 },
                { "party": "CPNUML", "name_np": "योगेश भट्टराई", "name_en": "Yogesh Bhattarai", "vote": 4888 }
              ],
              "elected": {}
            },
            {
              "id": 3,
              "declared": true,
              "result": [
                { "party": "O", "name_np": "सागर ढकाल", "name_en": "Sagar Dhakal", "vote": 29136 },
                { "party": "CPNUS", "name_np": "पुष्पकमल दाहाल", "name_en": "Pushpakamal Dahal", "vote": 25591 },
                { "party": "NC", "name_np": "राजेन्द्र लिङ्देन", "name_en": "Ranjendra Lingden", "vote": 21187 },
                { "party": "CPNUML", "name_np": "केपी ओली", "name_en": "KP Oli", "vote": 14318 }
              ],
              "elected": { "party": "O", "name_np": "सागर ढकाल", "name_en": "Sagar Dhakal", "vote": 29136 }
            }
          ]
        }
      ]
    },
    {
      "id": 4,
      "districts": [
        {
          "id": "gorkha",
          "regions": [
            {
              "id": 1,
              "declared": false,
              "result": [
                { "party": "NC", "name_np": "राजेन्द्र लिङ्देन", "name_en": "Ranjendra Lingden", "vote": 10772 },
                { "party": "CPNUML", "name_np": "जलनाथ खनाल", "name_en": "Jhalanath Khanal", "vote": 19335 },
                { "party": "CPNMC", "name_np": "सागर ढकाल", "name_en": "Sagar Dhakal", "vote": 22807 },
                { "party": "CPNUS", "name_np": "माधव कुमार नेपाल", "name_en": "Madhab Kumar Nepal", "vote": 10909 }
              ],
              "elected": {}
            },
            {
              "id": 2,
              "declared": false,
              "result": [
                { "party": "O", "name_np": "विश्वप्रकाश सुवेदी", "name_en": "Bishwa Prakash Subedi", "vote": 4376 },
                { "party": "CPNUML", "name_np": "राजेन्द्र लिङ्देन", "name_en": "Ranjendra Lingden", "vote": 8582 },
                { "party": "CPNMC", "name_np": "पुष्पकमल दाहाल", "name_en": "Pushpakamal Dahal", "vote": 19893 },
                { "party": "CPNUS", "name_np": "केपी ओली", "name_en": "KP Oli", "vote": 6327 }
              ],
              "elected": {}
            }
          ]
        },
        {
          "id": "lamjung",
          "regions": [
            {
              "id": 1,
              "declared": false,
              "result": [
                { "party": "CPNMC", "name_np": "हिमिला यामी", "name_en": "Hisila Yami", "vote": 25928 },
                { "party": "NC", "name_np": "योगेश भट्टराई", "name_en": "Yogesh Bhattarai", "vote": 21092 },
                { "party": "O", "name_np": "शेरबहादुर देउवा", "name_en": "Sher Bahadur Deuba", "vote": 394 },
                { "party": "CPNUS", "name_np": "बाबुरल भट्टराई", "name_en": "Baburam Bhattara", "vote": 29126 }
              ],
              "elected": {}
            }
          ]
        },
        {
          "id": "tanahun",
          "regions": [
            {
              "id": 1,
              "declared": false,
              "result": [
                { "party": "CPNUML", "name_np": "सागर ढकाल", "name_en": "Sagar Dhakal", "vote": 2835 },
                { "party": "CPNMC", "name_np": "पुष्पकमल दाहाल", "name_en": "Pushpakamal Dahal", "vote": 6515 },
                { "party": "CPNUS", "name_np": "विश्वप्रकाश सुवेदी", "name_en": "Bishwa Prakash Subedi", "vote": 13544 },
                { "party": "NC", "name_np": "जलनाथ खनाल", "name_en": "Jhalanath Khanal", "vote": 27406 }
              ],
              "elected": {}
            },
            {
              "id": 2,
              "declared": false,
              "result": [
                { "party": "CPNUML", "name_np": "योगेश भट्टराई", "name_en": "Yogesh Bhattarai", "vote": 21245 },
                { "party": "O", "name_np": "बाबुरल भट्टराई", "name_en": "Baburam Bhattara", "vote": 4664 },
                { "party": "CPNUS", "name_np": "रवि लामिछाने", "name_en": "Rabi Lamichhane", "vote": 4231 },
                { "party": "NC", "name_np": "केपी ओली", "name_en": "KP Oli", "vote": 19823 }
              ],
              "elected": {}
            }
          ]
        },
        {
          "id": "syangja",
          "regions": [
            {
              "id": 1,
              "declared": false,
              "result": [
                { "party": "CPNUS", "name_np": "जलनाथ खनाल", "name_en": "Jhalanath Khanal", "vote": 15019 },
                { "party": "NC", "name_np": "विश्वप्रकाश सुवेदी", "name_en": "Bishwa Prakash Subedi", "vote": 11508 },
                { "party": "CPNMC", "name_np": "योगेश भट्टराई", "name_en": "Yogesh Bhattarai", "vote": 17897 },
                { "party": "CPNUML", "name_np": "गगन थापा", "name_en": "Gagan Thapa", "vote": 13933 }
              ],
              "elected": {}
            },
            {
              "id": 2,
              "declared": false,
              "result": [
                { "party": "CPNUS", "name_np": "माधव कुमार नेपाल", "name_en": "Madhab Kumar Nepal", "vote": 1815 },
                { "party": "CPNUML", "name_np": "गगन थापा", "name_en": "Gagan Thapa", "vote": 5218 },
                { "party": "O", "name_np": "विश्वप्रकाश सुवेदी", "name_en": "Bishwa Prakash Subedi", "vote": 8973 },
                { "party": "NC", "name_np": "जलनाथ खनाल", "name_en": "Jhalanath Khanal", "vote": 18332 }
              ],
              "elected": {}
            }
          ]
        },
        {
          "id": "kaski",
          "regions": [
            {
              "id": 1,
              "declared": false,
              "result": [
                { "party": "O", "name_np": "रवि लामिछाने", "name_en": "Rabi Lamichhane", "vote": 23843 },
                { "party": "CPNUML", "name_np": "विश्वप्रकाश सुवेदी", "name_en": "Bishwa Prakash Subedi", "vote": 28966 },
                { "party": "CPNMC", "name_np": "गगन थापा", "name_en": "Gagan Thapa", "vote": 18237 },
                { "party": "NC", "name_np": "माधव कुमार नेपाल", "name_en": "Madhab Kumar Nepal", "vote": 5439 }
              ],
              "elected": {}
            },
            {
              "id": 2,
              "declared": false,
              "result": [
                { "party": "CPNUML", "name_np": "बाबुरल भट्टराई", "name_en": "Baburam Bhattara", "vote": 29454 },
                { "party": "O", "name_np": "राजेन्द्र लिङ्देन", "name_en": "Ranjendra Lingden", "vote": 27315 },
                { "party": "NC", "name_np": "विश्वप्रकाश सुवेदी", "name_en": "Bishwa Prakash Subedi", "vote": 17886 },
                { "party": "CPNUS", "name_np": "शेरबहादुर देउवा", "name_en": "Sher Bahadur Deuba", "vote": 17292 }
              ],
              "elected": {}
            },
            {
              "id": 3,
              "declared": true,
              "result": [
                { "party": "CPNUS", "name_np": "विश्वप्रकाश सुवेदी", "name_en": "Bishwa Prakash Subedi", "vote": 27030 },
                { "party": "NC", "name_np": "गगन थापा", "name_en": "Gagan Thapa", "vote": 16487 },
                { "party": "CPNUML", "name_np": "जलनाथ खनाल", "name_en": "Jhalanath Khanal", "vote": 3433 },
                { "party": "O", "name_np": "राजेन्द्र लिङ्देन", "name_en": "Ranjendra Lingden", "vote": 2178 }
              ],
              "elected": { "party": "CPNUS", "name_np": "विश्वप्रकाश सुवेदी", "name_en": "Bishwa Prakash Subedi", "vote": 27030 }
            }
          ]
        },
        {
          "id": "manang",
          "regions": [
            {
              "id": 1,
              "declared": false,
              "result": [
                { "party": "CPNUS", "name_np": "योगेश भट्टराई", "name_en": "Yogesh Bhattarai", "vote": 5712 },
                { "party": "CPNMC", "name_np": "पुष्पकमल दाहाल", "name_en": "Pushpakamal Dahal", "vote": 9251 },
                { "party": "O", "name_np": "राजेन्द्र लिङ्देन", "name_en": "Ranjendra Lingden", "vote": 26634 },
                { "party": "NC", "name_np": "जलनाथ खनाल", "name_en": "Jhalanath Khanal", "vote": 28296 }
              ],
              "elected": {}
            }
          ]
        },
        {
          "id": "mustang",
          "regions": [
            {
              "id": 1,
              "declared": false,
              "result": [
                { "party": "O", "name_np": "योगेश भट्टराई", "name_en": "Yogesh Bhattarai", "vote": 8137 },
                { "party": "CPNMC", "name_np": "विश्वप्रकाश सुवेदी", "name_en": "Bishwa Prakash Subedi", "vote": 19582 },
                { "party": "NC", "name_np": "पुष्पकमल दाहाल", "name_en": "Pushpakamal Dahal", "vote": 21836 },
                { "party": "CPNUML", "name_np": "राजेन्द्र लिङ्देन", "name_en": "Ranjendra Lingden", "vote": 21557 }
              ],
              "elected": {}
            }
          ]
        },
        {
          "id": "parbat",
          "regions": [
            {
              "id": 1,
              "declared": false,
              "result": [
                { "party": "CPNUML", "name_np": "गगन थापा", "name_en": "Gagan Thapa", "vote": 651 },
                { "party": "CPNUS", "name_np": "राजेन्द्र लिङ्देन", "name_en": "Ranjendra Lingden", "vote": 3472 },
                { "party": "O", "name_np": "विश्वप्रकाश सुवेदी", "name_en": "Bishwa Prakash Subedi", "vote": 12810 },
                { "party": "NC", "name_np": "रवि लामिछाने", "name_en": "Rabi Lamichhane", "vote": 21304 }
              ],
              "elected": {}
            }
          ]
        },
        {
          "id": "myagdi",
          "regions": [
            {
              "id": 1,
              "declared": false,
              "result": [
                { "party": "CPNUML", "name_np": "जलनाथ खनाल", "name_en": "Jhalanath Khanal", "vote": 10912 },
                { "party": "O", "name_np": "पुष्पकमल दाहाल", "name_en": "Pushpakamal Dahal", "vote": 19273 },
                { "party": "NC", "name_np": "शेरबहादुर देउवा", "name_en": "Sher Bahadur Deuba", "vote": 10530 },
                { "party": "CPNUS", "name_np": "रवि लामिछाने", "name_en": "Rabi Lamichhane", "vote": 18581 }
              ],
              "elected": {}
            }
          ]
        },
        {
          "id": "baglung",
          "regions": [
            {
              "id": 1,
              "declared": false,
              "result": [
                { "party": "CPNUML", "name_np": "सागर ढकाल", "name_en": "Sagar Dhakal", "vote": 1859 },
                { "party": "O", "name_np": "विश्वप्रकाश सुवेदी", "name_en": "Bishwa Prakash Subedi", "vote": 24888 },
                { "party": "NC", "name_np": "बाबुरल भट्टराई", "name_en": "Baburam Bhattara", "vote": 2007 },
                { "party": "CPNUS", "name_np": "हिमिला यामी", "name_en": "Hisila Yami", "vote": 17229 }
              ],
              "elected": {}
            },
            {
              "id": 2,
              "declared": false,
              "result": [
                { "party": "CPNMC", "name_np": "केपी ओली", "name_en": "KP Oli", "vote": 29422 },
                { "party": "CPNUS", "name_np": "बाबुरल भट्टराई", "name_en": "Baburam Bhattara", "vote": 23150 },
                { "party": "CPNUML", "name_np": "राजेन्द्र लिङ्देन", "name_en": "Ranjendra Lingden", "vote": 3673 },
                { "party": "NC", "name_np": "जलनाथ खनाल", "name_en": "Jhalanath Khanal", "vote": 7346 }
              ],
              "elected": {}
            }
          ]
        },
        {
          "id": "nawalparasieast",
          "regions": [
            {
              "id": 1,
              "declared": false,
              "result": [
                { "party": "CPNUS", "name_np": "केपी ओली", "name_en": "KP Oli", "vote": 4075 },
                { "party": "O", "name_np": "योगेश भट्टराई", "name_en": "Yogesh Bhattarai", "vote": 22299 },
                { "party": "CPNMC", "name_np": "बाबुरल भट्टराई", "name_en": "Baburam Bhattara", "vote": 19444 },
                { "party": "NC", "name_np": "रवि लामिछाने", "name_en": "Rabi Lamichhane", "vote": 23087 }
              ],
              "elected": {}
            },
            {
              "id": 2,
              "declared": false,
              "result": [
                { "party": "CPNUS", "name_np": "केपी ओली", "name_en": "KP Oli", "vote": 18934 },
                { "party": "O", "name_np": "हिमिला यामी", "name_en": "Hisila Yami", "vote": 29874 },
                { "party": "NC", "name_np": "बाबुरल भट्टराई", "name_en": "Baburam Bhattara", "vote": 4799 },
                { "party": "CPNMC", "name_np": "पुष्पकमल दाहाल", "name_en": "Pushpakamal Dahal", "vote": 21254 }
              ],
              "elected": {}
            }
          ]
        }
      ]
    },
    {
      "id": 5,
      "districts": [
        {
          "id": "gulmi",
          "regions": [
            {
              "id": 1,
              "declared": false,
              "result": [
                { "party": "CPNUS", "name_np": "केपी ओली", "name_en": "KP Oli", "vote": 18476 },
                { "party": "O", "name_np": "जलनाथ खनाल", "name_en": "Jhalanath Khanal", "vote": 2968 },
                { "party": "NC", "name_np": "विश्वप्रकाश सुवेदी", "name_en": "Bishwa Prakash Subedi", "vote": 27664 },
                { "party": "CPNUML", "name_np": "बाबुरल भट्टराई", "name_en": "Baburam Bhattara", "vote": 14409 }
              ],
              "elected": {}
            },
            {
              "id": 2,
              "declared": false,
              "result": [
                { "party": "NC", "name_np": "विश्वप्रकाश सुवेदी", "name_en": "Bishwa Prakash Subedi", "vote": 10193 },
                { "party": "CPNUML", "name_np": "हिमिला यामी", "name_en": "Hisila Yami", "vote": 13679 },
                { "party": "O", "name_np": "शेरबहादुर देउवा", "name_en": "Sher Bahadur Deuba", "vote": 994 },
                { "party": "CPNMC", "name_np": "योगेश भट्टराई", "name_en": "Yogesh Bhattarai", "vote": 17798 }
              ],
              "elected": {}
            }
          ]
        },
        {
          "id": "palpa",
          "regions": [
            {
              "id": 1,
              "declared": false,
              "result": [
                { "party": "CPNMC", "name_np": "गगन थापा", "name_en": "Gagan Thapa", "vote": 26255 },
                { "party": "CPNUS", "name_np": "राजेन्द्र लिङ्देन", "name_en": "Ranjendra Lingden", "vote": 4482 },
                { "party": "CPNUML", "name_np": "बाबुरल भट्टराई", "name_en": "Baburam Bhattara", "vote": 15874 },
                { "party": "O", "name_np": "पुष्पकमल दाहाल", "name_en": "Pushpakamal Dahal", "vote": 19996 }
              ],
              "elected": {}
            },
            {
              "id": 2,
              "declared": false,
              "result": [
                { "party": "CPNUML", "name_np": "पुष्पकमल दाहाल", "name_en": "Pushpakamal Dahal", "vote": 27131 },
                { "party": "O", "name_np": "विश्वप्रकाश सुवेदी", "name_en": "Bishwa Prakash Subedi", "vote": 5415 },
                { "party": "NC", "name_np": "रवि लामिछाने", "name_en": "Rabi Lamichhane", "vote": 13395 },
                { "party": "CPNUS", "name_np": "सागर ढकाल", "name_en": "Sagar Dhakal", "vote": 27227 }
              ],
              "elected": {}
            }
          ]
        },
        {
          "id": "rupandehi",
          "regions": [
            {
              "id": 1,
              "declared": false,
              "result": [
                { "party": "CPNMC", "name_np": "योगेश भट्टराई", "name_en": "Yogesh Bhattarai", "vote": 24289 },
                { "party": "CPNUML", "name_np": "माधव कुमार नेपाल", "name_en": "Madhab Kumar Nepal", "vote": 20096 },
                { "party": "NC", "name_np": "सागर ढकाल", "name_en": "Sagar Dhakal", "vote": 24518 },
                { "party": "O", "name_np": "जलनाथ खनाल", "name_en": "Jhalanath Khanal", "vote": 13392 }
              ],
              "elected": {}
            },
            {
              "id": 2,
              "declared": false,
              "result": [
                { "party": "NC", "name_np": "केपी ओली", "name_en": "KP Oli", "vote": 24953 },
                { "party": "CPNUS", "name_np": "सागर ढकाल", "name_en": "Sagar Dhakal", "vote": 28612 },
                { "party": "O", "name_np": "विश्वप्रकाश सुवेदी", "name_en": "Bishwa Prakash Subedi", "vote": 16773 },
                { "party": "CPNMC", "name_np": "हिमिला यामी", "name_en": "Hisila Yami", "vote": 23972 }
              ],
              "elected": {}
            },
            {
              "id": 3,
              "declared": true,
              "result": [
                { "party": "CPNUML", "name_np": "केपी ओली", "name_en": "KP Oli", "vote": 6516 },
                { "party": "CPNUS", "name_np": "योगेश भट्टराई", "name_en": "Yogesh Bhattarai", "vote": 4710 },
                { "party": "NC", "name_np": "पुष्पकमल दाहाल", "name_en": "Pushpakamal Dahal", "vote": 2598 },
                { "party": "O", "name_np": "बाबुरल भट्टराई", "name_en": "Baburam Bhattara", "vote": 1383 }
              ],
              "elected": { "party": "CPNUML", "name_np": "केपी ओली", "name_en": "KP Oli", "vote": 6516 }
            },
            {
              "id": 4,
              "declared": false,
              "result": [
                { "party": "CPNUS", "name_np": "विश्वप्रकाश सुवेदी", "name_en": "Bishwa Prakash Subedi", "vote": 14009 },
                { "party": "NC", "name_np": "केपी ओली", "name_en": "KP Oli", "vote": 10477 },
                { "party": "O", "name_np": "गगन थापा", "name_en": "Gagan Thapa", "vote": 11024 },
                { "party": "CPNUML", "name_np": "योगेश भट्टराई", "name_en": "Yogesh Bhattarai", "vote": 4809 }
              ],
              "elected": {}
            },
            {
              "id": 5,
              "declared": false,
              "result": [
                { "party": "CPNUML", "name_np": "शेरबहादुर देउवा", "name_en": "Sher Bahadur Deuba", "vote": 21229 },
                { "party": "O", "name_np": "केपी ओली", "name_en": "KP Oli", "vote": 23889 },
                { "party": "CPNMC", "name_np": "योगेश भट्टराई", "name_en": "Yogesh Bhattarai", "vote": 9672 },
                { "party": "CPNUS", "name_np": "जलनाथ खनाल", "name_en": "Jhalanath Khanal", "vote": 27592 }
              ],
              "elected": {}
            }
          ]
        },
        {
          "id": "arghakhanchi",
          "regions": [
            {
              "id": 1,
              "declared": false,
              "result": [
                { "party": "O", "name_np": "सागर ढकाल", "name_en": "Sagar Dhakal", "vote": 12657 },
                { "party": "NC", "name_np": "हिमिला यामी", "name_en": "Hisila Yami", "vote": 6946 },
                { "party": "CPNUS", "name_np": "गगन थापा", "name_en": "Gagan Thapa", "vote": 15124 },
                { "party": "CPNUML", "name_np": "केपी ओली", "name_en": "KP Oli", "vote": 23146 }
              ],
              "elected": {}
            }
          ]
        },
        {
          "id": "kapilvastu",
          "regions": [
            {
              "id": 1,
              "declared": false,
              "result": [
                { "party": "CPNMC", "name_np": "गगन थापा", "name_en": "Gagan Thapa", "vote": 15725 },
                { "party": "CPNUS", "name_np": "जलनाथ खनाल", "name_en": "Jhalanath Khanal", "vote": 19025 },
                { "party": "NC", "name_np": "सागर ढकाल", "name_en": "Sagar Dhakal", "vote": 23008 },
                { "party": "O", "name_np": "विश्वप्रकाश सुवेदी", "name_en": "Bishwa Prakash Subedi", "vote": 8732 }
              ],
              "elected": {}
            },
            {
              "id": 2,
              "declared": false,
              "result": [
                { "party": "O", "name_np": "जलनाथ खनाल", "name_en": "Jhalanath Khanal", "vote": 10361 },
                { "party": "CPNUS", "name_np": "हिमिला यामी", "name_en": "Hisila Yami", "vote": 12791 },
                { "party": "NC", "name_np": "राजेन्द्र लिङ्देन", "name_en": "Ranjendra Lingden", "vote": 2747 },
                { "party": "CPNMC", "name_np": "माधव कुमार नेपाल", "name_en": "Madhab Kumar Nepal", "vote": 24717 }
              ],
              "elected": {}
            },
            {
              "id": 3,
              "declared": true,
              "result": [
                { "party": "CPNUS", "name_np": "माधव कुमार नेपाल", "name_en": "Madhab Kumar Nepal", "vote": 29207 },
                { "party": "CPNUML", "name_np": "पुष्पकमल दाहाल", "name_en": "Pushpakamal Dahal", "vote": 20050 },
                { "party": "CPNMC", "name_np": "केपी ओली", "name_en": "KP Oli", "vote": 15544 },
                { "party": "NC", "name_np": "विश्वप्रकाश सुवेदी", "name_en": "Bishwa Prakash Subedi", "vote": 2783 }
              ],
              "elected": { "party": "CPNUS", "name_np": "माधव कुमार नेपाल", "name_en": "Madhab Kumar Nepal", "vote": 29207 }
            }
          ]
        },
        {
          "id": "pyuthan",
          "regions": [
            {
              "id": 1,
              "declared": false,
              "result": [
                { "party": "NC", "name_np": "जलनाथ खनाल", "name_en": "Jhalanath Khanal", "vote": 11869 },
                { "party": "CPNUML", "name_np": "बाबुरल भट्टराई", "name_en": "Baburam Bhattara", "vote": 6161 },
                { "party": "CPNUS", "name_np": "शेरबहादुर देउवा", "name_en": "Sher Bahadur Deuba", "vote": 9506 },
                { "party": "O", "name_np": "राजेन्द्र लिङ्देन", "name_en": "Ranjendra Lingden", "vote": 4640 }
              ],
              "elected": {}
            }
          ]
        },
        {
          "id": "rolpa",
          "regions": [
            {
              "id": 1,
              "declared": false,
              "result": [
                { "party": "CPNUML", "name_np": "रवि लामिछाने", "name_en": "Rabi Lamichhane", "vote": 10973 },
                { "party": "O", "name_np": "राजेन्द्र लिङ्देन", "name_en": "Ranjendra Lingden", "vote": 18117 },
                { "party": "NC", "name_np": "बाबुरल भट्टराई", "name_en": "Baburam Bhattara", "vote": 10053 },
                { "party": "CPNUS", "name_np": "पुष्पकमल दाहाल", "name_en": "Pushpakamal Dahal", "vote": 5138 }
              ],
              "elected": {}
            }
          ]
        },
        {
          "id": "dang",
          "regions": [
            {
              "id": 1,
              "declared": false,
              "result": [
                { "party": "CPNUML", "name_np": "सागर ढकाल", "name_en": "Sagar Dhakal", "vote": 15273 },
                { "party": "O", "name_np": "हिमिला यामी", "name_en": "Hisila Yami", "vote": 26542 },
                { "party": "CPNUS", "name_np": "माधव कुमार नेपाल", "name_en": "Madhab Kumar Nepal", "vote": 22666 },
                { "party": "CPNMC", "name_np": "शेरबहादुर देउवा", "name_en": "Sher Bahadur Deuba", "vote": 24350 }
              ],
              "elected": {}
            },
            {
              "id": 2,
              "declared": false,
              "result": [
                { "party": "CPNMC", "name_np": "योगेश भट्टराई", "name_en": "Yogesh Bhattarai", "vote": 7901 },
                { "party": "NC", "name_np": "पुष्पकमल दाहाल", "name_en": "Pushpakamal Dahal", "vote": 25222 },
                { "party": "CPNUML", "name_np": "विश्वप्रकाश सुवेदी", "name_en": "Bishwa Prakash Subedi", "vote": 7057 },
                { "party": "O", "name_np": "माधव कुमार नेपाल", "name_en": "Madhab Kumar Nepal", "vote": 15721 }
              ],
              "elected": {}
            },
            {
              "id": 3,
              "declared": true,
              "result": [
                { "party": "NC", "name_np": "हिमिला यामी", "name_en": "Hisila Yami", "vote": 23785 },
                { "party": "O", "name_np": "राजेन्द्र लिङ्देन", "name_en": "Ranjendra Lingden", "vote": 14972 },
                { "party": "CPNMC", "name_np": "केपी ओली", "name_en": "KP Oli", "vote": 12969 },
                { "party": "CPNUML", "name_np": "जलनाथ खनाल", "name_en": "Jhalanath Khanal", "vote": 891 }
              ],
              "elected": { "party": "NC", "name_np": "हिमिला यामी", "name_en": "Hisila Yami", "vote": 23785 }
            }
          ]
        },
        {
          "id": "bardiya",
          "regions": [
            {
              "id": 1,
              "declared": false,
              "result": [
                { "party": "O", "name_np": "बाबुरल भट्टराई", "name_en": "Baburam Bhattara", "vote": 12381 },
                { "party": "CPNUML", "name_np": "शेरबहादुर देउवा", "name_en": "Sher Bahadur Deuba", "vote": 24889 },
                { "party": "CPNMC", "name_np": "विश्वप्रकाश सुवेदी", "name_en": "Bishwa Prakash Subedi", "vote": 14494 },
                { "party": "CPNUS", "name_np": "राजेन्द्र लिङ्देन", "name_en": "Ranjendra Lingden", "vote": 7852 }
              ],
              "elected": {}
            },
            {
              "id": 2,
              "declared": false,
              "result": [
                { "party": "CPNUS", "name_np": "बाबुरल भट्टराई", "name_en": "Baburam Bhattara", "vote": 13341 },
                { "party": "CPNUML", "name_np": "जलनाथ खनाल", "name_en": "Jhalanath Khanal", "vote": 20670 },
                { "party": "NC", "name_np": "गगन थापा", "name_en": "Gagan Thapa", "vote": 26588 },
                { "party": "O", "name_np": "केपी ओली", "name_en": "KP Oli", "vote": 28920 }
              ],
              "elected": {}
            }
          ]
        },
        {
          "id": "banke",
          "regions": [
            {
              "id": 1,
              "declared": false,
              "result": [
                { "party": "CPNMC", "name_np": "बाबुरल भट्टराई", "name_en": "Baburam Bhattara", "vote": 1475 },
                { "party": "CPNUS", "name_np": "योगेश भट्टराई", "name_en": "Yogesh Bhattarai", "vote": 28256 },
                { "party": "CPNUML", "name_np": "रवि लामिछाने", "name_en": "Rabi Lamichhane", "vote": 11271 },
                { "party": "NC", "name_np": "गगन थापा", "name_en": "Gagan Thapa", "vote": 25429 }
              ],
              "elected": {}
            },
            {
              "id": 2,
              "declared": false,
              "result": [
                { "party": "CPNUML", "name_np": "पुष्पकमल दाहाल", "name_en": "Pushpakamal Dahal", "vote": 1709 },
                { "party": "CPNMC", "name_np": "बाबुरल भट्टराई", "name_en": "Baburam Bhattara", "vote": 22879 },
                { "party": "CPNUS", "name_np": "राजेन्द्र लिङ्देन", "name_en": "Ranjendra Lingden", "vote": 14127 },
                { "party": "O", "name_np": "माधव कुमार नेपाल", "name_en": "Madhab Kumar Nepal", "vote": 1705 }
              ],
              "elected": {}
            },
            {
              "id": 3,
              "declared": true,
              "result": [
                { "party": "CPNUS", "name_np": "शेरबहादुर देउवा", "name_en": "Sher Bahadur Deuba", "vote": 23593 },
                { "party": "O", "name_np": "योगेश भट्टराई", "name_en": "Yogesh Bhattarai", "vote": 11652 },
                { "party": "NC", "name_np": "जलनाथ खनाल", "name_en": "Jhalanath Khanal", "vote": 8806 },
                { "party": "CPNMC", "name_np": "रवि लामिछाने", "name_en": "Rabi Lamichhane", "vote": 8757 }
              ],
              "elected": { "party": "CPNUS", "name_np": "शेरबहादुर देउवा", "name_en": "Sher Bahadur Deuba", "vote": 23593 }
            }
          ]
        },
        {
          "id": "nawalparasiwest",
          "regions": [
            {
              "id": 1,
              "declared": false,
              "result": [
                { "party": "CPNUS", "name_np": "बाबुरल भट्टराई", "name_en": "Baburam Bhattara", "vote": 22745 },
                { "party": "CPNUML", "name_np": "योगेश भट्टराई", "name_en": "Yogesh Bhattarai", "vote": 12001 },
                { "party": "CPNMC", "name_np": "जलनाथ खनाल", "name_en": "Jhalanath Khanal", "vote": 20647 },
                { "party": "NC", "name_np": "शेरबहादुर देउवा", "name_en": "Sher Bahadur Deuba", "vote": 1323 }
              ],
              "elected": {}
            },
            {
              "id": 2,
              "declared": false,
              "result": [
                { "party": "CPNUML", "name_np": "गगन थापा", "name_en": "Gagan Thapa", "vote": 20368 },
                { "party": "CPNUS", "name_np": "माधव कुमार नेपाल", "name_en": "Madhab Kumar Nepal", "vote": 29899 },
                { "party": "NC", "name_np": "पुष्पकमल दाहाल", "name_en": "Pushpakamal Dahal", "vote": 17487 },
                { "party": "O", "name_np": "बाबुरल भट्टराई", "name_en": "Baburam Bhattara", "vote": 26557 }
              ],
              "elected": {}
            }
          ]
        },
        {
          "id": "rukumeast",
          "regions": [
            {
              "id": 1,
              "declared": false,
              "result": [
                { "party": "CPNUS", "name_np": "विश्वप्रकाश सुवेदी", "name_en": "Bishwa Prakash Subedi", "vote": 6482 },
                { "party": "CPNUML", "name_np": "गगन थापा", "name_en": "Gagan Thapa", "vote": 29715 },
                { "party": "CPNMC", "name_np": "राजेन्द्र लिङ्देन", "name_en": "Ranjendra Lingden", "vote": 8171 },
                { "party": "O", "name_np": "योगेश भट्टराई", "name_en": "Yogesh Bhattarai", "vote": 14223 }
              ],
              "elected": {}
            }
          ]
        }
      ]
    },
    {
      "id": 6,
      "districts": [
        {
          "id": "rukumwest",
          "regions": [
            {
              "id": 1,
              "declared": false,
              "result": [
                { "party": "CPNMC", "name_np": "शेरबहादुर देउवा", "name_en": "Sher Bahadur Deuba", "vote": 26196 },
                { "party": "CPNUML", "name_np": "रवि लामिछाने", "name_en": "Rabi Lamichhane", "vote": 19906 },
                { "party": "NC", "name_np": "पुष्पकमल दाहाल", "name_en": "Pushpakamal Dahal", "vote": 8573 },
                { "party": "O", "name_np": "राजेन्द्र लिङ्देन", "name_en": "Ranjendra Lingden", "vote": 20606 }
              ],
              "elected": {}
            }
          ]
        },
        {
          "id": "salyan",
          "regions": [
            {
              "id": 1,
              "declared": false,
              "result": [
                { "party": "CPNUML", "name_np": "बाबुरल भट्टराई", "name_en": "Baburam Bhattara", "vote": 19735 },
                { "party": "CPNMC", "name_np": "विश्वप्रकाश सुवेदी", "name_en": "Bishwa Prakash Subedi", "vote": 28232 },
                { "party": "CPNUS", "name_np": "गगन थापा", "name_en": "Gagan Thapa", "vote": 29850 },
                { "party": "NC", "name_np": "माधव कुमार नेपाल", "name_en": "Madhab Kumar Nepal", "vote": 11245 }
              ],
              "elected": {}
            }
          ]
        },
        {
          "id": "surkhet",
          "regions": [
            {
              "id": 1,
              "declared": false,
              "result": [
                { "party": "NC", "name_np": "राजेन्द्र लिङ्देन", "name_en": "Ranjendra Lingden", "vote": 20154 },
                { "party": "O", "name_np": "रवि लामिछाने", "name_en": "Rabi Lamichhane", "vote": 13444 },
                { "party": "CPNMC", "name_np": "योगेश भट्टराई", "name_en": "Yogesh Bhattarai", "vote": 12214 },
                { "party": "CPNUML", "name_np": "माधव कुमार नेपाल", "name_en": "Madhab Kumar Nepal", "vote": 14589 }
              ],
              "elected": {}
            },
            {
              "id": 2,
              "declared": false,
              "result": [
                { "party": "CPNMC", "name_np": "योगेश भट्टराई", "name_en": "Yogesh Bhattarai", "vote": 8694 },
                { "party": "CPNUS", "name_np": "बाबुरल भट्टराई", "name_en": "Baburam Bhattara", "vote": 14155 },
                { "party": "NC", "name_np": "सागर ढकाल", "name_en": "Sagar Dhakal", "vote": 4198 },
                { "party": "O", "name_np": "जलनाथ खनाल", "name_en": "Jhalanath Khanal", "vote": 2758 }
              ],
              "elected": {}
            }
          ]
        },
        {
          "id": "dailekh",
          "regions": [
            {
              "id": 1,
              "declared": false,
              "result": [
                { "party": "O", "name_np": "राजेन्द्र लिङ्देन", "name_en": "Ranjendra Lingden", "vote": 4708 },
                { "party": "CPNUS", "name_np": "सागर ढकाल", "name_en": "Sagar Dhakal", "vote": 169 },
                { "party": "CPNUML", "name_np": "शेरबहादुर देउवा", "name_en": "Sher Bahadur Deuba", "vote": 322 },
                { "party": "NC", "name_np": "पुष्पकमल दाहाल", "name_en": "Pushpakamal Dahal", "vote": 3227 }
              ],
              "elected": {}
            },
            {
              "id": 2,
              "declared": false,
              "result": [
                { "party": "CPNUML", "name_np": "राजेन्द्र लिङ्देन", "name_en": "Ranjendra Lingden", "vote": 18916 },
                { "party": "O", "name_np": "हिमिला यामी", "name_en": "Hisila Yami", "vote": 29057 },
                { "party": "CPNUS", "name_np": "योगेश भट्टराई", "name_en": "Yogesh Bhattarai", "vote": 7841 },
                { "party": "CPNMC", "name_np": "शेरबहादुर देउवा", "name_en": "Sher Bahadur Deuba", "vote": 20933 }
              ],
              "elected": {}
            }
          ]
        },
        {
          "id": "jajarkot",
          "regions": [
            {
              "id": 1,
              "declared": false,
              "result": [
                { "party": "CPNUML", "name_np": "रवि लामिछाने", "name_en": "Rabi Lamichhane", "vote": 21882 },
                { "party": "CPNMC", "name_np": "सागर ढकाल", "name_en": "Sagar Dhakal", "vote": 9165 },
                { "party": "CPNUS", "name_np": "बाबुरल भट्टराई", "name_en": "Baburam Bhattara", "vote": 24494 },
                { "party": "NC", "name_np": "योगेश भट्टराई", "name_en": "Yogesh Bhattarai", "vote": 20982 }
              ],
              "elected": {}
            }
          ]
        },
        {
          "id": "dolpa",
          "regions": [
            {
              "id": 1,
              "declared": false,
              "result": [
                { "party": "CPNMC", "name_np": "गगन थापा", "name_en": "Gagan Thapa", "vote": 358 },
                { "party": "CPNUML", "name_np": "रवि लामिछाने", "name_en": "Rabi Lamichhane", "vote": 29044 },
                { "party": "NC", "name_np": "पुष्पकमल दाहाल", "name_en": "Pushpakamal Dahal", "vote": 6624 },
                { "party": "CPNUS", "name_np": "माधव कुमार नेपाल", "name_en": "Madhab Kumar Nepal", "vote": 20826 }
              ],
              "elected": {}
            }
          ]
        },
        {
          "id": "humla",
          "regions": [
            {
              "id": 1,
              "declared": false,
              "result": [
                { "party": "CPNUS", "name_np": "गगन थापा", "name_en": "Gagan Thapa", "vote": 26090 },
                { "party": "CPNUML", "name_np": "माधव कुमार नेपाल", "name_en": "Madhab Kumar Nepal", "vote": 20955 },
                { "party": "CPNMC", "name_np": "विश्वप्रकाश सुवेदी", "name_en": "Bishwa Prakash Subedi", "vote": 5066 },
                { "party": "O", "name_np": "बाबुरल भट्टराई", "name_en": "Baburam Bhattara", "vote": 25725 }
              ],
              "elected": {}
            }
          ]
        },
        {
          "id": "kalikot",
          "regions": [
            {
              "id": 1,
              "declared": false,
              "result": [
                { "party": "O", "name_np": "पुष्पकमल दाहाल", "name_en": "Pushpakamal Dahal", "vote": 5481 },
                { "party": "CPNUML", "name_np": "जलनाथ खनाल", "name_en": "Jhalanath Khanal", "vote": 26400 },
                { "party": "CPNMC", "name_np": "सागर ढकाल", "name_en": "Sagar Dhakal", "vote": 8676 },
                { "party": "NC", "name_np": "विश्वप्रकाश सुवेदी", "name_en": "Bishwa Prakash Subedi", "vote": 13478 }
              ],
              "elected": {}
            }
          ]
        },
        {
          "id": "mugu",
          "regions": [
            {
              "id": 1,
              "declared": false,
              "result": [
                { "party": "CPNUML", "name_np": "योगेश भट्टराई", "name_en": "Yogesh Bhattarai", "vote": 28124 },
                { "party": "CPNUS", "name_np": "रवि लामिछाने", "name_en": "Rabi Lamichhane", "vote": 23263 },
                { "party": "NC", "name_np": "राजेन्द्र लिङ्देन", "name_en": "Ranjendra Lingden", "vote": 26383 },
                { "party": "O", "name_np": "माधव कुमार नेपाल", "name_en": "Madhab Kumar Nepal", "vote": 3024 }
              ],
              "elected": {}
            }
          ]
        },
        {
          "id": "jumla",
          "regions": [
            {
              "id": 1,
              "declared": false,
              "result": [
                { "party": "CPNMC", "name_np": "पुष्पकमल दाहाल", "name_en": "Pushpakamal Dahal", "vote": 5972 },
                { "party": "CPNUS", "name_np": "शेरबहादुर देउवा", "name_en": "Sher Bahadur Deuba", "vote": 8212 },
                { "party": "CPNUML", "name_np": "केपी ओली", "name_en": "KP Oli", "vote": 27998 },
                { "party": "O", "name_np": "गगन थापा", "name_en": "Gagan Thapa", "vote": 6054 }
              ],
              "elected": {}
            }
          ]
        }
      ]
    },
    {
      "id": 7,
      "districts": [
        {
          "id": "bajura",
          "regions": [
            {
              "id": 1,
              "declared": false,
              "result": [
                { "party": "CPNMC", "name_np": "सागर ढकाल", "name_en": "Sagar Dhakal", "vote": 18646 },
                { "party": "O", "name_np": "गगन थापा", "name_en": "Gagan Thapa", "vote": 15448 },
                { "party": "NC", "name_np": "जलनाथ खनाल", "name_en": "Jhalanath Khanal", "vote": 11728 },
                { "party": "CPNUS", "name_np": "केपी ओली", "name_en": "KP Oli", "vote": 17979 }
              ],
              "elected": {}
            }
          ]
        },
        {
          "id": "bajhang",
          "regions": [
            {
              "id": 1,
              "declared": false,
              "result": [
                { "party": "NC", "name_np": "विश्वप्रकाश सुवेदी", "name_en": "Bishwa Prakash Subedi", "vote": 17123 },
                { "party": "CPNUS", "name_np": "राजेन्द्र लिङ्देन", "name_en": "Ranjendra Lingden", "vote": 25005 },
                { "party": "CPNMC", "name_np": "बाबुरल भट्टराई", "name_en": "Baburam Bhattara", "vote": 12030 },
                { "party": "CPNUML", "name_np": "गगन थापा", "name_en": "Gagan Thapa", "vote": 19964 }
              ],
              "elected": {}
            }
          ]
        },
        {
          "id": "achham",
          "regions": [
            {
              "id": 1,
              "declared": false,
              "result": [
                { "party": "O", "name_np": "हिमिला यामी", "name_en": "Hisila Yami", "vote": 26319 },
                { "party": "NC", "name_np": "शेरबहादुर देउवा", "name_en": "Sher Bahadur Deuba", "vote": 16565 },
                { "party": "CPNUML", "name_np": "सागर ढकाल", "name_en": "Sagar Dhakal", "vote": 15996 },
                { "party": "CPNUS", "name_np": "बाबुरल भट्टराई", "name_en": "Baburam Bhattara", "vote": 14743 }
              ],
              "elected": {}
            },
            {
              "id": 2,
              "declared": false,
              "result": [
                { "party": "CPNMC", "name_np": "बाबुरल भट्टराई", "name_en": "Baburam Bhattara", "vote": 8733 },
                { "party": "O", "name_np": "राजेन्द्र लिङ्देन", "name_en": "Ranjendra Lingden", "vote": 20466 },
                { "party": "NC", "name_np": "योगेश भट्टराई", "name_en": "Yogesh Bhattarai", "vote": 5063 },
                { "party": "CPNUS", "name_np": "पुष्पकमल दाहाल", "name_en": "Pushpakamal Dahal", "vote": 10234 }
              ],
              "elected": {}
            }
          ]
        },
        {
          "id": "doti",
          "regions": [
            {
              "id": 1,
              "declared": false,
              "result": [
                { "party": "O", "name_np": "शेरबहादुर देउवा", "name_en": "Sher Bahadur Deuba", "vote": 34 },
                { "party": "NC", "name_np": "सागर ढकाल", "name_en": "Sagar Dhakal", "vote": 10034 },
                { "party": "CPNUML", "name_np": "राजेन्द्र लिङ्देन", "name_en": "Ranjendra Lingden", "vote": 5282 },
                { "party": "CPNMC", "name_np": "बाबुरल भट्टराई", "name_en": "Baburam Bhattara", "vote": 9927 }
              ],
              "elected": {}
            }
          ]
        },
        {
          "id": "kailali",
          "regions": [
            {
              "id": 1,
              "declared": false,
              "result": [
                { "party": "NC", "name_np": "पुष्पकमल दाहाल", "name_en": "Pushpakamal Dahal", "vote": 13159 },
                { "party": "CPNUML", "name_np": "राजेन्द्र लिङ्देन", "name_en": "Ranjendra Lingden", "vote": 632 },
                { "party": "CPNUS", "name_np": "बाबुरल भट्टराई", "name_en": "Baburam Bhattara", "vote": 1951 },
                { "party": "O", "name_np": "योगेश भट्टराई", "name_en": "Yogesh Bhattarai", "vote": 1396 }
              ],
              "elected": {}
            },
            {
              "id": 2,
              "declared": false,
              "result": [
                { "party": "NC", "name_np": "केपी ओली", "name_en": "KP Oli", "vote": 28475 },
                { "party": "CPNUML", "name_np": "माधव कुमार नेपाल", "name_en": "Madhab Kumar Nepal", "vote": 6238 },
                { "party": "O", "name_np": "सागर ढकाल", "name_en": "Sagar Dhakal", "vote": 26986 },
                { "party": "CPNUS", "name_np": "गगन थापा", "name_en": "Gagan Thapa", "vote": 51 }
              ],
              "elected": {}
            },
            {
              "id": 3,
              "declared": true,
              "result": [
                { "party": "O", "name_np": "पुष्पकमल दाहाल", "name_en": "Pushpakamal Dahal", "vote": 27236 },
                { "party": "NC", "name_np": "केपी ओली", "name_en": "KP Oli", "vote": 18385 },
                { "party": "CPNUML", "name_np": "जलनाथ खनाल", "name_en": "Jhalanath Khanal", "vote": 17360 },
                { "party": "CPNMC", "name_np": "रवि लामिछाने", "name_en": "Rabi Lamichhane", "vote": 3985 }
              ],
              "elected": { "party": "O", "name_np": "पुष्पकमल दाहाल", "name_en": "Pushpakamal Dahal", "vote": 27236 }
            },
            {
              "id": 4,
              "declared": false,
              "result": [
                { "party": "CPNUS", "name_np": "हिमिला यामी", "name_en": "Hisila Yami", "vote": 3451 },
                { "party": "CPNUML", "name_np": "गगन थापा", "name_en": "Gagan Thapa", "vote": 8139 },
                { "party": "O", "name_np": "शेरबहादुर देउवा", "name_en": "Sher Bahadur Deuba", "vote": 27826 },
                { "party": "CPNMC", "name_np": "जलनाथ खनाल", "name_en": "Jhalanath Khanal", "vote": 10708 }
              ],
              "elected": {}
            },
            {
              "id": 5,
              "declared": false,
              "result": [
                { "party": "CPNUS", "name_np": "बाबुरल भट्टराई", "name_en": "Baburam Bhattara", "vote": 29571 },
                { "party": "NC", "name_np": "रवि लामिछाने", "name_en": "Rabi Lamichhane", "vote": 26132 },
                { "party": "CPNMC", "name_np": "शेरबहादुर देउवा", "name_en": "Sher Bahadur Deuba", "vote": 28804 },
                { "party": "CPNUML", "name_np": "केपी ओली", "name_en": "KP Oli", "vote": 18214 }
              ],
              "elected": {}
            }
          ]
        },
        {
          "id": "kanchanpur",
          "regions": [
            {
              "id": 1,
              "declared": false,
              "result": [
                { "party": "CPNUML", "name_np": "केपी ओली", "name_en": "KP Oli", "vote": 16383 },
                { "party": "O", "name_np": "विश्वप्रकाश सुवेदी", "name_en": "Bishwa Prakash Subedi", "vote": 12614 },
                { "party": "CPNMC", "name_np": "गगन थापा", "name_en": "Gagan Thapa", "vote": 28846 },
                { "party": "NC", "name_np": "पुष्पकमल दाहाल", "name_en": "Pushpakamal Dahal", "vote": 3242 }
              ],
              "elected": {}
            },
            {
              "id": 2,
              "declared": false,
              "result": [
                { "party": "CPNUS", "name_np": "शेरबहादुर देउवा", "name_en": "Sher Bahadur Deuba", "vote": 735 },
                { "party": "NC", "name_np": "बाबुरल भट्टराई", "name_en": "Baburam Bhattara", "vote": 20584 },
                { "party": "O", "name_np": "रवि लामिछाने", "name_en": "Rabi Lamichhane", "vote": 22154 },
                { "party": "CPNMC", "name_np": "विश्वप्रकाश सुवेदी", "name_en": "Bishwa Prakash Subedi", "vote": 8404 }
              ],
              "elected": {}
            },
            {
              "id": 3,
              "declared": true,
              "result": [
                { "party": "CPNUML", "name_np": "पुष्पकमल दाहाल", "name_en": "Pushpakamal Dahal", "vote": 23352 },
                { "party": "CPNUS", "name_np": "सागर ढकाल", "name_en": "Sagar Dhakal", "vote": 14424 },
                { "party": "NC", "name_np": "विश्वप्रकाश सुवेदी", "name_en": "Bishwa Prakash Subedi", "vote": 9412 },
                { "party": "CPNMC", "name_np": "शेरबहादुर देउवा", "name_en": "Sher Bahadur Deuba", "vote": 3845 }
              ],
              "elected": { "party": "CPNUML", "name_np": "पुष्पकमल दाहाल", "name_en": "Pushpakamal Dahal", "vote": 23352 }
            }
          ]
        },
        {
          "id": "dadeldhura",
          "regions": [
            {
              "id": 1,
              "declared": false,
              "result": [
                { "party": "CPNMC", "name_np": "केपी ओली", "name_en": "KP Oli", "vote": 17245 },
                { "party": "CPNUML", "name_np": "जलनाथ खनाल", "name_en": "Jhalanath Khanal", "vote": 17271 },
                { "party": "CPNUS", "name_np": "सागर ढकाल", "name_en": "Sagar Dhakal", "vote": 17214 },
                { "party": "O", "name_np": "राजेन्द्र लिङ्देन", "name_en": "Ranjendra Lingden", "vote": 20629 }
              ],
              "elected": {}
            }
          ]
        },
        {
          "id": "baitadi",
          "regions": [
            {
              "id": 1,
              "declared": false,
              "result": [
                { "party": "CPNMC", "name_np": "गगन थापा", "name_en": "Gagan Thapa", "vote": 1375 },
                { "party": "CPNUML", "name_np": "बाबुरल भट्टराई", "name_en": "Baburam Bhattara", "vote": 12608 },
                { "party": "O", "name_np": "योगेश भट्टराई", "name_en": "Yogesh Bhattarai", "vote": 16575 },
                { "party": "NC", "name_np": "शेरबहादुर देउवा", "name_en": "Sher Bahadur Deuba", "vote": 18941 }
              ],
              "elected": {}
            }
          ]
        },
        {
          "id": "darchula",
          "regions": [
            {
              "id": 1,
              "declared": false,
              "result": [
                { "party": "CPNUML", "name_np": "गगन थापा", "name_en": "Gagan Thapa", "vote": 8903 },
                { "party": "O", "name_np": "रवि लामिछाने", "name_en": "Rabi Lamichhane", "vote": 13182 },
                { "party": "CPNUS", "name_np": "पुष्पकमल दाहाल", "name_en": "Pushpakamal Dahal", "vote": 1983 },
                { "party": "CPNMC", "name_np": "शेरबहादुर देउवा", "name_en": "Sher Bahadur Deuba", "vote": 16780 }
              ],
              "elected": {}
            }
          ]
        }
      ]
    }
  ]
}
