{
  "provinces": [
    {
      "id": 1,
      "districts": [
        {
          "id": "taplejung",
          "regions": [
            {
              "id": 1.1,
              "declared": false,
              "result": [
                { "party": 3, "name_np": "शेरबहादुर देउवा", "name_en": "Sher Bahadur Deuba", "vote": 7457 },
                { "party": 1, "name_np": "केपी ओली", "name_en": "KP Oli", "vote": 6821 },
                { "party": 0, "name_np": "सागर ढकाल", "name_en": "Sagar Dhakal", "vote": 14652 },
                { "party": 2, "name_np": "गगन थापा", "name_en": "Gagan Thapa", "vote": 16126 }
              ],
              "elected": {}
            },
            {
              "id": 1.2,
              "declared": false,
              "result": [
                { "party": 2, "name_np": "पुष्पकमल दाहाल", "name_en": "Pushpakamal Dahal", "vote": 3178 },
                { "party": 0, "name_np": "शेरबहादुर देउवा", "name_en": "Sher Bahadur Deuba", "vote": 19682 },
                { "party": 4, "name_np": "केपी ओली", "name_en": "KP Oli", "vote": 8647 },
                { "party": 3, "name_np": "सागर ढकाल", "name_en": "Sagar Dhakal", "vote": 23227 }
              ],
              "elected": {}
            }
          ]
        },
        {
          "id": "panchthar",
          "regions": [
            {
              "id": 1.1,
              "declared": false,
              "result": [
                { "party": 2, "name_np": "रवि लामिछाने", "name_en": "Rabi Lamichhane", "vote": 18634 },
                { "party": 3, "name_np": "गगन थापा", "name_en": "Gagan Thapa", "vote": 26117 },
                { "party": 0, "name_np": "बाबुरल भट्टराई", "name_en": "Baburam Bhattara", "vote": 16893 },
                { "party": 1, "name_np": "केपी ओली", "name_en": "KP Oli", "vote": 23947 }
              ],
              "elected": {}
            },
            {
              "id": 1.2,
              "declared": false,
              "result": [
                { "party": 1, "name_np": "जलनाथ खनाल", "name_en": "Jhalanath Khanal", "vote": 21443 },
                { "party": 3, "name_np": "गगन थापा", "name_en": "Gagan Thapa", "vote": 27932 },
                { "party": 0, "name_np": "रवि लामिछाने", "name_en": "Rabi Lamichhane", "vote": 3931 },
                { "party": 2, "name_np": "बाबुरल भट्टराई", "name_en": "Baburam Bhattara", "vote": 27079 }
              ],
              "elected": {}
            }
          ]
        },
        {
          "id": "illam",
          "regions": [
            {
              "id": 1.1,
              "declared": false,
              "result": [
                { "party": 1, "name_np": "शेरबहादुर देउवा", "name_en": "Sher Bahadur Deuba", "vote": 14149 },
                { "party": 3, "name_np": "बाबुरल भट्टराई", "name_en": "Baburam Bhattara", "vote": 2528 },
                { "party": 0, "name_np": "पुष्पकमल दाहाल", "name_en": "Pushpakamal Dahal", "vote": 26830 },
                { "party": 4, "name_np": "हिमिला यामी", "name_en": "Hisila Yami", "vote": 6574 }
              ],
              "elected": {}
            },
            {
              "id": 1.2,
              "declared": false,
              "result": [
                { "party": 4, "name_np": "हिमिला यामी", "name_en": "Hisila Yami", "vote": 17269 },
                { "party": 0, "name_np": "रवि लामिछाने", "name_en": "Rabi Lamichhane", "vote": 22995 },
                { "party": 1, "name_np": "सागर ढकाल", "name_en": "Sagar Dhakal", "vote": 2086 },
                { "party": 3, "name_np": "केपी ओली", "name_en": "KP Oli", "vote": 19914 }
              ],
              "elected": {}
            },
            {
              "id": 2.1,
              "declared": true,
              "result": [
                { "party": 3, "name_np": "केपी ओली", "name_en": "KP Oli", "vote": 29406 },
                { "party": 2, "name_np": "सागर ढकाल", "name_en": "Sagar Dhakal", "vote": 27247 },
                { "party": 4, "name_np": "बाबुरल भट्टराई", "name_en": "Baburam Bhattara", "vote": 6227 },
                { "party": 0, "name_np": "योगेश भट्टराई", "name_en": "Yogesh Bhattarai", "vote": 1066 }
              ],
              "elected": { "party": 3, "name_np": "केपी ओली", "name_en": "KP Oli", "vote": 29406 }
            },
            {
              "id": 2.2,
              "declared": false,
              "result": [
                { "party": 4, "name_np": "माधव कुमार नेपाल", "name_en": "Madhab Kumar Nepal", "vote": 28933 },
                { "party": 1, "name_np": "केपी ओली", "name_en": "KP Oli", "vote": 6639 },
                { "party": 3, "name_np": "पुष्पकमल दाहाल", "name_en": "Pushpakamal Dahal", "vote": 7473 },
                { "party": 0, "name_np": "विश्वप्रकाश सुवेदी", "name_en": "Bishwa Prakash Subedi", "vote": 25082 }
              ],
              "elected": {}
            }
          ]
        },
        {
          "id": "jhapa",
          "regions": [
            {
              "id": 1.1,
              "declared": false,
              "result": [
                { "party": 1, "name_np": "हिमिला यामी", "name_en": "Hisila Yami", "vote": 29731 },
                { "party": 3, "name_np": "पुष्पकमल दाहाल", "name_en": "Pushpakamal Dahal", "vote": 3047 },
                { "party": 4, "name_np": "बाबुरल भट्टराई", "name_en": "Baburam Bhattara", "vote": 25746 },
                { "party": 2, "name_np": "सागर ढकाल", "name_en": "Sagar Dhakal", "vote": 383 }
              ],
              "elected": {}
            },
            {
              "id": 1.2,
              "declared": false,
              "result": [
                { "party": 2, "name_np": "केपी ओली", "name_en": "KP Oli", "vote": 12604 },
                { "party": 0, "name_np": "माधव कुमार नेपाल", "name_en": "Madhab Kumar Nepal", "vote": 17101 },
                { "party": 4, "name_np": "हिमिला यामी", "name_en": "Hisila Yami", "vote": 7900 },
                { "party": 1, "name_np": "सागर ढकाल", "name_en": "Sagar Dhakal", "vote": 23062 }
              ],
              "elected": {}
            },
            {
              "id": 2.1,
              "declared": true,
              "result": [
                { "party": 1, "name_np": "केपी ओली", "name_en": "KP Oli", "vote": 29437 },
                { "party": 4, "name_np": "गगन थापा", "name_en": "Gagan Thapa", "vote": 26924 },
                { "party": 3, "name_np": "माधव कुमार नेपाल", "name_en": "Madhab Kumar Nepal", "vote": 26174 },
                { "party": 2, "name_np": "रवि लामिछाने", "name_en": "Rabi Lamichhane", "vote": 7159 }
              ],
              "elected": { "party": 1, "name_np": "केपी ओली", "name_en": "KP Oli", "vote": 29437 }
            },
            {
              "id": 2.2,
              "declared": false,
              "result": [
                { "party": 2, "name_np": "शेरबहादुर देउवा", "name_en": "Sher Bahadur Deuba", "vote": 18072 },
                { "party": 4, "name_np": "विश्वप्रकाश सुवेदी", "name_en": "Bishwa Prakash Subedi", "vote": 19209 },
                { "party": 3, "name_np": "माधव कुमार नेपाल", "name_en": "Madhab Kumar Nepal", "vote": 14092 },
                { "party": 0, "name_np": "रवि लामिछाने", "name_en": "Rabi Lamichhane", "vote": 19430 }
              ],
              "elected": {}
            },
            {
              "id": 3.1,
              "declared": false,
              "result": [
                { "party": 4, "name_np": "हिमिला यामी", "name_en": "Hisila Yami", "vote": 10950 },
                { "party": 1, "name_np": "बाबुरल भट्टराई", "name_en": "Baburam Bhattara", "vote": 28121 },
                { "party": 0, "name_np": "माधव कुमार नेपाल", "name_en": "Madhab Kumar Nepal", "vote": 17271 },
                { "party": 3, "name_np": "विश्वप्रकाश सुवेदी", "name_en": "Bishwa Prakash Subedi", "vote": 28197 }
              ],
              "elected": {}
            },
            {
              "id": 3.2,
              "declared": false,
              "result": [
                { "party": 4, "name_np": "रवि लामिछाने", "name_en": "Rabi Lamichhane", "vote": 13211 },
                { "party": 3, "name_np": "पुष्पकमल दाहाल", "name_en": "Pushpakamal Dahal", "vote": 24898 },
                { "party": 1, "name_np": "हिमिला यामी", "name_en": "Hisila Yami", "vote": 4412 },
                { "party": 2, "name_np": "माधव कुमार नेपाल", "name_en": "Madhab Kumar Nepal", "vote": 6376 }
              ],
              "elected": {}
            },
            {
              "id": 4.1,
              "declared": false,
              "result": [
                { "party": 2, "name_np": "केपी ओली", "name_en": "KP Oli", "vote": 6412 },
                { "party": 3, "name_np": "गगन थापा", "name_en": "Gagan Thapa", "vote": 1461 },
                { "party": 4, "name_np": "रवि लामिछाने", "name_en": "Rabi Lamichhane", "vote": 4292 },
                { "party": 1, "name_np": "विश्वप्रकाश सुवेदी", "name_en": "Bishwa Prakash Subedi", "vote": 21944 }
              ],
              "elected": {}
            },
            {
              "id": 4.2,
              "declared": false,
              "result": [
                { "party": 2, "name_np": "हिमिला यामी", "name_en": "Hisila Yami", "vote": 313 },
                { "party": 1, "name_np": "विश्वप्रकाश सुवेदी", "name_en": "Bishwa Prakash Subedi", "vote": 424 },
                { "party": 0, "name_np": "गगन थापा", "name_en": "Gagan Thapa", "vote": 28193 },
                { "party": 4, "name_np": "बाबुरल भट्टराई", "name_en": "Baburam Bhattara", "vote": 24312 }
              ],
              "elected": {}
            },
            {
              "id": 5.1,
              "declared": false,
              "result": [
                { "party": 2, "name_np": "सागर ढकाल", "name_en": "Sagar Dhakal", "vote": 27533 },
                { "party": 3, "name_np": "बाबुरल भट्टराई", "name_en": "Baburam Bhattara", "vote": 7170 },
                { "party": 0, "name_np": "रवि लामिछाने", "name_en": "Rabi Lamichhane", "vote": 21748 },
                { "party": 1, "name_np": "जलनाथ खनाल", "name_en": "Jhalanath Khanal", "vote": 22433 }
              ],
              "elected": {}
            },
            {
              "id": 5.2,
              "declared": false,
              "result": [
                { "party": 0, "name_np": "पुष्पकमल दाहाल", "name_en": "Pushpakamal Dahal", "vote": 21134 },
                { "party": 1, "name_np": "हिमिला यामी", "name_en": "Hisila Yami", "vote": 12743 },
                { "party": 3, "name_np": "सागर ढकाल", "name_en": "Sagar Dhakal", "vote": 19867 },
                { "party": 4, "name_np": "शेरबहादुर देउवा", "name_en": "Sher Bahadur Deuba", "vote": 9396 }
              ],
              "elected": {}
            }
          ]
        },
        {
          "id": "morang",
          "regions": [
            {
              "id": 1.1,
              "declared": false,
              "result": [
                { "party": 1, "name_np": "हिमिला यामी", "name_en": "Hisila Yami", "vote": 21674 },
                { "party": 3, "name_np": "रवि लामिछाने", "name_en": "Rabi Lamichhane", "vote": 5732 },
                { "party": 4, "name_np": "जलनाथ खनाल", "name_en": "Jhalanath Khanal", "vote": 20625 },
                { "party": 2, "name_np": "विश्वप्रकाश सुवेदी", "name_en": "Bishwa Prakash Subedi", "vote": 25603 }
              ],
              "elected": {}
            },
            {
              "id": 1.2,
              "declared": false,
              "result": [
                { "party": 2, "name_np": "माधव कुमार नेपाल", "name_en": "Madhab Kumar Nepal", "vote": 24051 },
                { "party": 3, "name_np": "केपी ओली", "name_en": "KP Oli", "vote": 19623 },
                { "party": 1, "name_np": "शेरबहादुर देउवा", "name_en": "Sher Bahadur Deuba", "vote": 4555 },
                { "party": 0, "name_np": "रवि लामिछाने", "name_en": "Rabi Lamichhane", "vote": 23075 }
              ],
              "elected": {}
            },
            {
              "id": 2.1,
              "declared": true,
              "result": [
                { "party": 0, "name_np": "सागर ढकाल", "name_en": "Sagar Dhakal", "vote": 19633 },
                { "party": 2, "name_np": "योगेश भट्टराई", "name_en": "Yogesh Bhattarai", "vote": 11823 },
                { "party": 1, "name_np": "माधव कुमार नेपाल", "name_en": "Madhab Kumar Nepal", "vote": 10458 },
                { "party": 4, "name_np": "केपी ओली", "name_en": "KP Oli", "vote": 3522 }
              ],
              "elected": { "party": 0, "name_np": "सागर ढकाल", "name_en": "Sagar Dhakal", "vote": 19633 }
            },
            {
              "id": 2.2,
              "declared": false,
              "result": [
                { "party": 0, "name_np": "सागर ढकाल", "name_en": "Sagar Dhakal", "vote": 28468 },
                { "party": 2, "name_np": "शेरबहादुर देउवा", "name_en": "Sher Bahadur Deuba", "vote": 7495 },
                { "party": 4, "name_np": "विश्वप्रकाश सुवेदी", "name_en": "Bishwa Prakash Subedi", "vote": 27244 },
                { "party": 1, "name_np": "राजेन्द्र लिङ्देन", "name_en": "Ranjendra Lingden", "vote": 6761 }
              ],
              "elected": {}
            },
            {
              "id": 3.1,
              "declared": false,
              "result": [
                { "party": 0, "name_np": "बाबुरल भट्टराई", "name_en": "Baburam Bhattara", "vote": 26550 },
                { "party": 4, "name_np": "रवि लामिछाने", "name_en": "Rabi Lamichhane", "vote": 19504 },
                { "party": 2, "name_np": "हिमिला यामी", "name_en": "Hisila Yami", "vote": 16720 },
                { "party": 1, "name_np": "गगन थापा", "name_en": "Gagan Thapa", "vote": 20666 }
              ],
              "elected": {}
            },
            {
              "id": 3.2,
              "declared": false,
              "result": [
                { "party": 2, "name_np": "विश्वप्रकाश सुवेदी", "name_en": "Bishwa Prakash Subedi", "vote": 7109 },
                { "party": 3, "name_np": "शेरबहादुर देउवा", "name_en": "Sher Bahadur Deuba", "vote": 7146 },
                { "party": 1, "name_np": "रवि लामिछाने", "name_en": "Rabi Lamichhane", "vote": 21779 },
                { "party": 4, "name_np": "बाबुरल भट्टराई", "name_en": "Baburam Bhattara", "vote": 2498 }
              ],
              "elected": {}
            },
            {
              "id": 4.1,
              "declared": false,
              "result": [
                { "party": 2, "name_np": "राजेन्द्र लिङ्देन", "name_en": "Ranjendra Lingden", "vote": 1710 },
                { "party": 1, "name_np": "गगन थापा", "name_en": "Gagan Thapa", "vote": 18075 },
                { "party": 0, "name_np": "केपी ओली", "name_en": "KP Oli", "vote": 23830 },
                { "party": 4, "name_np": "पुष्पकमल दाहाल", "name_en": "Pushpakamal Dahal", "vote": 9528 }
              ],
              "elected": {}
            },
            {
              "id": 4.2,
              "declared": false,
              "result": [
                { "party": 0, "name_np": "शेरबहादुर देउवा", "name_en": "Sher Bahadur Deuba", "vote": 3828 },
                { "party": 4, "name_np": "जलनाथ खनाल", "name_en": "Jhalanath Khanal", "vote": 16890 },
                { "party": 2, "name_np": "रवि लामिछाने", "name_en": "Rabi Lamichhane", "vote": 21076 },
                { "party": 1, "name_np": "योगेश भट्टराई", "name_en": "Yogesh Bhattarai", "vote": 21131 }
              ],
              "elected": {}
            },
            {
              "id": 5.1,
              "declared": false,
              "result": [
                { "party": 0, "name_np": "बाबुरल भट्टराई", "name_en": "Baburam Bhattara", "vote": 14804 },
                { "party": 3, "name_np": "योगेश भट्टराई", "name_en": "Yogesh Bhattarai", "vote": 18885 },
                { "party": 1, "name_np": "गगन थापा", "name_en": "Gagan Thapa", "vote": 350 },
                { "party": 4, "name_np": "सागर ढकाल", "name_en": "Sagar Dhakal", "vote": 29608 }
              ],
              "elected": {}
            },
            {
              "id": 5.2,
              "declared": false,
              "result": [
                { "party": 4, "name_np": "जलनाथ खनाल", "name_en": "Jhalanath Khanal", "vote": 5295 },
                { "party": 3, "name_np": "हिमिला यामी", "name_en": "Hisila Yami", "vote": 18489 },
                { "party": 0, "name_np": "रवि लामिछाने", "name_en": "Rabi Lamichhane", "vote": 3723 },
                { "party": 2, "name_np": "सागर ढकाल", "name_en": "Sagar Dhakal", "vote": 15904 }
              ],
              "elected": {}
            },
            {
              "id": 6.1,
              "declared": false,
              "result": [
                { "party": 0, "name_np": "योगेश भट्टराई", "name_en": "Yogesh Bhattarai", "vote": 17245 },
                { "party": 3, "name_np": "पुष्पकमल दाहाल", "name_en": "Pushpakamal Dahal", "vote": 4753 },
                { "party": 1, "name_np": "शेरबहादुर देउवा", "name_en": "Sher Bahadur Deuba", "vote": 8003 },
                { "party": 2, "name_np": "केपी ओली", "name_en": "KP Oli", "vote": 25687 }
              ],
              "elected": {}
            },
            {
              "id": 6.2,
              "declared": false,
              "result": [
                { "party": 1, "name_np": "विश्वप्रकाश सुवेदी", "name_en": "Bishwa Prakash Subedi", "vote": 13803 },
                { "party": 0, "name_np": "राजेन्द्र लिङ्देन", "name_en": "Ranjendra Lingden", "vote": 26802 },
                { "party": 4, "name_np": "गगन थापा", "name_en": "Gagan Thapa", "vote": 15840 },
                { "party": 3, "name_np": "माधव कुमार नेपाल", "name_en": "Madhab Kumar Nepal", "vote": 23293 }
              ],
              "elected": {}
            }
          ]
        },
        {
          "id": "sunsari",
          "regions": [
            {
              "id": 1.1,
              "declared": false,
              "result": [
                { "party": 0, "name_np": "केपी ओली", "name_en": "KP Oli", "vote": 17642 },
                { "party": 1, "name_np": "राजेन्द्र लिङ्देन", "name_en": "Ranjendra Lingden", "vote": 17104 },
                { "party": 2, "name_np": "बाबुरल भट्टराई", "name_en": "Baburam Bhattara", "vote": 4050 },
                { "party": 3, "name_np": "पुष्पकमल दाहाल", "name_en": "Pushpakamal Dahal", "vote": 25182 }
              ],
              "elected": {}
            },
            {
              "id": 1.2,
              "declared": false,
              "result": [
                { "party": 0, "name_np": "जलनाथ खनाल", "name_en": "Jhalanath Khanal", "vote": 25397 },
                { "party": 1, "name_np": "माधव कुमार नेपाल", "name_en": "Madhab Kumar Nepal", "vote": 15202 },
                { "party": 4, "name_np": "रवि लामिछाने", "name_en": "Rabi Lamichhane", "vote": 3618 },
                { "party": 3, "name_np": "विश्वप्रकाश सुवेदी", "name_en": "Bishwa Prakash Subedi", "vote": 10511 }
              ],
              "elected": {}
            },
            {
              "id": 2.1,
              "declared": true,
              "result": [
                { "party": 3, "name_np": "जलनाथ खनाल", "name_en": "Jhalanath Khanal", "vote": 28153 },
                { "party": 2, "name_np": "गगन थापा", "name_en": "Gagan Thapa", "vote": 25542 },
                { "party": 0, "name_np": "केपी ओली", "name_en": "KP Oli", "vote": 23832 },
                { "party": 4, "name_np": "योगेश भट्टराई", "name_en": "Yogesh Bhattarai", "vote": 8524 }
              ],
              "elected": { "party": 3, "name_np": "जलनाथ खनाल", "name_en": "Jhalanath Khanal", "vote": 28153 }
            },
            {
              "id": 2.2,
              "declared": false,
              "result": [
                { "party": 4, "name_np": "हिमिला यामी", "name_en": "Hisila Yami", "vote": 22988 },
                { "party": 3, "name_np": "योगेश भट्टराई", "name_en": "Yogesh Bhattarai", "vote": 2922 },
                { "party": 1, "name_np": "रवि लामिछाने", "name_en": "Rabi Lamichhane", "vote": 3782 },
                { "party": 0, "name_np": "माधव कुमार नेपाल", "name_en": "Madhab Kumar Nepal", "vote": 11543 }
              ],
              "elected": {}
            },
            {
              "id": 3.1,
              "declared": false,
              "result": [
                { "party": 3, "name_np": "रवि लामिछाने", "name_en": "Rabi Lamichhane", "vote": 2201 },
                { "party": 0, "name_np": "सागर ढकाल", "name_en": "Sagar Dhakal", "vote": 17242 },
                { "party": 1, "name_np": "राजेन्द्र लिङ्देन", "name_en": "Ranjendra Lingden", "vote": 17319 },
                { "party": 2, "name_np": "बाबुरल भट्टराई", "name_en": "Baburam Bhattara", "vote": 19317 }
              ],
              "elected": {}
            },
            {
              "id": 3.2,
              "declared": false,
              "result": [
                { "party": 1, "name_np": "केपी ओली", "name_en": "KP Oli", "vote": 25619 },
                { "party": 0, "name_np": "बाबुरल भट्टराई", "name_en": "Baburam Bhattara", "vote": 23276 },
                { "party": 4, "name_np": "पुष्पकमल दाहाल", "name_en": "Pushpakamal Dahal", "vote": 10311 },
                { "party": 2, "name_np": "जलनाथ खनाल", "name_en": "Jhalanath Khanal", "vote": 16380 }
              ],
              "elected": {}
            },
            {
              "id": 4.1,
              "declared": false,
              "result": [
                { "party": 1, "name_np": "माधव कुमार नेपाल", "name_en": "Madhab Kumar Nepal", "vote": 29481 },
                { "party": 4, "name_np": "राजेन्द्र लिङ्देन", "name_en": "Ranjendra Lingden", "vote": 25345 },
                { "party": 0, "name_np": "पुष्पकमल दाहाल", "name_en": "Pushpakamal Dahal", "vote": 27594 },
                { "party": 2, "name_np": "केपी ओली", "name_en": "KP Oli", "vote": 22774 }
              ],
              "elected": {}
            },
            {
              "id": 4.2,
              "declared": false,
              "result": [
                { "party": 0, "name_np": "रवि लामिछाने", "name_en": "Rabi Lamichhane", "vote": 23142 },
                { "party": 2, "name_np": "हिमिला यामी", "name_en": "Hisila Yami", "vote": 27873 },
                { "party": 3, "name_np": "केपी ओली", "name_en": "KP Oli", "vote": 22004 },
                { "party": 1, "name_np": "सागर ढकाल", "name_en": "Sagar Dhakal", "vote": 10044 }
              ],
              "elected": {}
            }
          ]
        },
        {
          "id": "dhankuta",
          "regions": [
            {
              "id": 1.1,
              "declared": false,
              "result": [
                { "party": 0, "name_np": "सागर ढकाल", "name_en": "Sagar Dhakal", "vote": 11201 },
                { "party": 4, "name_np": "बाबुरल भट्टराई", "name_en": "Baburam Bhattara", "vote": 7722 },
                { "party": 1, "name_np": "माधव कुमार नेपाल", "name_en": "Madhab Kumar Nepal", "vote": 8494 },
                { "party": 3, "name_np": "राजेन्द्र लिङ्देन", "name_en": "Ranjendra Lingden", "vote": 6833 }
              ],
              "elected": {}
            },
            {
              "id": 1.2,
              "declared": false,
              "result": [
                { "party": 3, "name_np": "केपी ओली", "name_en": "KP Oli", "vote": 18172 },
                { "party": 4, "name_np": "जलनाथ खनाल", "name_en": "Jhalanath Khanal", "vote": 6243 },
                { "party": 2, "name_np": "गगन थापा", "name_en": "Gagan Thapa", "vote": 17630 },
                { "party": 1, "name_np": "योगेश भट्टराई", "name_en": "Yogesh Bhattarai", "vote": 5344 }
              ],
              "elected": {}
            }
          ]
        },
        {
          "id": "sankhuwasabha",
          "regions": [
            {
              "id": 1.1,
              "declared": false,
              "result": [
                { "party": 2, "name_np": "गगन थापा", "name_en": "Gagan Thapa", "vote": 7729 },
                { "party": 3, "name_np": "हिमिला यामी", "name_en": "Hisila Yami", "vote": 5086 },
                { "party": 4, "name_np": "पुष्पकमल दाहाल", "name_en": "Pushpakamal Dahal", "vote": 11234 },
                { "party": 0, "name_np": "माधव कुमार नेपाल", "name_en": "Madhab Kumar Nepal", "vote": 15287 }
              ],
              "elected": {}
            },
            {
              "id": 1.2,
              "declared": false,
              "result": [
                { "party": 3, "name_np": "राजेन्द्र लिङ्देन", "name_en": "Ranjendra Lingden", "vote": 23265 },
                { "party": 2, "name_np": "माधव कुमार नेपाल", "name_en": "Madhab Kumar Nepal", "vote": 17622 },
                { "party": 0, "name_np": "हिमिला यामी", "name_en": "Hisila Yami", "vote": 19459 },
                { "party": 4, "name_np": "सागर ढकाल", "name_en": "Sagar Dhakal", "vote": 15980 }
              ],
              "elected": {}
            }
          ]
        },
        {
          "id": "bhojpur",
          "regions": [
            {
              "id": 1.1,
              "declared": false,
              "result": [
                { "party": 2, "name_np": "पुष्पकमल दाहाल", "name_en": "Pushpakamal Dahal", "vote": 27148 },
                { "party": 3, "name_np": "जलनाथ खनाल", "name_en": "Jhalanath Khanal", "vote": 1373 },
                { "party": 4, "name_np": "योगेश भट्टराई", "name_en": "Yogesh Bhattarai", "vote": 10220 },
                { "party": 1, "name_np": "शेरबहादुर देउवा", "name_en": "Sher Bahadur Deuba", "vote": 29752 }
              ],
              "elected": {}
            },
            {
              "id": 1.2,
              "declared": false,
              "result": [
                { "party": 0, "name_np": "बाबुरल भट्टराई", "name_en": "Baburam Bhattara", "vote": 15598 },
                { "party": 4, "name_np": "राजेन्द्र लिङ्देन", "name_en": "Ranjendra Lingden", "vote": 8272 },
                { "party": 1, "name_np": "योगेश भट्टराई", "name_en": "Yogesh Bhattarai", "vote": 26973 },
                { "party": 3, "name_np": "विश्वप्रकाश सुवेदी", "name_en": "Bishwa Prakash Subedi", "vote": 16618 }
              ],
              "elected": {}
            }
          ]
        },
        {
          "id": "terhathum",
          "regions": [
            {
              "id": 1.1,
              "declared": false,
              "result": [
                { "party": 4, "name_np": "शेरबहादुर देउवा", "name_en": "Sher Bahadur Deuba", "vote": 21056 },
                { "party": 3, "name_np": "जलनाथ खनाल", "name_en": "Jhalanath Khanal", "vote": 17679 },
                { "party": 2, "name_np": "रवि लामिछाने", "name_en": "Rabi Lamichhane", "vote": 5226 },
                { "party": 0, "name_np": "केपी ओली", "name_en": "KP Oli", "vote": 4139 }
              ],
              "elected": {}
            },
            {
              "id": 1.2,
              "declared": false,
              "result": [
                { "party": 3, "name_np": "राजेन्द्र लिङ्देन", "name_en": "Ranjendra Lingden", "vote": 15224 },
                { "party": 4, "name_np": "सागर ढकाल", "name_en": "Sagar Dhakal", "vote": 760 },
                { "party": 1, "name_np": "गगन थापा", "name_en": "Gagan Thapa", "vote": 2653 },
                { "party": 2, "name_np": "शेरबहादुर देउवा", "name_en": "Sher Bahadur Deuba", "vote": 28856 }
              ],
              "elected": {}
            }
          ]
        },
        {
          "id": "okhaldhunga",
          "regions": [
            {
              "id": 1.1,
              "declared": false,
              "result": [
                { "party": 4, "name_np": "शेरबहादुर देउवा", "name_en": "Sher Bahadur Deuba", "vote": 14642 },
                { "party": 2, "name_np": "सागर ढकाल", "name_en": "Sagar Dhakal", "vote": 18586 },
                { "party": 3, "name_np": "हिमिला यामी", "name_en": "Hisila Yami", "vote": 6880 },
                { "party": 1, "name_np": "गगन थापा", "name_en": "Gagan Thapa", "vote": 22039 }
              ],
              "elected": {}
            },
            {
              "id": 1.2,
              "declared": false,
              "result": [
                { "party": 1, "name_np": "केपी ओली", "name_en": "KP Oli", "vote": 21184 },
                { "party": 0, "name_np": "शेरबहादुर देउवा", "name_en": "Sher Bahadur Deuba", "vote": 17571 },
                { "party": 2, "name_np": "बाबुरल भट्टराई", "name_en": "Baburam Bhattara", "vote": 27908 },
                { "party": 3, "name_np": "पुष्पकमल दाहाल", "name_en": "Pushpakamal Dahal", "vote": 29464 }
              ],
              "elected": {}
            }
          ]
        },
        {
          "id": "khotang",
          "regions": [
            {
              "id": 1.1,
              "declared": false,
              "result": [
                { "party": 2, "name_np": "हिमिला यामी", "name_en": "Hisila Yami", "vote": 3685 },
                { "party": 4, "name_np": "जलनाथ खनाल", "name_en": "Jhalanath Khanal", "vote": 15321 },
                { "party": 1, "name_np": "योगेश भट्टराई", "name_en": "Yogesh Bhattarai", "vote": 25107 },
                { "party": 3, "name_np": "रवि लामिछाने", "name_en": "Rabi Lamichhane", "vote": 9328 }
              ],
              "elected": {}
            },
            {
              "id": 1.2,
              "declared": false,
              "result": [
                { "party": 0, "name_np": "पुष्पकमल दाहाल", "name_en": "Pushpakamal Dahal", "vote": 28670 },
                { "party": 1, "name_np": "केपी ओली", "name_en": "KP Oli", "vote": 7396 },
                { "party": 2, "name_np": "जलनाथ खनाल", "name_en": "Jhalanath Khanal", "vote": 29457 },
                { "party": 4, "name_np": "हिमिला यामी", "name_en": "Hisila Yami", "vote": 13596 }
              ],
              "elected": {}
            }
          ]
        },
        {
          "id": "solukhumbu",
          "regions": [
            {
              "id": 1.1,
              "declared": false,
              "result": [
                { "party": 2, "name_np": "पुष्पकमल दाहाल", "name_en": "Pushpakamal Dahal", "vote": 2330 },
                { "party": 3, "name_np": "राजेन्द्र लिङ्देन", "name_en": "Ranjendra Lingden", "vote": 14679 },
                { "party": 0, "name_np": "बाबुरल भट्टराई", "name_en": "Baburam Bhattara", "vote": 1304 },
                { "party": 4, "name_np": "केपी ओली", "name_en": "KP Oli", "vote": 19464 }
              ],
              "elected": {}
            },
            {
              "id": 1.2,
              "declared": false,
              "result": [
                { "party": 3, "name_np": "बाबुरल भट्टराई", "name_en": "Baburam Bhattara", "vote": 14368 },
                { "party": 0, "name_np": "माधव कुमार नेपाल", "name_en": "Madhab Kumar Nepal", "vote": 13656 },
                { "party": 4, "name_np": "राजेन्द्र लिङ्देन", "name_en": "Ranjendra Lingden", "vote": 28367 },
                { "party": 1, "name_np": "सागर ढकाल", "name_en": "Sagar Dhakal", "vote": 5327 }
              ],
              "elected": {}
            }
          ]
        },
        {
          "id": "udayapur",
          "regions": [
            {
              "id": 1.1,
              "declared": false,
              "result": [
                { "party": 1, "name_np": "सागर ढकाल", "name_en": "Sagar Dhakal", "vote": 29072 },
                { "party": 2, "name_np": "जलनाथ खनाल", "name_en": "Jhalanath Khanal", "vote": 19517 },
                { "party": 4, "name_np": "रवि लामिछाने", "name_en": "Rabi Lamichhane", "vote": 15755 },
                { "party": 3, "name_np": "हिमिला यामी", "name_en": "Hisila Yami", "vote": 11140 }
              ],
              "elected": {}
            },
            {
              "id": 1.2,
              "declared": false,
              "result": [
                { "party": 0, "name_np": "पुष्पकमल दाहाल", "name_en": "Pushpakamal Dahal", "vote": 27402 },
                { "party": 1, "name_np": "विश्वप्रकाश सुवेदी", "name_en": "Bishwa Prakash Subedi", "vote": 8648 },
                { "party": 2, "name_np": "माधव कुमार नेपाल", "name_en": "Madhab Kumar Nepal", "vote": 2631 },
                { "party": 3, "name_np": "केपी ओली", "name_en": "KP Oli", "vote": 13559 }
              ],
              "elected": {}
            },
            {
              "id": 2.1,
              "declared": true,
              "result": [
                { "party": 1, "name_np": "बाबुरल भट्टराई", "name_en": "Baburam Bhattara", "vote": 22020 },
                { "party": 3, "name_np": "जलनाथ खनाल", "name_en": "Jhalanath Khanal", "vote": 20127 },
                { "party": 0, "name_np": "शेरबहादुर देउवा", "name_en": "Sher Bahadur Deuba", "vote": 12728 },
                { "party": 4, "name_np": "केपी ओली", "name_en": "KP Oli", "vote": 4032 }
              ],
              "elected": { "party": 1, "name_np": "बाबुरल भट्टराई", "name_en": "Baburam Bhattara", "vote": 22020 }
            },
            {
              "id": 2.2,
              "declared": false,
              "result": [
                { "party": 3, "name_np": "सागर ढकाल", "name_en": "Sagar Dhakal", "vote": 10952 },
                { "party": 2, "name_np": "जलनाथ खनाल", "name_en": "Jhalanath Khanal", "vote": 10111 },
                { "party": 0, "name_np": "पुष्पकमल दाहाल", "name_en": "Pushpakamal Dahal", "vote": 10557 },
                { "party": 1, "name_np": "हिमिला यामी", "name_en": "Hisila Yami", "vote": 1924 }
              ],
              "elected": {}
            }
          ]
        }
      ]
    },
    {
      "id": 2,
      "districts": [
        {
          "id": "saptari",
          "regions": [
            {
              "id": 1.1,
              "declared": false,
              "result": [
                { "party": 2, "name_np": "विश्वप्रकाश सुवेदी", "name_en": "Bishwa Prakash Subedi", "vote": 13796 },
                { "party": 1, "name_np": "जलनाथ खनाल", "name_en": "Jhalanath Khanal", "vote": 4313 },
                { "party": 0, "name_np": "पुष्पकमल दाहाल", "name_en": "Pushpakamal Dahal", "vote": 26246 },
                { "party": 4, "name_np": "शेरबहादुर देउवा", "name_en": "Sher Bahadur Deuba", "vote": 17164 }
              ],
              "elected": {}
            },
            {
              "id": 1.2,
              "declared": false,
              "result": [
                { "party": 4, "name_np": "बाबुरल भट्टराई", "name_en": "Baburam Bhattara", "vote": 9028 },
                { "party": 3, "name_np": "योगेश भट्टराई", "name_en": "Yogesh Bhattarai", "vote": 5037 },
                { "party": 2, "name_np": "माधव कुमार नेपाल", "name_en": "Madhab Kumar Nepal", "vote": 8166 },
                { "party": 1, "name_np": "राजेन्द्र लिङ्देन", "name_en": "Ranjendra Lingden", "vote": 29373 }
              ],
              "elected": {}
            },
            {
              "id": 2.1,
              "declared": true,
              "result": [
                { "party": 4, "name_np": "सागर ढकाल", "name_en": "Sagar Dhakal", "vote": 29938 },
                { "party": 3, "name_np": "राजेन्द्र लिङ्देन", "name_en": "Ranjendra Lingden", "vote": 28562 },
                { "party": 1, "name_np": "विश्वप्रकाश सुवेदी", "name_en": "Bishwa Prakash Subedi", "vote": 7606 },
                { "party": 0, "name_np": "माधव कुमार नेपाल", "name_en": "Madhab Kumar Nepal", "vote": 3760 }
              ],
              "elected": { "party": 4, "name_np": "सागर ढकाल", "name_en": "Sagar Dhakal", "vote": 29938 }
            },
            {
              "id": 2.2,
              "declared": false,
              "result": [
                { "party": 1, "name_np": "हिमिला यामी", "name_en": "Hisila Yami", "vote": 8550 },
                { "party": 4, "name_np": "केपी ओली", "name_en": "KP Oli", "vote": 12340 },
                { "party": 2, "name_np": "पुष्पकमल दाहाल", "name_en": "Pushpakamal Dahal", "vote": 18047 },
                { "party": 0, "name_np": "राजेन्द्र लिङ्देन", "name_en": "Ranjendra Lingden", "vote": 23990 }
              ],
              "elected": {}
            },
            {
              "id": 3.1,
              "declared": false,
              "result": [
                { "party": 4, "name_np": "सागर ढकाल", "name_en": "Sagar Dhakal", "vote": 24421 },
                { "party": 3, "name_np": "जलनाथ खनाल", "name_en": "Jhalanath Khanal", "vote": 21571 },
                { "party": 2, "name_np": "रवि लामिछाने", "name_en": "Rabi Lamichhane", "vote": 11795 },
                { "party": 0, "name_np": "केपी ओली", "name_en": "KP Oli", "vote": 25306 }
              ],
              "elected": {}
            },
            {
              "id": 3.2,
              "declared": false,
              "result": [
                { "party": 3, "name_np": "राजेन्द्र लिङ्देन", "name_en": "Ranjendra Lingden", "vote": 16367 },
                { "party": 4, "name_np": "पुष्पकमल दाहाल", "name_en": "Pushpakamal Dahal", "vote": 4735 },
                { "party": 2, "name_np": "केपी ओली", "name_en": "KP Oli", "vote": 10255 },
                { "party": 0, "name_np": "हिमिला यामी", "name_en": "Hisila Yami", "vote": 5068 }
              ],
              "elected": {}
            },
            {
              "id": 4.1,
              "declared": false,
              "result": [
                { "party": 3, "name_np": "सागर ढकाल", "name_en": "Sagar Dhakal", "vote": 3965 },
                { "party": 2, "name_np": "रवि लामिछाने", "name_en": "Rabi Lamichhane", "vote": 29697 },
                { "party": 4, "name_np": "केपी ओली", "name_en": "KP Oli", "vote": 28356 },
                { "party": 1, "name_np": "हिमिला यामी", "name_en": "Hisila Yami", "vote": 23761 }
              ],
              "elected": {}
            },
            {
              "id": 4.2,
              "declared": false,
              "result": [
                { "party": 2, "name_np": "बाबुरल भट्टराई", "name_en": "Baburam Bhattara", "vote": 10867 },
                { "party": 4, "name_np": "विश्वप्रकाश सुवेदी", "name_en": "Bishwa Prakash Subedi", "vote": 9543 },
                { "party": 1, "name_np": "राजेन्द्र लिङ्देन", "name_en": "Ranjendra Lingden", "vote": 2791 },
                { "party": 3, "name_np": "सागर ढकाल", "name_en": "Sagar Dhakal", "vote": 29332 }
              ],
              "elected": {}
            }
          ]
        },
        {
          "id": "siraha",
          "regions": [
            {
              "id": 1.1,
              "declared": false,
              "result": [
                { "party": 3, "name_np": "शेरबहादुर देउवा", "name_en": "Sher Bahadur Deuba", "vote": 10475 },
                { "party": 2, "name_np": "रवि लामिछाने", "name_en": "Rabi Lamichhane", "vote": 11629 },
                { "party": 1, "name_np": "पुष्पकमल दाहाल", "name_en": "Pushpakamal Dahal", "vote": 13999 },
                { "party": 0, "name_np": "बाबुरल भट्टराई", "name_en": "Baburam Bhattara", "vote": 5893 }
              ],
              "elected": {}
            },
            {
              "id": 1.2,
              "declared": false,
              "result": [
                { "party": 3, "name_np": "हिमिला यामी", "name_en": "Hisila Yami", "vote": 25524 },
                { "party": 1, "name_np": "माधव कुमार नेपाल", "name_en": "Madhab Kumar Nepal", "vote": 3920 },
                { "party": 0, "name_np": "योगेश भट्टराई", "name_en": "Yogesh Bhattarai", "vote": 7104 },
                { "party": 4, "name_np": "पुष्पकमल दाहाल", "name_en": "Pushpakamal Dahal", "vote": 22049 }
              ],
              "elected": {}
            },
            {
              "id": 2.1,
              "declared": true,
              "result": [
                { "party": 2, "name_np": "हिमिला यामी", "name_en": "Hisila Yami", "vote": 24395 },
                { "party": 3, "name_np": "बाबुरल भट्टराई", "name_en": "Baburam Bhattara", "vote": 14003 },
                { "party": 0, "name_np": "शेरबहादुर देउवा", "name_en": "Sher Bahadur Deuba", "vote": 11483 },
                { "party": 1, "name_np": "सागर ढकाल", "name_en": "Sagar Dhakal", "vote": 3722 }
              ],
              "elected": { "party": 2, "name_np": "हिमिला यामी", "name_en": "Hisila Yami", "vote": 24395 }
            },
            {
              "id": 2.2,
              "declared": false,
              "result": [
                { "party": 3, "name_np": "रवि लामिछाने", "name_en": "Rabi Lamichhane", "vote": 23407 },
                { "party": 4, "name_np": "गगन थापा", "name_en": "Gagan Thapa", "vote": 28431 },
                { "party": 2, "name_np": "माधव कुमार नेपाल", "name_en": "Madhab Kumar Nepal", "vote": 734 },
                { "party": 0, "name_np": "हिमिला यामी", "name_en": "Hisila Yami", "vote": 24062 }
              ],
              "elected": {}
            },
            {
              "id": 3.1,
              "declared": false,
              "result": [
                { "party": 3, "name_np": "राजेन्द्र लिङ्देन", "name_en": "Ranjendra Lingden", "vote": 27932 },
                { "party": 2, "name_np": "पुष्पकमल दाहाल", "name_en": "Pushpakamal Dahal", "vote": 4385 },
                { "party": 0, "name_np": "माधव कुमार नेपाल", "name_en": "Madhab Kumar Nepal", "vote": 6795 },
                { "party": 4, "name_np": "हिमिला यामी", "name_en": "Hisila Yami", "vote": 24339 }
              ],
              "elected": {}
            },
            {
              "id": 3.2,
              "declared": false,
              "result": [
                { "party": 3, "name_np": "जलनाथ खनाल", "name_en": "Jhalanath Khanal", "vote": 16144 },
                { "party": 1, "name_np": "रवि लामिछाने", "name_en": "Rabi Lamichhane", "vote": 12548 },
                { "party": 0, "name_np": "विश्वप्रकाश सुवेदी", "name_en": "Bishwa Prakash Subedi", "vote": 23670 },
                { "party": 4, "name_np": "बाबुरल भट्टराई", "name_en": "Baburam Bhattara", "vote": 7459 }
              ],
              "elected": {}
            },
            {
              "id": 4.1,
              "declared": false,
              "result": [
                { "party": 3, "name_np": "पुष्पकमल दाहाल", "name_en": "Pushpakamal Dahal", "vote": 24001 },
                { "party": 0, "name_np": "रवि लामिछाने", "name_en": "Rabi Lamichhane", "vote": 16469 },
                { "party": 4, "name_np": "हिमिला यामी", "name_en": "Hisila Yami", "vote": 20903 },
                { "party": 1, "name_np": "केपी ओली", "name_en": "KP Oli", "vote": 11631 }
              ],
              "elected": {}
            },
            {
              "id": 4.2,
              "declared": false,
              "result": [
                { "party": 0, "name_np": "योगेश भट्टराई", "name_en": "Yogesh Bhattarai", "vote": 22449 },
                { "party": 4, "name_np": "रवि लामिछाने", "name_en": "Rabi Lamichhane", "vote": 10902 },
                { "party": 1, "name_np": "सागर ढकाल", "name_en": "Sagar Dhakal", "vote": 25122 },
                { "party": 2, "name_np": "गगन थापा", "name_en": "Gagan Thapa", "vote": 14026 }
              ],
              "elected": {}
            }
          ]
        },
        {
          "id": "dhanusa",
          "regions": [
            {
              "id": 1.1,
              "declared": false,
              "result": [
                { "party": 0, "name_np": "पुष्पकमल दाहाल", "name_en": "Pushpakamal Dahal", "vote": 4751 },
                { "party": 1, "name_np": "शेरबहादुर देउवा", "name_en": "Sher Bahadur Deuba", "vote": 11377 },
                { "party": 3, "name_np": "गगन थापा", "name_en": "Gagan Thapa", "vote": 3877 },
                { "party": 2, "name_np": "बाबुरल भट्टराई", "name_en": "Baburam Bhattara", "vote": 27398 }
              ],
              "elected": {}
            },
            {
              "id": 1.2,
              "declared": false,
              "result": [
                { "party": 1, "name_np": "रवि लामिछाने", "name_en": "Rabi Lamichhane", "vote": 24363 },
                { "party": 0, "name_np": "विश्वप्रकाश सुवेदी", "name_en": "Bishwa Prakash Subedi", "vote": 28284 },
                { "party": 3, "name_np": "माधव कुमार नेपाल", "name_en": "Madhab Kumar Nepal", "vote": 7561 },
                { "party": 4, "name_np": "शेरबहादुर देउवा", "name_en": "Sher Bahadur Deuba", "vote": 6636 }
              ],
              "elected": {}
            },
            {
              "id": 2.1,
              "declared": true,
              "result": [
                { "party": 1, "name_np": "शेरबहादुर देउवा", "name_en": "Sher Bahadur Deuba", "vote": 25967 },
                { "party": 2, "name_np": "हिमिला यामी", "name_en": "Hisila Yami", "vote": 23162 },
                { "party": 4, "name_np": "योगेश भट्टराई", "name_en": "Yogesh Bhattarai", "vote": 18598 },
                { "party": 3, "name_np": "बाबुरल भट्टराई", "name_en": "Baburam Bhattara", "vote": 13087 }
              ],
              "elected": { "party": 1, "name_np": "शेरबहादुर देउवा", "name_en": "Sher Bahadur Deuba", "vote": 25967 }
            },
            {
              "id": 2.2,
              "declared": false,
              "result": [
                { "party": 4, "name_np": "माधव कुमार नेपाल", "name_en": "Madhab Kumar Nepal", "vote": 10896 },
                { "party": 1, "name_np": "गगन थापा", "name_en": "Gagan Thapa", "vote": 11499 },
                { "party": 2, "name_np": "शेरबहादुर देउवा", "name_en": "Sher Bahadur Deuba", "vote": 7371 },
                { "party": 3, "name_np": "सागर ढकाल", "name_en": "Sagar Dhakal", "vote": 13307 }
              ],
              "elected": {}
            },
            {
              "id": 3.1,
              "declared": false,
              "result": [
                { "party": 1, "name_np": "राजेन्द्र लिङ्देन", "name_en": "Ranjendra Lingden", "vote": 16669 },
                { "party": 2, "name_np": "रवि लामिछाने", "name_en": "Rabi Lamichhane", "vote": 14800 },
                { "party": 4, "name_np": "जलनाथ खनाल", "name_en": "Jhalanath Khanal", "vote": 6150 },
                { "party": 3, "name_np": "माधव कुमार नेपाल", "name_en": "Madhab Kumar Nepal", "vote": 21977 }
              ],
              "elected": {}
            },
            {
              "id": 3.2,
              "declared": false,
              "result": [
                { "party": 4, "name_np": "योगेश भट्टराई", "name_en": "Yogesh Bhattarai", "vote": 24676 },
                { "party": 1, "name_np": "विश्वप्रकाश सुवेदी", "name_en": "Bishwa Prakash Subedi", "vote": 15062 },
                { "party": 2, "name_np": "पुष्पकमल दाहाल", "name_en": "Pushpakamal Dahal", "vote": 26982 },
                { "party": 3, "name_np": "राजेन्द्र लिङ्देन", "name_en": "Ranjendra Lingden", "vote": 29342 }
              ],
              "elected": {}
            },
            {
              "id": 4.1,
              "declared": false,
              "result": [
                { "party": 1, "name_np": "माधव कुमार नेपाल", "name_en": "Madhab Kumar Nepal", "vote": 22628 },
                { "party": 3, "name_np": "रवि लामिछाने", "name_en": "Rabi Lamichhane", "vote": 10646 },
                { "party": 4, "name_np": "केपी ओली", "name_en": "KP Oli", "vote": 23092 },
                { "party": 0, "name_np": "योगेश भट्टराई", "name_en": "Yogesh Bhattarai", "vote": 21914 }
              ],
              "elected": {}
            },
            {
              "id": 4.2,
              "declared": false,
              "result": [
                { "party": 4, "name_np": "विश्वप्रकाश सुवेदी", "name_en": "Bishwa Prakash Subedi", "vote": 1747 },
                { "party": 2, "name_np": "हिमिला यामी", "name_en": "Hisila Yami", "vote": 10592 },
                { "party": 3, "name_np": "राजेन्द्र लिङ्देन", "name_en": "Ranjendra Lingden", "vote": 5800 },
                { "party": 1, "name_np": "माधव कुमार नेपाल", "name_en": "Madhab Kumar Nepal", "vote": 5604 }
              ],
              "elected": {}
            }
          ]
        },
        {
          "id": "mahottari",
          "regions": [
            {
              "id": 1.1,
              "declared": false,
              "result": [
                { "party": 4, "name_np": "माधव कुमार नेपाल", "name_en": "Madhab Kumar Nepal", "vote": 13409 },
                { "party": 0, "name_np": "शेरबहादुर देउवा", "name_en": "Sher Bahadur Deuba", "vote": 3844 },
                { "party": 3, "name_np": "सागर ढकाल", "name_en": "Sagar Dhakal", "vote": 29954 },
                { "party": 2, "name_np": "राजेन्द्र लिङ्देन", "name_en": "Ranjendra Lingden", "vote": 6257 }
              ],
              "elected": {}
            },
            {
              "id": 1.2,
              "declared": false,
              "result": [
                { "party": 1, "name_np": "शेरबहादुर देउवा", "name_en": "Sher Bahadur Deuba", "vote": 10805 },
                { "party": 3, "name_np": "सागर ढकाल", "name_en": "Sagar Dhakal", "vote": 18638 },
                { "party": 4, "name_np": "योगेश भट्टराई", "name_en": "Yogesh Bhattarai", "vote": 12157 },
                { "party": 0, "name_np": "केपी ओली", "name_en": "KP Oli", "vote": 21470 }
              ],
              "elected": {}
            },
            {
              "id": 2.1,
              "declared": true,
              "result": [
                { "party": 1, "name_np": "केपी ओली", "name_en": "KP Oli", "vote": 27948 },
                { "party": 3, "name_np": "शेरबहादुर देउवा", "name_en": "Sher Bahadur Deuba", "vote": 16912 },
                { "party": 4, "name_np": "पुष्पकमल दाहाल", "name_en": "Pushpakamal Dahal", "vote": 1491 },
                { "party": 2, "name_np": "सागर ढकाल", "name_en": "Sagar Dhakal", "vote": 8 }
              ],
              "elected": { "party": 1, "name_np": "केपी ओली", "name_en": "KP Oli", "vote": 27948 }
            },
            {
              "id": 2.2,
              "declared": false,
              "result": [
                { "party": 1, "name_np": "योगेश भट्टराई", "name_en": "Yogesh Bhattarai", "vote": 22033 },
                { "party": 4, "name_np": "जलनाथ खनाल", "name_en": "Jhalanath Khanal", "vote": 9631 },
                { "party": 0, "name_np": "शेरबहादुर देउवा", "name_en": "Sher Bahadur Deuba", "vote": 17108 },
                { "party": 3, "name_np": "सागर ढकाल", "name_en": "Sagar Dhakal", "vote": 27881 }
              ],
              "elected": {}
            },
            {
              "id": 3.1,
              "declared": false,
              "result": [
                { "party": 1, "name_np": "सागर ढकाल", "name_en": "Sagar Dhakal", "vote": 21992 },
                { "party": 4, "name_np": "हिमिला यामी", "name_en": "Hisila Yami", "vote": 19518 },
                { "party": 3, "name_np": "माधव कुमार नेपाल", "name_en": "Madhab Kumar Nepal", "vote": 2009 },
                { "party": 0, "name_np": "गगन थापा", "name_en": "Gagan Thapa", "vote": 18699 }
              ],
              "elected": {}
            },
            {
              "id": 3.2,
              "declared": false,
              "result": [
                { "party": 1, "name_np": "गगन थापा", "name_en": "Gagan Thapa", "vote": 24251 },
                { "party": 0, "name_np": "पुष्पकमल दाहाल", "name_en": "Pushpakamal Dahal", "vote": 12329 },
                { "party": 2, "name_np": "विश्वप्रकाश सुवेदी", "name_en": "Bishwa Prakash Subedi", "vote": 15083 },
                { "party": 4, "name_np": "हिमिला यामी", "name_en": "Hisila Yami", "vote": 2759 }
              ],
              "elected": {}
            },
            {
              "id": 4.1,
              "declared": false,
              "result": [
                { "party": 1, "name_np": "बाबुरल भट्टराई", "name_en": "Baburam Bhattara", "vote": 16662 },
                { "party": 3, "name_np": "विश्वप्रकाश सुवेदी", "name_en": "Bishwa Prakash Subedi", "vote": 19156 },
                { "party": 4, "name_np": "राजेन्द्र लिङ्देन", "name_en": "Ranjendra Lingden", "vote": 27403 },
                { "party": 0, "name_np": "माधव कुमार नेपाल", "name_en": "Madhab Kumar Nepal", "vote": 1204 }
              ],
              "elected": {}
            },
            {
              "id": 4.2,
              "declared": false,
              "result": [
                { "party": 0, "name_np": "हिमिला यामी", "name_en": "Hisila Yami", "vote": 18700 },
                { "party": 4, "name_np": "बाबुरल भट्टराई", "name_en": "Baburam Bhattara", "vote": 13613 },
                { "party": 2, "name_np": "जलनाथ खनाल", "name_en": "Jhalanath Khanal", "vote": 26404 },
                { "party": 3, "name_np": "रवि लामिछाने", "name_en": "Rabi Lamichhane", "vote": 20107 }
              ],
              "elected": {}
            }
          ]
        },
        {
          "id": "sarlahi",
          "regions": [
            {
              "id": 1.1,
              "declared": false,
              "result": [
                { "party": 0, "name_np": "हिमिला यामी", "name_en": "Hisila Yami", "vote": 9209 },
                { "party": 1, "name_np": "विश्वप्रकाश सुवेदी", "name_en": "Bishwa Prakash Subedi", "vote": 8419 },
                { "party": 3, "name_np": "केपी ओली", "name_en": "KP Oli", "vote": 25812 },
                { "party": 4, "name_np": "रवि लामिछाने", "name_en": "Rabi Lamichhane", "vote": 19101 }
              ],
              "elected": {}
            },
            {
              "id": 1.2,
              "declared": false,
              "result": [
                { "party": 3, "name_np": "गगन थापा", "name_en": "Gagan Thapa", "vote": 28930 },
                { "party": 1, "name_np": "सागर ढकाल", "name_en": "Sagar Dhakal", "vote": 6179 },
                { "party": 2, "name_np": "विश्वप्रकाश सुवेदी", "name_en": "Bishwa Prakash Subedi", "vote": 6355 },
                { "party": 0, "name_np": "हिमिला यामी", "name_en": "Hisila Yami", "vote": 20661 }
              ],
              "elected": {}
            },
            {
              "id": 2.1,
              "declared": true,
              "result": [
                { "party": 3, "name_np": "जलनाथ खनाल", "name_en": "Jhalanath Khanal", "vote": 24658 },
                { "party": 1, "name_np": "केपी ओली", "name_en": "KP Oli", "vote": 22469 },
                { "party": 0, "name_np": "योगेश भट्टराई", "name_en": "Yogesh Bhattarai", "vote": 21800 },
                { "party": 2, "name_np": "हिमिला यामी", "name_en": "Hisila Yami", "vote": 9581 }
              ],
              "elected": { "party": 3, "name_np": "जलनाथ खनाल", "name_en": "Jhalanath Khanal", "vote": 24658 }
            },
            {
              "id": 2.2,
              "declared": false,
              "result": [
                { "party": 0, "name_np": "हिमिला यामी", "name_en": "Hisila Yami", "vote": 205 },
                { "party": 1, "name_np": "विश्वप्रकाश सुवेदी", "name_en": "Bishwa Prakash Subedi", "vote": 16756 },
                { "party": 3, "name_np": "बाबुरल भट्टराई", "name_en": "Baburam Bhattara", "vote": 4084 },
                { "party": 4, "name_np": "माधव कुमार नेपाल", "name_en": "Madhab Kumar Nepal", "vote": 20380 }
              ],
              "elected": {}
            },
            {
              "id": 3.1,
              "declared": false,
              "result": [
                { "party": 1, "name_np": "हिमिला यामी", "name_en": "Hisila Yami", "vote": 21954 },
                { "party": 3, "name_np": "राजेन्द्र लिङ्देन", "name_en": "Ranjendra Lingden", "vote": 15090 },
                { "party": 2, "name_np": "योगेश भट्टराई", "name_en": "Yogesh Bhattarai", "vote": 650 },
                { "party": 4, "name_np": "गगन थापा", "name_en": "Gagan Thapa", "vote": 9149 }
              ],
              "elected": {}
            },
            {
              "id": 3.2,
              "declared": false,
              "result": [
                { "party": 1, "name_np": "सागर ढकाल", "name_en": "Sagar Dhakal", "vote": 5338 },
                { "party": 4, "name_np": "केपी ओली", "name_en": "KP Oli", "vote": 24095 },
                { "party": 2, "name_np": "बाबुरल भट्टराई", "name_en": "Baburam Bhattara", "vote": 13442 },
                { "party": 0, "name_np": "हिमिला यामी", "name_en": "Hisila Yami", "vote": 15287 }
              ],
              "elected": {}
            },
            {
              "id": 4.1,
              "declared": false,
              "result": [
                { "party": 0, "name_np": "गगन थापा", "name_en": "Gagan Thapa", "vote": 3768 },
                { "party": 3, "name_np": "जलनाथ खनाल", "name_en": "Jhalanath Khanal", "vote": 2380 },
                { "party": 2, "name_np": "माधव कुमार नेपाल", "name_en": "Madhab Kumar Nepal", "vote": 22658 },
                { "party": 4, "name_np": "राजेन्द्र लिङ्देन", "name_en": "Ranjendra Lingden", "vote": 24993 }
              ],
              "elected": {}
            },
            {
              "id": 4.2,
              "declared": false,
              "result": [
                { "party": 4, "name_np": "राजेन्द्र लिङ्देन", "name_en": "Ranjendra Lingden", "vote": 18380 },
                { "party": 1, "name_np": "रवि लामिछाने", "name_en": "Rabi Lamichhane", "vote": 29929 },
                { "party": 3, "name_np": "माधव कुमार नेपाल", "name_en": "Madhab Kumar Nepal", "vote": 29299 },
                { "party": 0, "name_np": "जलनाथ खनाल", "name_en": "Jhalanath Khanal", "vote": 21500 }
              ],
              "elected": {}
            }
          ]
        },
        {
          "id": "rauthat",
          "regions": [
            {
              "id": 1.1,
              "declared": false,
              "result": [
                { "party": 2, "name_np": "जलनाथ खनाल", "name_en": "Jhalanath Khanal", "vote": 23741 },
                { "party": 1, "name_np": "विश्वप्रकाश सुवेदी", "name_en": "Bishwa Prakash Subedi", "vote": 4127 },
                { "party": 4, "name_np": "रवि लामिछाने", "name_en": "Rabi Lamichhane", "vote": 16934 },
                { "party": 3, "name_np": "योगेश भट्टराई", "name_en": "Yogesh Bhattarai", "vote": 2315 }
              ],
              "elected": {}
            },
            {
              "id": 1.2,
              "declared": false,
              "result": [
                { "party": 3, "name_np": "हिमिला यामी", "name_en": "Hisila Yami", "vote": 9845 },
                { "party": 4, "name_np": "जलनाथ खनाल", "name_en": "Jhalanath Khanal", "vote": 11792 },
                { "party": 1, "name_np": "माधव कुमार नेपाल", "name_en": "Madhab Kumar Nepal", "vote": 18554 },
                { "party": 2, "name_np": "सागर ढकाल", "name_en": "Sagar Dhakal", "vote": 26209 }
              ],
              "elected": {}
            },
            {
              "id": 2.1,
              "declared": true,
              "result": [
                { "party": 4, "name_np": "गगन थापा", "name_en": "Gagan Thapa", "vote": 25348 },
                { "party": 3, "name_np": "विश्वप्रकाश सुवेदी", "name_en": "Bishwa Prakash Subedi", "vote": 19643 },
                { "party": 2, "name_np": "सागर ढकाल", "name_en": "Sagar Dhakal", "vote": 18818 },
                { "party": 1, "name_np": "राजेन्द्र लिङ्देन", "name_en": "Ranjendra Lingden", "vote": 2705 }
              ],
              "elected": { "party": 4, "name_np": "गगन थापा", "name_en": "Gagan Thapa", "vote": 25348 }
            },
            {
              "id": 2.2,
              "declared": false,
              "result": [
                { "party": 4, "name_np": "सागर ढकाल", "name_en": "Sagar Dhakal", "vote": 27359 },
                { "party": 3, "name_np": "रवि लामिछाने", "name_en": "Rabi Lamichhane", "vote": 10042 },
                { "party": 2, "name_np": "केपी ओली", "name_en": "KP Oli", "vote": 12579 },
                { "party": 1, "name_np": "पुष्पकमल दाहाल", "name_en": "Pushpakamal Dahal", "vote": 21609 }
              ],
              "elected": {}
            },
            {
              "id": 3.1,
              "declared": false,
              "result": [
                { "party": 2, "name_np": "सागर ढकाल", "name_en": "Sagar Dhakal", "vote": 18952 },
                { "party": 1, "name_np": "हिमिला यामी", "name_en": "Hisila Yami", "vote": 14138 },
                { "party": 4, "name_np": "योगेश भट्टराई", "name_en": "Yogesh Bhattarai", "vote": 11343 },
                { "party": 3, "name_np": "शेरबहादुर देउवा", "name_en": "Sher Bahadur Deuba", "vote": 15552 }
              ],
              "elected": {}
            },
            {
              "id": 3.2,
              "declared": false,
              "result": [
                { "party": 3, "name_np": "पुष्पकमल दाहाल", "name_en": "Pushpakamal Dahal", "vote": 29139 },
                { "party": 2, "name_np": "योगेश भट्टराई", "name_en": "Yogesh Bhattarai", "vote": 16893 },
                { "party": 4, "name_np": "हिमिला यामी", "name_en": "Hisila Yami", "vote": 17199 },
                { "party": 0, "name_np": "केपी ओली", "name_en": "KP Oli", "vote": 2904 }
              ],
              "elected": {}
            },
            {
              "id": 4.1,
              "declared": false,
              "result": [
                { "party": 4, "name_np": "बाबुरल भट्टराई", "name_en": "Baburam Bhattara", "vote": 15376 },
                { "party": 3, "name_np": "शेरबहादुर देउवा", "name_en": "Sher Bahadur Deuba", "vote": 8566 },
                { "party": 1, "name_np": "हिमिला यामी", "name_en": "Hisila Yami", "vote": 14162 },
                { "party": 2, "name_np": "सागर ढकाल", "name_en": "Sagar Dhakal", "vote": 21349 }
              ],
              "elected": {}
            },
            {
              "id": 4.2,
              "declared": false,
              "result": [
                { "party": 4, "name_np": "रवि लामिछाने", "name_en": "Rabi Lamichhane", "vote": 21628 },
                { "party": 2, "name_np": "योगेश भट्टराई", "name_en": "Yogesh Bhattarai", "vote": 28275 },
                { "party": 0, "name_np": "राजेन्द्र लिङ्देन", "name_en": "Ranjendra Lingden", "vote": 14402 },
                { "party": 3, "name_np": "गगन थापा", "name_en": "Gagan Thapa", "vote": 9455 }
              ],
              "elected": {}
            }
          ]
        },
        {
          "id": "bara",
          "regions": [
            {
              "id": 1.1,
              "declared": false,
              "result": [
                { "party": 0, "name_np": "योगेश भट्टराई", "name_en": "Yogesh Bhattarai", "vote": 26089 },
                { "party": 2, "name_np": "सागर ढकाल", "name_en": "Sagar Dhakal", "vote": 13681 },
                { "party": 3, "name_np": "माधव कुमार नेपाल", "name_en": "Madhab Kumar Nepal", "vote": 18750 },
                { "party": 4, "name_np": "बाबुरल भट्टराई", "name_en": "Baburam Bhattara", "vote": 4658 }
              ],
              "elected": {}
            },
            {
              "id": 1.2,
              "declared": false,
              "result": [
                { "party": 1, "name_np": "शेरबहादुर देउवा", "name_en": "Sher Bahadur Deuba", "vote": 4624 },
                { "party": 2, "name_np": "हिमिला यामी", "name_en": "Hisila Yami", "vote": 54 },
                { "party": 0, "name_np": "पुष्पकमल दाहाल", "name_en": "Pushpakamal Dahal", "vote": 21507 },
                { "party": 4, "name_np": "जलनाथ खनाल", "name_en": "Jhalanath Khanal", "vote": 3250 }
              ],
              "elected": {}
            },
            {
              "id": 2.1,
              "declared": true,
              "result": [
                { "party": 2, "name_np": "योगेश भट्टराई", "name_en": "Yogesh Bhattarai", "vote": 19078 },
                { "party": 1, "name_np": "रवि लामिछाने", "name_en": "Rabi Lamichhane", "vote": 10745 },
                { "party": 4, "name_np": "गगन थापा", "name_en": "Gagan Thapa", "vote": 6946 },
                { "party": 3, "name_np": "माधव कुमार नेपाल", "name_en": "Madhab Kumar Nepal", "vote": 4503 }
              ],
              "elected": { "party": 2, "name_np": "योगेश भट्टराई", "name_en": "Yogesh Bhattarai", "vote": 19078 }
            },
            {
              "id": 2.2,
              "declared": false,
              "result": [
                { "party": 0, "name_np": "बाबुरल भट्टराई", "name_en": "Baburam Bhattara", "vote": 28314 },
                { "party": 2, "name_np": "राजेन्द्र लिङ्देन", "name_en": "Ranjendra Lingden", "vote": 21015 },
                { "party": 4, "name_np": "सागर ढकाल", "name_en": "Sagar Dhakal", "vote": 14092 },
                { "party": 1, "name_np": "जलनाथ खनाल", "name_en": "Jhalanath Khanal", "vote": 11064 }
              ],
              "elected": {}
            },
            {
              "id": 3.1,
              "declared": false,
              "result": [
                { "party": 4, "name_np": "योगेश भट्टराई", "name_en": "Yogesh Bhattarai", "vote": 3516 },
                { "party": 0, "name_np": "केपी ओली", "name_en": "KP Oli", "vote": 21885 },
                { "party": 2, "name_np": "जलनाथ खनाल", "name_en": "Jhalanath Khanal", "vote": 2784 },
                { "party": 3, "name_np": "सागर ढकाल", "name_en": "Sagar Dhakal", "vote": 11783 }
              ],
              "elected": {}
            },
            {
              "id": 3.2,
              "declared": false,
              "result": [
                { "party": 0, "name_np": "पुष्पकमल दाहाल", "name_en": "Pushpakamal Dahal", "vote": 28744 },
                { "party": 1, "name_np": "जलनाथ खनाल", "name_en": "Jhalanath Khanal", "vote": 14985 },
                { "party": 3, "name_np": "हिमिला यामी", "name_en": "Hisila Yami", "vote": 29078 },
                { "party": 2, "name_np": "विश्वप्रकाश सुवेदी", "name_en": "Bishwa Prakash Subedi", "vote": 7280 }
              ],
              "elected": {}
            },
            {
              "id": 4.1,
              "declared": false,
              "result": [
                { "party": 1, "name_np": "शेरबहादुर देउवा", "name_en": "Sher Bahadur Deuba", "vote": 17574 },
                { "party": 2, "name_np": "राजेन्द्र लिङ्देन", "name_en": "Ranjendra Lingden", "vote": 21802 },
                { "party": 0, "name_np": "पुष्पकमल दाहाल", "name_en": "Pushpakamal Dahal", "vote": 7660 },
                { "party": 4, "name_np": "विश्वप्रकाश सुवेदी", "name_en": "Bishwa Prakash Subedi", "vote": 28485 }
              ],
              "elected": {}
            },
            {
              "id": 4.2,
              "declared": false,
              "result": [
                { "party": 1, "name_np": "पुष्पकमल दाहाल", "name_en": "Pushpakamal Dahal", "vote": 7902 },
                { "party": 2, "name_np": "योगेश भट्टराई", "name_en": "Yogesh Bhattarai", "vote": 25716 },
                { "party": 3, "name_np": "बाबुरल भट्टराई", "name_en": "Baburam Bhattara", "vote": 25828 },
                { "party": 4, "name_np": "रवि लामिछाने", "name_en": "Rabi Lamichhane", "vote": 8104 }
              ],
              "elected": {}
            }
          ]
        },
        {
          "id": "parsa",
          "regions": [
            {
              "id": 1.1,
              "declared": false,
              "result": [
                { "party": 2, "name_np": "केपी ओली", "name_en": "KP Oli", "vote": 21195 },
                { "party": 4, "name_np": "बाबुरल भट्टराई", "name_en": "Baburam Bhattara", "vote": 13419 },
                { "party": 0, "name_np": "सागर ढकाल", "name_en": "Sagar Dhakal", "vote": 13556 },
                { "party": 1, "name_np": "योगेश भट्टराई", "name_en": "Yogesh Bhattarai", "vote": 19450 }
              ],
              "elected": {}
            },
            {
              "id": 1.2,
              "declared": false,
              "result": [
                { "party": 4, "name_np": "सागर ढकाल", "name_en": "Sagar Dhakal", "vote": 11159 },
                { "party": 3, "name_np": "हिमिला यामी", "name_en": "Hisila Yami", "vote": 5781 },
                { "party": 2, "name_np": "केपी ओली", "name_en": "KP Oli", "vote": 13529 },
                { "party": 1, "name_np": "गगन थापा", "name_en": "Gagan Thapa", "vote": 19932 }
              ],
              "elected": {}
            },
            {
              "id": 2.1,
              "declared": true,
              "result": [
                { "party": 2, "name_np": "गगन थापा", "name_en": "Gagan Thapa", "vote": 26794 },
                { "party": 0, "name_np": "शेरबहादुर देउवा", "name_en": "Sher Bahadur Deuba", "vote": 20744 },
                { "party": 1, "name_np": "रवि लामिछाने", "name_en": "Rabi Lamichhane", "vote": 17788 },
                { "party": 4, "name_np": "राजेन्द्र लिङ्देन", "name_en": "Ranjendra Lingden", "vote": 7465 }
              ],
              "elected": { "party": 2, "name_np": "गगन थापा", "name_en": "Gagan Thapa", "vote": 26794 }
            },
            {
              "id": 2.2,
              "declared": false,
              "result": [
                { "party": 3, "name_np": "शेरबहादुर देउवा", "name_en": "Sher Bahadur Deuba", "vote": 3012 },
                { "party": 0, "name_np": "माधव कुमार नेपाल", "name_en": "Madhab Kumar Nepal", "vote": 19383 },
                { "party": 1, "name_np": "रवि लामिछाने", "name_en": "Rabi Lamichhane", "vote": 7843 },
                { "party": 2, "name_np": "हिमिला यामी", "name_en": "Hisila Yami", "vote": 17928 }
              ],
              "elected": {}
            },
            {
              "id": 3.1,
              "declared": false,
              "result": [
                { "party": 4, "name_np": "विश्वप्रकाश सुवेदी", "name_en": "Bishwa Prakash Subedi", "vote": 892 },
                { "party": 1, "name_np": "हिमिला यामी", "name_en": "Hisila Yami", "vote": 5735 },
                { "party": 2, "name_np": "बाबुरल भट्टराई", "name_en": "Baburam Bhattara", "vote": 10776 },
                { "party": 0, "name_np": "राजेन्द्र लिङ्देन", "name_en": "Ranjendra Lingden", "vote": 6945 }
              ],
              "elected": {}
            },
            {
              "id": 3.2,
              "declared": false,
              "result": [
                { "party": 1, "name_np": "केपी ओली", "name_en": "KP Oli", "vote": 19949 },
                { "party": 4, "name_np": "रवि लामिछाने", "name_en": "Rabi Lamichhane", "vote": 14876 },
                { "party": 3, "name_np": "बाबुरल भट्टराई", "name_en": "Baburam Bhattara", "vote": 15193 },
                { "party": 2, "name_np": "राजेन्द्र लिङ्देन", "name_en": "Ranjendra Lingden", "vote": 13342 }
              ],
              "elected": {}
            },
            {
              "id": 4.1,
              "declared": false,
              "result": [
                { "party": 3, "name_np": "गगन थापा", "name_en": "Gagan Thapa", "vote": 28989 },
                { "party": 0, "name_np": "माधव कुमार नेपाल", "name_en": "Madhab Kumar Nepal", "vote": 13450 },
                { "party": 1, "name_np": "जलनाथ खनाल", "name_en": "Jhalanath Khanal", "vote": 4548 },
                { "party": 2, "name_np": "विश्वप्रकाश सुवेदी", "name_en": "Bishwa Prakash Subedi", "vote": 17383 }
              ],
              "elected": {}
            },
            {
              "id": 4.2,
              "declared": false,
              "result": [
                { "party": 0, "name_np": "सागर ढकाल", "name_en": "Sagar Dhakal", "vote": 21571 },
                { "party": 4, "name_np": "पुष्पकमल दाहाल", "name_en": "Pushpakamal Dahal", "vote": 7827 },
                { "party": 1, "name_np": "शेरबहादुर देउवा", "name_en": "Sher Bahadur Deuba", "vote": 25611 },
                { "party": 2, "name_np": "विश्वप्रकाश सुवेदी", "name_en": "Bishwa Prakash Subedi", "vote": 17011 }
              ],
              "elected": {}
            }
          ]
        }
      ]
    },
    {
      "id": 3,
      "districts": [
        {
          "id": "sindhuli",
          "regions": [
            {
              "id": 1.1,
              "declared": false,
              "result": [
                { "party": 1, "name_np": "हिमिला यामी", "name_en": "Hisila Yami", "vote": 24962 },
                { "party": 4, "name_np": "सागर ढकाल", "name_en": "Sagar Dhakal", "vote": 239 },
                { "party": 2, "name_np": "माधव कुमार नेपाल", "name_en": "Madhab Kumar Nepal", "vote": 20513 },
                { "party": 3, "name_np": "योगेश भट्टराई", "name_en": "Yogesh Bhattarai", "vote": 21114 }
              ],
              "elected": {}
            },
            {
              "id": 1.2,
              "declared": false,
              "result": [
                { "party": 3, "name_np": "बाबुरल भट्टराई", "name_en": "Baburam Bhattara", "vote": 3655 },
                { "party": 2, "name_np": "सागर ढकाल", "name_en": "Sagar Dhakal", "vote": 18799 },
                { "party": 4, "name_np": "रवि लामिछाने", "name_en": "Rabi Lamichhane", "vote": 8802 },
                { "party": 1, "name_np": "गगन थापा", "name_en": "Gagan Thapa", "vote": 13431 }
              ],
              "elected": {}
            },
            {
              "id": 2.1,
              "declared": true,
              "result": [
                { "party": 2, "name_np": "पुष्पकमल दाहाल", "name_en": "Pushpakamal Dahal", "vote": 27095 },
                { "party": 1, "name_np": "राजेन्द्र लिङ्देन", "name_en": "Ranjendra Lingden", "vote": 24490 },
                { "party": 0, "name_np": "बाबुरल भट्टराई", "name_en": "Baburam Bhattara", "vote": 14846 },
                { "party": 4, "name_np": "सागर ढकाल", "name_en": "Sagar Dhakal", "vote": 4843 }
              ],
              "elected": { "party": 2, "name_np": "पुष्पकमल दाहाल", "name_en": "Pushpakamal Dahal", "vote": 27095 }
            },
            {
              "id": 2.2,
              "declared": false,
              "result": [
                { "party": 4, "name_np": "राजेन्द्र लिङ्देन", "name_en": "Ranjendra Lingden", "vote": 27716 },
                { "party": 3, "name_np": "पुष्पकमल दाहाल", "name_en": "Pushpakamal Dahal", "vote": 26407 },
                { "party": 0, "name_np": "गगन थापा", "name_en": "Gagan Thapa", "vote": 22354 },
                { "party": 2, "name_np": "जलनाथ खनाल", "name_en": "Jhalanath Khanal", "vote": 27053 }
              ],
              "elected": {}
            }
          ]
        },
        {
          "id": "ramechhap",
          "regions": [
            {
              "id": 1.1,
              "declared": false,
              "result": [
                { "party": 1, "name_np": "शेरबहादुर देउवा", "name_en": "Sher Bahadur Deuba", "vote": 1550 },
                { "party": 3, "name_np": "बाबुरल भट्टराई", "name_en": "Baburam Bhattara", "vote": 2818 },
                { "party": 2, "name_np": "हिमिला यामी", "name_en": "Hisila Yami", "vote": 14908 },
                { "party": 0, "name_np": "माधव कुमार नेपाल", "name_en": "Madhab Kumar Nepal", "vote": 3124 }
              ],
              "elected": {}
            },
            {
              "id": 1.2,
              "declared": false,
              "result": [
                { "party": 0, "name_np": "बाबुरल भट्टराई", "name_en": "Baburam Bhattara", "vote": 23871 },
                { "party": 4, "name_np": "योगेश भट्टराई", "name_en": "Yogesh Bhattarai", "vote": 18723 },
                { "party": 2, "name_np": "गगन थापा", "name_en": "Gagan Thapa", "vote": 5090 },
                { "party": 3, "name_np": "शेरबहादुर देउवा", "name_en": "Sher Bahadur Deuba", "vote": 23425 }
              ],
              "elected": {}
            }
          ]
        },
        {
          "id": "dolkha",
          "regions": [
            {
              "id": 1.1,
              "declared": false,
              "result": [
                { "party": 2, "name_np": "रवि लामिछाने", "name_en": "Rabi Lamichhane", "vote": 16786 },
                { "party": 4, "name_np": "हिमिला यामी", "name_en": "Hisila Yami", "vote": 9576 },
                { "party": 3, "name_np": "शेरबहादुर देउवा", "name_en": "Sher Bahadur Deuba", "vote": 16591 },
                { "party": 0, "name_np": "बाबुरल भट्टराई", "name_en": "Baburam Bhattara", "vote": 11942 }
              ],
              "elected": {}
            },
            {
              "id": 1.2,
              "declared": false,
              "result": [
                { "party": 4, "name_np": "रवि लामिछाने", "name_en": "Rabi Lamichhane", "vote": 20669 },
                { "party": 1, "name_np": "विश्वप्रकाश सुवेदी", "name_en": "Bishwa Prakash Subedi", "vote": 18867 },
                { "party": 2, "name_np": "गगन थापा", "name_en": "Gagan Thapa", "vote": 28099 },
                { "party": 3, "name_np": "राजेन्द्र लिङ्देन", "name_en": "Ranjendra Lingden", "vote": 28030 }
              ],
              "elected": {}
            }
          ]
        },
        {
          "id": "sindhupalchowk",
          "regions": [
            {
              "id": 1.1,
              "declared": false,
              "result": [
                { "party": 1, "name_np": "गगन थापा", "name_en": "Gagan Thapa", "vote": 1475 },
                { "party": 4, "name_np": "राजेन्द्र लिङ्देन", "name_en": "Ranjendra Lingden", "vote": 1065 },
                { "party": 2, "name_np": "योगेश भट्टराई", "name_en": "Yogesh Bhattarai", "vote": 28227 },
                { "party": 3, "name_np": "विश्वप्रकाश सुवेदी", "name_en": "Bishwa Prakash Subedi", "vote": 20663 }
              ],
              "elected": {}
            },
            {
              "id": 1.2,
              "declared": false,
              "result": [
                { "party": 0, "name_np": "शेरबहादुर देउवा", "name_en": "Sher Bahadur Deuba", "vote": 27026 },
                { "party": 3, "name_np": "विश्वप्रकाश सुवेदी", "name_en": "Bishwa Prakash Subedi", "vote": 17062 },
                { "party": 2, "name_np": "गगन थापा", "name_en": "Gagan Thapa", "vote": 13823 },
                { "party": 4, "name_np": "हिमिला यामी", "name_en": "Hisila Yami", "vote": 8477 }
              ],
              "elected": {}
            },
            {
              "id": 2.1,
              "declared": true,
              "result": [
                { "party": 2, "name_np": "योगेश भट्टराई", "name_en": "Yogesh Bhattarai", "vote": 26700 },
                { "party": 1, "name_np": "सागर ढकाल", "name_en": "Sagar Dhakal", "vote": 24258 },
                { "party": 0, "name_np": "हिमिला यामी", "name_en": "Hisila Yami", "vote": 23402 },
                { "party": 3, "name_np": "केपी ओली", "name_en": "KP Oli", "vote": 1125 }
              ],
              "elected": { "party": 2, "name_np": "योगेश भट्टराई", "name_en": "Yogesh Bhattarai", "vote": 26700 }
            },
            {
              "id": 2.2,
              "declared": false,
              "result": [
                { "party": 3, "name_np": "हिमिला यामी", "name_en": "Hisila Yami", "vote": 28710 },
                { "party": 2, "name_np": "राजेन्द्र लिङ्देन", "name_en": "Ranjendra Lingden", "vote": 7245 },
                { "party": 1, "name_np": "रवि लामिछाने", "name_en": "Rabi Lamichhane", "vote": 18747 },
                { "party": 4, "name_np": "माधव कुमार नेपाल", "name_en": "Madhab Kumar Nepal", "vote": 1493 }
              ],
              "elected": {}
            }
          ]
        },
        {
          "id": "kavrepalanchowk",
          "regions": [
            {
              "id": 1.1,
              "declared": false,
              "result": [
                { "party": 1, "name_np": "जलनाथ खनाल", "name_en": "Jhalanath Khanal", "vote": 25700 },
                { "party": 2, "name_np": "केपी ओली", "name_en": "KP Oli", "vote": 3112 },
                { "party": 4, "name_np": "योगेश भट्टराई", "name_en": "Yogesh Bhattarai", "vote": 25194 },
                { "party": 3, "name_np": "बाबुरल भट्टराई", "name_en": "Baburam Bhattara", "vote": 21346 }
              ],
              "elected": {}
            },
            {
              "id": 1.2,
              "declared": false,
              "result": [
                { "party": 0, "name_np": "योगेश भट्टराई", "name_en": "Yogesh Bhattarai", "vote": 2444 },
                { "party": 4, "name_np": "राजेन्द्र लिङ्देन", "name_en": "Ranjendra Lingden", "vote": 26371 },
                { "party": 2, "name_np": "शेरबहादुर देउवा", "name_en": "Sher Bahadur Deuba", "vote": 27661 },
                { "party": 3, "name_np": "जलनाथ खनाल", "name_en": "Jhalanath Khanal", "vote": 3329 }
              ],
              "elected": {}
            },
            {
              "id": 2.1,
              "declared": true,
              "result": [
                { "party": 4, "name_np": "सागर ढकाल", "name_en": "Sagar Dhakal", "vote": 26792 },
                { "party": 1, "name_np": "रवि लामिछाने", "name_en": "Rabi Lamichhane", "vote": 23934 },
                { "party": 2, "name_np": "राजेन्द्र लिङ्देन", "name_en": "Ranjendra Lingden", "vote": 7288 },
                { "party": 3, "name_np": "योगेश भट्टराई", "name_en": "Yogesh Bhattarai", "vote": 6474 }
              ],
              "elected": { "party": 4, "name_np": "सागर ढकाल", "name_en": "Sagar Dhakal", "vote": 26792 }
            },
            {
              "id": 2.2,
              "declared": false,
              "result": [
                { "party": 0, "name_np": "हिमिला यामी", "name_en": "Hisila Yami", "vote": 1811 },
                { "party": 1, "name_np": "रवि लामिछाने", "name_en": "Rabi Lamichhane", "vote": 24143 },
                { "party": 2, "name_np": "राजेन्द्र लिङ्देन", "name_en": "Ranjendra Lingden", "vote": 14233 },
                { "party": 3, "name_np": "सागर ढकाल", "name_en": "Sagar Dhakal", "vote": 1296 }
              ],
              "elected": {}
            }
          ]
        },
        {
          "id": "lalitpur",
          "regions": [
            {
              "id": 1.1,
              "declared": false,
              "result": [
                { "party": 2, "name_np": "रवि लामिछाने", "name_en": "Rabi Lamichhane", "vote": 16529 },
                { "party": 4, "name_np": "केपी ओली", "name_en": "KP Oli", "vote": 3995 },
                { "party": 3, "name_np": "माधव कुमार नेपाल", "name_en": "Madhab Kumar Nepal", "vote": 3607 },
                { "party": 0, "name_np": "बाबुरल भट्टराई", "name_en": "Baburam Bhattara", "vote": 26385 }
              ],
              "elected": {}
            },
            {
              "id": 1.2,
              "declared": false,
              "result": [
                { "party": 2, "name_np": "विश्वप्रकाश सुवेदी", "name_en": "Bishwa Prakash Subedi", "vote": 19172 },
                { "party": 0, "name_np": "योगेश भट्टराई", "name_en": "Yogesh Bhattarai", "vote": 7065 },
                { "party": 4, "name_np": "बाबुरल भट्टराई", "name_en": "Baburam Bhattara", "vote": 11704 },
                { "party": 1, "name_np": "गगन थापा", "name_en": "Gagan Thapa", "vote": 13144 }
              ],
              "elected": {}
            },
            {
              "id": 2.1,
              "declared": true,
              "result": [
                { "party": 2, "name_np": "हिमिला यामी", "name_en": "Hisila Yami", "vote": 29098 },
                { "party": 3, "name_np": "राजेन्द्र लिङ्देन", "name_en": "Ranjendra Lingden", "vote": 14863 },
                { "party": 1, "name_np": "रवि लामिछाने", "name_en": "Rabi Lamichhane", "vote": 5310 },
                { "party": 4, "name_np": "विश्वप्रकाश सुवेदी", "name_en": "Bishwa Prakash Subedi", "vote": 1133 }
              ],
              "elected": { "party": 2, "name_np": "हिमिला यामी", "name_en": "Hisila Yami", "vote": 29098 }
            },
            {
              "id": 2.2,
              "declared": false,
              "result": [
                { "party": 1, "name_np": "हिमिला यामी", "name_en": "Hisila Yami", "vote": 29086 },
                { "party": 0, "name_np": "राजेन्द्र लिङ्देन", "name_en": "Ranjendra Lingden", "vote": 24566 },
                { "party": 4, "name_np": "योगेश भट्टराई", "name_en": "Yogesh Bhattarai", "vote": 18808 },
                { "party": 3, "name_np": "शेरबहादुर देउवा", "name_en": "Sher Bahadur Deuba", "vote": 12307 }
              ],
              "elected": {}
            },
            {
              "id": 3.1,
              "declared": false,
              "result": [
                { "party": 3, "name_np": "जलनाथ खनाल", "name_en": "Jhalanath Khanal", "vote": 26037 },
                { "party": 0, "name_np": "राजेन्द्र लिङ्देन", "name_en": "Ranjendra Lingden", "vote": 698 },
                { "party": 2, "name_np": "पुष्पकमल दाहाल", "name_en": "Pushpakamal Dahal", "vote": 7365 },
                { "party": 4, "name_np": "बाबुरल भट्टराई", "name_en": "Baburam Bhattara", "vote": 13077 }
              ],
              "elected": {}
            },
            {
              "id": 3.2,
              "declared": false,
              "result": [
                { "party": 3, "name_np": "गगन थापा", "name_en": "Gagan Thapa", "vote": 13010 },
                { "party": 4, "name_np": "बाबुरल भट्टराई", "name_en": "Baburam Bhattara", "vote": 6753 },
                { "party": 2, "name_np": "रवि लामिछाने", "name_en": "Rabi Lamichhane", "vote": 17748 },
                { "party": 0, "name_np": "सागर ढकाल", "name_en": "Sagar Dhakal", "vote": 21775 }
              ],
              "elected": {}
            }
          ]
        },
        {
          "id": "bhaktapur",
          "regions": [
            {
              "id": 1.1,
              "declared": false,
              "result": [
                { "party": 4, "name_np": "पुष्पकमल दाहाल", "name_en": "Pushpakamal Dahal", "vote": 12176 },
                { "party": 3, "name_np": "रवि लामिछाने", "name_en": "Rabi Lamichhane", "vote": 3868 },
                { "party": 2, "name_np": "माधव कुमार नेपाल", "name_en": "Madhab Kumar Nepal", "vote": 7538 },
                { "party": 0, "name_np": "शेरबहादुर देउवा", "name_en": "Sher Bahadur Deuba", "vote": 25557 }
              ],
              "elected": {}
            },
            {
              "id": 1.2,
              "declared": false,
              "result": [
                { "party": 0, "name_np": "विश्वप्रकाश सुवेदी", "name_en": "Bishwa Prakash Subedi", "vote": 12749 },
                { "party": 2, "name_np": "जलनाथ खनाल", "name_en": "Jhalanath Khanal", "vote": 20351 },
                { "party": 3, "name_np": "हिमिला यामी", "name_en": "Hisila Yami", "vote": 10159 },
                { "party": 4, "name_np": "रवि लामिछाने", "name_en": "Rabi Lamichhane", "vote": 10299 }
              ],
              "elected": {}
            },
            {
              "id": 2.1,
              "declared": true,
              "result": [
                { "party": 2, "name_np": "केपी ओली", "name_en": "KP Oli", "vote": 18625 },
                { "party": 4, "name_np": "बाबुरल भट्टराई", "name_en": "Baburam Bhattara", "vote": 12684 },
                { "party": 0, "name_np": "पुष्पकमल दाहाल", "name_en": "Pushpakamal Dahal", "vote": 5249 },
                { "party": 3, "name_np": "योगेश भट्टराई", "name_en": "Yogesh Bhattarai", "vote": 1148 }
              ],
              "elected": { "party": 2, "name_np": "केपी ओली", "name_en": "KP Oli", "vote": 18625 }
            },
            {
              "id": 2.2,
              "declared": false,
              "result": [
                { "party": 4, "name_np": "राजेन्द्र लिङ्देन", "name_en": "Ranjendra Lingden", "vote": 12609 },
                { "party": 1, "name_np": "जलनाथ खनाल", "name_en": "Jhalanath Khanal", "vote": 3459 },
                { "party": 0, "name_np": "माधव कुमार नेपाल", "name_en": "Madhab Kumar Nepal", "vote": 18083 },
                { "party": 3, "name_np": "शेरबहादुर देउवा", "name_en": "Sher Bahadur Deuba", "vote": 18097 }
              ],
              "elected": {}
            }
          ]
        },
        {
          "id": "kathmandu",
          "regions": [
            {
              "id": 1.1,
              "declared": false,
              "result": [
                { "party": 3, "name_np": "गगन थापा", "name_en": "Gagan Thapa", "vote": 17535 },
                { "party": 1, "name_np": "बाबुरल भट्टराई", "name_en": "Baburam Bhattara", "vote": 8691 },
                { "party": 0, "name_np": "योगेश भट्टराई", "name_en": "Yogesh Bhattarai", "vote": 16536 },
                { "party": 4, "name_np": "राजेन्द्र लिङ्देन", "name_en": "Ranjendra Lingden", "vote": 16346 }
              ],
              "elected": {}
            },
            {
              "id": 1.2,
              "declared": false,
              "result": [
                { "party": 0, "name_np": "केपी ओली", "name_en": "KP Oli", "vote": 6121 },
                { "party": 3, "name_np": "बाबुरल भट्टराई", "name_en": "Baburam Bhattara", "vote": 13147 },
                { "party": 2, "name_np": "पुष्पकमल दाहाल", "name_en": "Pushpakamal Dahal", "vote": 9280 },
                { "party": 4, "name_np": "गगन थापा", "name_en": "Gagan Thapa", "vote": 18624 }
              ],
              "elected": {}
            },
            {
              "id": 2.1,
              "declared": true,
              "result": [
                { "party": 1, "name_np": "शेरबहादुर देउवा", "name_en": "Sher Bahadur Deuba", "vote": 15609 },
                { "party": 4, "name_np": "विश्वप्रकाश सुवेदी", "name_en": "Bishwa Prakash Subedi", "vote": 12378 },
                { "party": 0, "name_np": "रवि लामिछाने", "name_en": "Rabi Lamichhane", "vote": 3217 },
                { "party": 2, "name_np": "पुष्पकमल दाहाल", "name_en": "Pushpakamal Dahal", "vote": 1436 }
              ],
              "elected": { "party": 1, "name_np": "शेरबहादुर देउवा", "name_en": "Sher Bahadur Deuba", "vote": 15609 }
            },
            {
              "id": 2.2,
              "declared": false,
              "result": [
                { "party": 4, "name_np": "जलनाथ खनाल", "name_en": "Jhalanath Khanal", "vote": 23253 },
                { "party": 3, "name_np": "शेरबहादुर देउवा", "name_en": "Sher Bahadur Deuba", "vote": 16451 },
                { "party": 1, "name_np": "माधव कुमार नेपाल", "name_en": "Madhab Kumar Nepal", "vote": 23703 },
                { "party": 0, "name_np": "केपी ओली", "name_en": "KP Oli", "vote": 1491 }
              ],
              "elected": {}
            },
            {
              "id": 3.1,
              "declared": false,
              "result": [
                { "party": 3, "name_np": "माधव कुमार नेपाल", "name_en": "Madhab Kumar Nepal", "vote": 13442 },
                { "party": 1, "name_np": "केपी ओली", "name_en": "KP Oli", "vote": 25569 },
                { "party": 2, "name_np": "राजेन्द्र लिङ्देन", "name_en": "Ranjendra Lingden", "vote": 14450 },
                { "party": 4, "name_np": "रवि लामिछाने", "name_en": "Rabi Lamichhane", "vote": 18639 }
              ],
              "elected": {}
            },
            {
              "id": 3.2,
              "declared": false,
              "result": [
                { "party": 2, "name_np": "केपी ओली", "name_en": "KP Oli", "vote": 21713 },
                { "party": 1, "name_np": "गगन थापा", "name_en": "Gagan Thapa", "vote": 21972 },
                { "party": 0, "name_np": "माधव कुमार नेपाल", "name_en": "Madhab Kumar Nepal", "vote": 25080 },
                { "party": 4, "name_np": "जलनाथ खनाल", "name_en": "Jhalanath Khanal", "vote": 14432 }
              ],
              "elected": {}
            },
            {
              "id": 4.1,
              "declared": false,
              "result": [
                { "party": 2, "name_np": "माधव कुमार नेपाल", "name_en": "Madhab Kumar Nepal", "vote": 17301 },
                { "party": 0, "name_np": "गगन थापा", "name_en": "Gagan Thapa", "vote": 17999 },
                { "party": 4, "name_np": "पुष्पकमल दाहाल", "name_en": "Pushpakamal Dahal", "vote": 19156 },
                { "party": 1, "name_np": "जलनाथ खनाल", "name_en": "Jhalanath Khanal", "vote": 19258 }
              ],
              "elected": {}
            },
            {
              "id": 4.2,
              "declared": false,
              "result": [
                { "party": 3, "name_np": "विश्वप्रकाश सुवेदी", "name_en": "Bishwa Prakash Subedi", "vote": 17165 },
                { "party": 1, "name_np": "शेरबहादुर देउवा", "name_en": "Sher Bahadur Deuba", "vote": 24922 },
                { "party": 4, "name_np": "जलनाथ खनाल", "name_en": "Jhalanath Khanal", "vote": 14635 },
                { "party": 0, "name_np": "माधव कुमार नेपाल", "name_en": "Madhab Kumar Nepal", "vote": 20487 }
              ],
              "elected": {}
            },
            {
              "id": 5.1,
              "declared": false,
              "result": [
                { "party": 2, "name_np": "जलनाथ खनाल", "name_en": "Jhalanath Khanal", "vote": 26443 },
                { "party": 3, "name_np": "राजेन्द्र लिङ्देन", "name_en": "Ranjendra Lingden", "vote": 10955 },
                { "party": 0, "name_np": "योगेश भट्टराई", "name_en": "Yogesh Bhattarai", "vote": 18470 },
                { "party": 4, "name_np": "सागर ढकाल", "name_en": "Sagar Dhakal", "vote": 1331 }
              ],
              "elected": {}
            },
            {
              "id": 5.2,
              "declared": false,
              "result": [
                { "party": 3, "name_np": "योगेश भट्टराई", "name_en": "Yogesh Bhattarai", "vote": 883 },
                { "party": 1, "name_np": "केपी ओली", "name_en": "KP Oli", "vote": 23815 },
                { "party": 0, "name_np": "रवि लामिछाने", "name_en": "Rabi Lamichhane", "vote": 7429 },
                { "party": 4, "name_np": "विश्वप्रकाश सुवेदी", "name_en": "Bishwa Prakash Subedi", "vote": 16623 }
              ],
              "elected": {}
            },
            {
              "id": 6.1,
              "declared": false,
              "result": [
                { "party": 3, "name_np": "सागर ढकाल", "name_en": "Sagar Dhakal", "vote": 14352 },
                { "party": 2, "name_np": "विश्वप्रकाश सुवेदी", "name_en": "Bishwa Prakash Subedi", "vote": 19662 },
                { "party": 1, "name_np": "रवि लामिछाने", "name_en": "Rabi Lamichhane", "vote": 25811 },
                { "party": 0, "name_np": "केपी ओली", "name_en": "KP Oli", "vote": 4353 }
              ],
              "elected": {}
            },
            {
              "id": 6.2,
              "declared": false,
              "result": [
                { "party": 1, "name_np": "विश्वप्रकाश सुवेदी", "name_en": "Bishwa Prakash Subedi", "vote": 25129 },
                { "party": 0, "name_np": "शेरबहादुर देउवा", "name_en": "Sher Bahadur Deuba", "vote": 9595 },
                { "party": 3, "name_np": "सागर ढकाल", "name_en": "Sagar Dhakal", "vote": 5394 },
                { "party": 4, "name_np": "माधव कुमार नेपाल", "name_en": "Madhab Kumar Nepal", "vote": 24838 }
              ],
              "elected": {}
            },
            {
              "id": 7.1,
              "declared": false,
              "result": [
                { "party": 3, "name_np": "रवि लामिछाने", "name_en": "Rabi Lamichhane", "vote": 20164 },
                { "party": 4, "name_np": "गगन थापा", "name_en": "Gagan Thapa", "vote": 24970 },
                { "party": 0, "name_np": "शेरबहादुर देउवा", "name_en": "Sher Bahadur Deuba", "vote": 24110 },
                { "party": 1, "name_np": "सागर ढकाल", "name_en": "Sagar Dhakal", "vote": 21805 }
              ],
              "elected": {}
            },
            {
              "id": 7.2,
              "declared": false,
              "result": [
                { "party": 0, "name_np": "सागर ढकाल", "name_en": "Sagar Dhakal", "vote": 15918 },
                { "party": 1, "name_np": "गगन थापा", "name_en": "Gagan Thapa", "vote": 23152 },
                { "party": 2, "name_np": "शेरबहादुर देउवा", "name_en": "Sher Bahadur Deuba", "vote": 17759 },
                { "party": 3, "name_np": "माधव कुमार नेपाल", "name_en": "Madhab Kumar Nepal", "vote": 17945 }
              ],
              "elected": {}
            },
            {
              "id": 8.1,
              "declared": false,
              "result": [
                { "party": 3, "name_np": "सागर ढकाल", "name_en": "Sagar Dhakal", "vote": 5408 },
                { "party": 0, "name_np": "गगन थापा", "name_en": "Gagan Thapa", "vote": 26677 },
                { "party": 1, "name_np": "विश्वप्रकाश सुवेदी", "name_en": "Bishwa Prakash Subedi", "vote": 1087 },
                { "party": 2, "name_np": "केपी ओली", "name_en": "KP Oli", "vote": 18360 }
              ],
              "elected": {}
            },
            {
              "id": 8.2,
              "declared": false,
              "result": [
                { "party": 3, "name_np": "रवि लामिछाने", "name_en": "Rabi Lamichhane", "vote": 21375 },
                { "party": 0, "name_np": "माधव कुमार नेपाल", "name_en": "Madhab Kumar Nepal", "vote": 24345 },
                { "party": 2, "name_np": "राजेन्द्र लिङ्देन", "name_en": "Ranjendra Lingden", "vote": 2319 },
                { "party": 4, "name_np": "गगन थापा", "name_en": "Gagan Thapa", "vote": 26987 }
              ],
              "elected": {}
            },
            {
              "id": 9.1,
              "declared": false,
              "result": [
                { "party": 3, "name_np": "हिमिला यामी", "name_en": "Hisila Yami", "vote": 17604 },
                { "party": 0, "name_np": "जलनाथ खनाल", "name_en": "Jhalanath Khanal", "vote": 19589 },
                { "party": 4, "name_np": "विश्वप्रकाश सुवेदी", "name_en": "Bishwa Prakash Subedi", "vote": 18337 },
                { "party": 1, "name_np": "योगेश भट्टराई", "name_en": "Yogesh Bhattarai", "vote": 10660 }
              ],
              "elected": {}
            },
            {
              "id": 9.2,
              "declared": false,
              "result": [
                { "party": 1, "name_np": "रवि लामिछाने", "name_en": "Rabi Lamichhane", "vote": 26180 },
                { "party": 2, "name_np": "माधव कुमार नेपाल", "name_en": "Madhab Kumar Nepal", "vote": 18955 },
                { "party": 4, "name_np": "विश्वप्रकाश सुवेदी", "name_en": "Bishwa Prakash Subedi", "vote": 14797 },
                { "party": 0, "name_np": "जलनाथ खनाल", "name_en": "Jhalanath Khanal", "vote": 23274 }
              ],
              "elected": {}
            },
            {
              "id": 10.1,
              "declared": false,
              "result": [
                { "party": 2, "name_np": "हिमिला यामी", "name_en": "Hisila Yami", "vote": 8838 },
                { "party": 0, "name_np": "बाबुरल भट्टराई", "name_en": "Baburam Bhattara", "vote": 18680 },
                { "party": 3, "name_np": "जलनाथ खनाल", "name_en": "Jhalanath Khanal", "vote": 6709 },
                { "party": 1, "name_np": "रवि लामिछाने", "name_en": "Rabi Lamichhane", "vote": 12813 }
              ],
              "elected": {}
            },
            {
              "id": 10.2,
              "declared": false,
              "result": [
                { "party": 4, "name_np": "विश्वप्रकाश सुवेदी", "name_en": "Bishwa Prakash Subedi", "vote": 23337 },
                { "party": 0, "name_np": "माधव कुमार नेपाल", "name_en": "Madhab Kumar Nepal", "vote": 24411 },
                { "party": 2, "name_np": "जलनाथ खनाल", "name_en": "Jhalanath Khanal", "vote": 856 },
                { "party": 1, "name_np": "पुष्पकमल दाहाल", "name_en": "Pushpakamal Dahal", "vote": 12637 }
              ],
              "elected": {}
            }
          ]
        },
        {
          "id": "nuwakot",
          "regions": [
            {
              "id": 1.1,
              "declared": false,
              "result": [
                { "party": 1, "name_np": "जलनाथ खनाल", "name_en": "Jhalanath Khanal", "vote": 5879 },
                { "party": 4, "name_np": "हिमिला यामी", "name_en": "Hisila Yami", "vote": 1103 },
                { "party": 3, "name_np": "पुष्पकमल दाहाल", "name_en": "Pushpakamal Dahal", "vote": 7866 },
                { "party": 0, "name_np": "केपी ओली", "name_en": "KP Oli", "vote": 777 }
              ],
              "elected": {}
            },
            {
              "id": 1.2,
              "declared": false,
              "result": [
                { "party": 4, "name_np": "शेरबहादुर देउवा", "name_en": "Sher Bahadur Deuba", "vote": 21335 },
                { "party": 0, "name_np": "रवि लामिछाने", "name_en": "Rabi Lamichhane", "vote": 28971 },
                { "party": 2, "name_np": "पुष्पकमल दाहाल", "name_en": "Pushpakamal Dahal", "vote": 25170 },
                { "party": 1, "name_np": "बाबुरल भट्टराई", "name_en": "Baburam Bhattara", "vote": 23242 }
              ],
              "elected": {}
            },
            {
              "id": 2.1,
              "declared": true,
              "result": [
                { "party": 2, "name_np": "माधव कुमार नेपाल", "name_en": "Madhab Kumar Nepal", "vote": 21581 },
                { "party": 3, "name_np": "बाबुरल भट्टराई", "name_en": "Baburam Bhattara", "vote": 21164 },
                { "party": 1, "name_np": "सागर ढकाल", "name_en": "Sagar Dhakal", "vote": 15374 },
                { "party": 4, "name_np": "राजेन्द्र लिङ्देन", "name_en": "Ranjendra Lingden", "vote": 6332 }
              ],
              "elected": { "party": 2, "name_np": "माधव कुमार नेपाल", "name_en": "Madhab Kumar Nepal", "vote": 21581 }
            },
            {
              "id": 2.2,
              "declared": false,
              "result": [
                { "party": 2, "name_np": "बाबुरल भट्टराई", "name_en": "Baburam Bhattara", "vote": 15690 },
                { "party": 4, "name_np": "सागर ढकाल", "name_en": "Sagar Dhakal", "vote": 4390 },
                { "party": 0, "name_np": "शेरबहादुर देउवा", "name_en": "Sher Bahadur Deuba", "vote": 25356 },
                { "party": 1, "name_np": "जलनाथ खनाल", "name_en": "Jhalanath Khanal", "vote": 1745 }
              ],
              "elected": {}
            }
          ]
        },
        {
          "id": "rasuwa",
          "regions": [
            {
              "id": 1.1,
              "declared": false,
              "result": [
                { "party": 2, "name_np": "बाबुरल भट्टराई", "name_en": "Baburam Bhattara", "vote": 6866 },
                { "party": 0, "name_np": "हिमिला यामी", "name_en": "Hisila Yami", "vote": 4850 },
                { "party": 3, "name_np": "पुष्पकमल दाहाल", "name_en": "Pushpakamal Dahal", "vote": 22658 },
                { "party": 1, "name_np": "शेरबहादुर देउवा", "name_en": "Sher Bahadur Deuba", "vote": 2440 }
              ],
              "elected": {}
            },
            {
              "id": 1.2,
              "declared": false,
              "result": [
                { "party": 2, "name_np": "राजेन्द्र लिङ्देन", "name_en": "Ranjendra Lingden", "vote": 14842 },
                { "party": 3, "name_np": "रवि लामिछाने", "name_en": "Rabi Lamichhane", "vote": 19004 },
                { "party": 4, "name_np": "माधव कुमार नेपाल", "name_en": "Madhab Kumar Nepal", "vote": 13329 },
                { "party": 0, "name_np": "योगेश भट्टराई", "name_en": "Yogesh Bhattarai", "vote": 10627 }
              ],
              "elected": {}
            }
          ]
        },
        {
          "id": "dhading",
          "regions": [
            {
              "id": 1.1,
              "declared": false,
              "result": [
                { "party": 0, "name_np": "बाबुरल भट्टराई", "name_en": "Baburam Bhattara", "vote": 21459 },
                { "party": 4, "name_np": "पुष्पकमल दाहाल", "name_en": "Pushpakamal Dahal", "vote": 21458 },
                { "party": 3, "name_np": "राजेन्द्र लिङ्देन", "name_en": "Ranjendra Lingden", "vote": 11159 },
                { "party": 2, "name_np": "योगेश भट्टराई", "name_en": "Yogesh Bhattarai", "vote": 26084 }
              ],
              "elected": {}
            },
            {
              "id": 1.2,
              "declared": false,
              "result": [
                { "party": 2, "name_np": "जलनाथ खनाल", "name_en": "Jhalanath Khanal", "vote": 24266 },
                { "party": 4, "name_np": "माधव कुमार नेपाल", "name_en": "Madhab Kumar Nepal", "vote": 26428 },
                { "party": 3, "name_np": "हिमिला यामी", "name_en": "Hisila Yami", "vote": 15193 },
                { "party": 0, "name_np": "बाबुरल भट्टराई", "name_en": "Baburam Bhattara", "vote": 20907 }
              ],
              "elected": {}
            },
            {
              "id": 2.1,
              "declared": true,
              "result": [
                { "party": 4, "name_np": "शेरबहादुर देउवा", "name_en": "Sher Bahadur Deuba", "vote": 28412 },
                { "party": 3, "name_np": "योगेश भट्टराई", "name_en": "Yogesh Bhattarai", "vote": 27386 },
                { "party": 1, "name_np": "बाबुरल भट्टराई", "name_en": "Baburam Bhattara", "vote": 16693 },
                { "party": 0, "name_np": "सागर ढकाल", "name_en": "Sagar Dhakal", "vote": 5390 }
              ],
              "elected": { "party": 4, "name_np": "शेरबहादुर देउवा", "name_en": "Sher Bahadur Deuba", "vote": 28412 }
            },
            {
              "id": 2.2,
              "declared": false,
              "result": [
                { "party": 4, "name_np": "माधव कुमार नेपाल", "name_en": "Madhab Kumar Nepal", "vote": 27813 },
                { "party": 1, "name_np": "जलनाथ खनाल", "name_en": "Jhalanath Khanal", "vote": 17174 },
                { "party": 2, "name_np": "विश्वप्रकाश सुवेदी", "name_en": "Bishwa Prakash Subedi", "vote": 8746 },
                { "party": 0, "name_np": "बाबुरल भट्टराई", "name_en": "Baburam Bhattara", "vote": 2145 }
              ],
              "elected": {}
            }
          ]
        },
        {
          "id": "makwanpur",
          "regions": [
            {
              "id": 1.1,
              "declared": false,
              "result": [
                { "party": 4, "name_np": "रवि लामिछाने", "name_en": "Rabi Lamichhane", "vote": 19076 },
                { "party": 0, "name_np": "माधव कुमार नेपाल", "name_en": "Madhab Kumar Nepal", "vote": 12033 },
                { "party": 3, "name_np": "सागर ढकाल", "name_en": "Sagar Dhakal", "vote": 16745 },
                { "party": 1, "name_np": "गगन थापा", "name_en": "Gagan Thapa", "vote": 25015 }
              ],
              "elected": {}
            },
            {
              "id": 1.2,
              "declared": false,
              "result": [
                { "party": 4, "name_np": "राजेन्द्र लिङ्देन", "name_en": "Ranjendra Lingden", "vote": 1853 },
                { "party": 3, "name_np": "सागर ढकाल", "name_en": "Sagar Dhakal", "vote": 1493 },
                { "party": 2, "name_np": "योगेश भट्टराई", "name_en": "Yogesh Bhattarai", "vote": 2518 },
                { "party": 1, "name_np": "हिमिला यामी", "name_en": "Hisila Yami", "vote": 27426 }
              ],
              "elected": {}
            },
            {
              "id": 2.1,
              "declared": true,
              "result": [
                { "party": 3, "name_np": "हिमिला यामी", "name_en": "Hisila Yami", "vote": 28624 },
                { "party": 1, "name_np": "सागर ढकाल", "name_en": "Sagar Dhakal", "vote": 28278 },
                { "party": 0, "name_np": "गगन थापा", "name_en": "Gagan Thapa", "vote": 27082 },
                { "party": 2, "name_np": "माधव कुमार नेपाल", "name_en": "Madhab Kumar Nepal", "vote": 287 }
              ],
              "elected": { "party": 3, "name_np": "हिमिला यामी", "name_en": "Hisila Yami", "vote": 28624 }
            },
            {
              "id": 2.2,
              "declared": false,
              "result": [
                { "party": 3, "name_np": "विश्वप्रकाश सुवेदी", "name_en": "Bishwa Prakash Subedi", "vote": 6856 },
                { "party": 4, "name_np": "जलनाथ खनाल", "name_en": "Jhalanath Khanal", "vote": 20746 },
                { "party": 1, "name_np": "गगन थापा", "name_en": "Gagan Thapa", "vote": 27621 },
                { "party": 2, "name_np": "हिमिला यामी", "name_en": "Hisila Yami", "vote": 16515 }
              ],
              "elected": {}
            }
          ]
        },
        {
          "id": "chitwan",
          "regions": [
            {
              "id": 1.1,
              "declared": false,
              "result": [
                { "party": 3, "name_np": "माधव कुमार नेपाल", "name_en": "Madhab Kumar Nepal", "vote": 12961 },
                { "party": 0, "name_np": "जलनाथ खनाल", "name_en": "Jhalanath Khanal", "vote": 4263 },
                { "party": 2, "name_np": "राजेन्द्र लिङ्देन", "name_en": "Ranjendra Lingden", "vote": 23140 },
                { "party": 1, "name_np": "गगन थापा", "name_en": "Gagan Thapa", "vote": 1979 }
              ],
              "elected": {}
            },
            {
              "id": 1.2,
              "declared": false,
              "result": [
                { "party": 0, "name_np": "विश्वप्रकाश सुवेदी", "name_en": "Bishwa Prakash Subedi", "vote": 15008 },
                { "party": 3, "name_np": "रवि लामिछाने", "name_en": "Rabi Lamichhane", "vote": 10861 },
                { "party": 1, "name_np": "जलनाथ खनाल", "name_en": "Jhalanath Khanal", "vote": 3363 },
                { "party": 2, "name_np": "माधव कुमार नेपाल", "name_en": "Madhab Kumar Nepal", "vote": 5643 }
              ],
              "elected": {}
            },
            {
              "id": 2.1,
              "declared": true,
              "result": [
                { "party": 0, "name_np": "हिमिला यामी", "name_en": "Hisila Yami", "vote": 14014 },
                { "party": 1, "name_np": "शेरबहादुर देउवा", "name_en": "Sher Bahadur Deuba", "vote": 11804 },
                { "party": 2, "name_np": "योगेश भट्टराई", "name_en": "Yogesh Bhattarai", "vote": 7563 },
                { "party": 3, "name_np": "गगन थापा", "name_en": "Gagan Thapa", "vote": 5577 }
              ],
              "elected": { "party": 0, "name_np": "हिमिला यामी", "name_en": "Hisila Yami", "vote": 14014 }
            },
            {
              "id": 2.2,
              "declared": false,
              "result": [
                { "party": 1, "name_np": "गगन थापा", "name_en": "Gagan Thapa", "vote": 8590 },
                { "party": 4, "name_np": "जलनाथ खनाल", "name_en": "Jhalanath Khanal", "vote": 29147 },
                { "party": 0, "name_np": "बाबुरल भट्टराई", "name_en": "Baburam Bhattara", "vote": 15811 },
                { "party": 2, "name_np": "विश्वप्रकाश सुवेदी", "name_en": "Bishwa Prakash Subedi", "vote": 21892 }
              ],
              "elected": {}
            },
            {
              "id": 3.1,
              "declared": false,
              "result": [
                { "party": 0, "name_np": "बाबुरल भट्टराई", "name_en": "Baburam Bhattara", "vote": 1499 },
                { "party": 2, "name_np": "हिमिला यामी", "name_en": "Hisila Yami", "vote": 20013 },
                { "party": 4, "name_np": "पुष्पकमल दाहाल", "name_en": "Pushpakamal Dahal", "vote": 28515 },
                { "party": 3, "name_np": "राजेन्द्र लिङ्देन", "name_en": "Ranjendra Lingden", "vote": 2721 }
              ],
              "elected": {}
            },
            {
              "id": 3.2,
              "declared": false,
              "result": [
                { "party": 0, "name_np": "पुष्पकमल दाहाल", "name_en": "Pushpakamal Dahal", "vote": 21204 },
                { "party": 4, "name_np": "रवि लामिछाने", "name_en": "Rabi Lamichhane", "vote": 28533 },
                { "party": 3, "name_np": "केपी ओली", "name_en": "KP Oli", "vote": 3117 },
                { "party": 1, "name_np": "हिमिला यामी", "name_en": "Hisila Yami", "vote": 20526 }
              ],
              "elected": {}
            }
          ]
        }
      ]
    },
    {
      "id": 4,
      "districts": [
        {
          "id": "gorkha",
          "regions": [
            {
              "id": 1.1,
              "declared": false,
              "result": [
                { "party": 0, "name_np": "पुष्पकमल दाहाल", "name_en": "Pushpakamal Dahal", "vote": 3972 },
                { "party": 2, "name_np": "केपी ओली", "name_en": "KP Oli", "vote": 13151 },
                { "party": 1, "name_np": "शेरबहादुर देउवा", "name_en": "Sher Bahadur Deuba", "vote": 8495 },
                { "party": 4, "name_np": "योगेश भट्टराई", "name_en": "Yogesh Bhattarai", "vote": 4005 }
              ],
              "elected": {}
            },
            {
              "id": 1.2,
              "declared": false,
              "result": [
                { "party": 4, "name_np": "हिमिला यामी", "name_en": "Hisila Yami", "vote": 12247 },
                { "party": 3, "name_np": "सागर ढकाल", "name_en": "Sagar Dhakal", "vote": 16500 },
                { "party": 0, "name_np": "योगेश भट्टराई", "name_en": "Yogesh Bhattarai", "vote": 2701 },
                { "party": 1, "name_np": "माधव कुमार नेपाल", "name_en": "Madhab Kumar Nepal", "vote": 11870 }
              ],
              "elected": {}
            },
            {
              "id": 2.1,
              "declared": true,
              "result": [
                { "party": 1, "name_np": "हिमिला यामी", "name_en": "Hisila Yami", "vote": 18168 },
                { "party": 4, "name_np": "गगन थापा", "name_en": "Gagan Thapa", "vote": 16455 },
                { "party": 3, "name_np": "विश्वप्रकाश सुवेदी", "name_en": "Bishwa Prakash Subedi", "vote": 12929 },
                { "party": 0, "name_np": "जलनाथ खनाल", "name_en": "Jhalanath Khanal", "vote": 4426 }
              ],
              "elected": { "party": 1, "name_np": "हिमिला यामी", "name_en": "Hisila Yami", "vote": 18168 }
            },
            {
              "id": 2.2,
              "declared": false,
              "result": [
                { "party": 0, "name_np": "पुष्पकमल दाहाल", "name_en": "Pushpakamal Dahal", "vote": 1497 },
                { "party": 3, "name_np": "गगन थापा", "name_en": "Gagan Thapa", "vote": 12207 },
                { "party": 2, "name_np": "रवि लामिछाने", "name_en": "Rabi Lamichhane", "vote": 10431 },
                { "party": 1, "name_np": "विश्वप्रकाश सुवेदी", "name_en": "Bishwa Prakash Subedi", "vote": 2407 }
              ],
              "elected": {}
            }
          ]
        },
        {
          "id": "lamjung",
          "regions": [
            {
              "id": 1.1,
              "declared": false,
              "result": [
                { "party": 2, "name_np": "हिमिला यामी", "name_en": "Hisila Yami", "vote": 28836 },
                { "party": 1, "name_np": "विश्वप्रकाश सुवेदी", "name_en": "Bishwa Prakash Subedi", "vote": 28605 },
                { "party": 4, "name_np": "शेरबहादुर देउवा", "name_en": "Sher Bahadur Deuba", "vote": 25541 },
                { "party": 0, "name_np": "बाबुरल भट्टराई", "name_en": "Baburam Bhattara", "vote": 5976 }
              ],
              "elected": {}
            },
            {
              "id": 1.2,
              "declared": false,
              "result": [
                { "party": 1, "name_np": "पुष्पकमल दाहाल", "name_en": "Pushpakamal Dahal", "vote": 12304 },
                { "party": 4, "name_np": "सागर ढकाल", "name_en": "Sagar Dhakal", "vote": 3516 },
                { "party": 0, "name_np": "रवि लामिछाने", "name_en": "Rabi Lamichhane", "vote": 2885 },
                { "party": 3, "name_np": "जलनाथ खनाल", "name_en": "Jhalanath Khanal", "vote": 22659 }
              ],
              "elected": {}
            }
          ]
        },
        {
          "id": "tanahun",
          "regions": [
            {
              "id": 1.1,
              "declared": false,
              "result": [
                { "party": 0, "name_np": "केपी ओली", "name_en": "KP Oli", "vote": 17247 },
                { "party": 4, "name_np": "बाबुरल भट्टराई", "name_en": "Baburam Bhattara", "vote": 25689 },
                { "party": 1, "name_np": "जलनाथ खनाल", "name_en": "Jhalanath Khanal", "vote": 11592 },
                { "party": 3, "name_np": "हिमिला यामी", "name_en": "Hisila Yami", "vote": 1335 }
              ],
              "elected": {}
            },
            {
              "id": 1.2,
              "declared": false,
              "result": [
                { "party": 3, "name_np": "रवि लामिछाने", "name_en": "Rabi Lamichhane", "vote": 18824 },
                { "party": 1, "name_np": "विश्वप्रकाश सुवेदी", "name_en": "Bishwa Prakash Subedi", "vote": 4481 },
                { "party": 0, "name_np": "बाबुरल भट्टराई", "name_en": "Baburam Bhattara", "vote": 8898 },
                { "party": 2, "name_np": "गगन थापा", "name_en": "Gagan Thapa", "vote": 16521 }
              ],
              "elected": {}
            },
            {
              "id": 2.1,
              "declared": true,
              "result": [
                { "party": 3, "name_np": "माधव कुमार नेपाल", "name_en": "Madhab Kumar Nepal", "vote": 22968 },
                { "party": 0, "name_np": "रवि लामिछाने", "name_en": "Rabi Lamichhane", "vote": 11720 },
                { "party": 2, "name_np": "गगन थापा", "name_en": "Gagan Thapa", "vote": 8352 },
                { "party": 1, "name_np": "राजेन्द्र लिङ्देन", "name_en": "Ranjendra Lingden", "vote": 6896 }
              ],
              "elected": { "party": 3, "name_np": "माधव कुमार नेपाल", "name_en": "Madhab Kumar Nepal", "vote": 22968 }
            },
            {
              "id": 2.2,
              "declared": false,
              "result": [
                { "party": 4, "name_np": "राजेन्द्र लिङ्देन", "name_en": "Ranjendra Lingden", "vote": 964 },
                { "party": 1, "name_np": "जलनाथ खनाल", "name_en": "Jhalanath Khanal", "vote": 6188 },
                { "party": 2, "name_np": "बाबुरल भट्टराई", "name_en": "Baburam Bhattara", "vote": 26158 },
                { "party": 0, "name_np": "रवि लामिछाने", "name_en": "Rabi Lamichhane", "vote": 17359 }
              ],
              "elected": {}
            }
          ]
        },
        {
          "id": "syangja",
          "regions": [
            {
              "id": 1.1,
              "declared": false,
              "result": [
                { "party": 2, "name_np": "जलनाथ खनाल", "name_en": "Jhalanath Khanal", "vote": 25566 },
                { "party": 0, "name_np": "बाबुरल भट्टराई", "name_en": "Baburam Bhattara", "vote": 8677 },
                { "party": 1, "name_np": "केपी ओली", "name_en": "KP Oli", "vote": 26048 },
                { "party": 3, "name_np": "शेरबहादुर देउवा", "name_en": "Sher Bahadur Deuba", "vote": 15217 }
              ],
              "elected": {}
            },
            {
              "id": 1.2,
              "declared": false,
              "result": [
                { "party": 2, "name_np": "केपी ओली", "name_en": "KP Oli", "vote": 1738 },
                { "party": 1, "name_np": "योगेश भट्टराई", "name_en": "Yogesh Bhattarai", "vote": 23524 },
                { "party": 3, "name_np": "जलनाथ खनाल", "name_en": "Jhalanath Khanal", "vote": 27580 },
                { "party": 4, "name_np": "पुष्पकमल दाहाल", "name_en": "Pushpakamal Dahal", "vote": 6810 }
              ],
              "elected": {}
            },
            {
              "id": 2.1,
              "declared": true,
              "result": [
                { "party": 1, "name_np": "हिमिला यामी", "name_en": "Hisila Yami", "vote": 29507 },
                { "party": 0, "name_np": "माधव कुमार नेपाल", "name_en": "Madhab Kumar Nepal", "vote": 19363 },
                { "party": 3, "name_np": "राजेन्द्र लिङ्देन", "name_en": "Ranjendra Lingden", "vote": 7037 },
                { "party": 2, "name_np": "योगेश भट्टराई", "name_en": "Yogesh Bhattarai", "vote": 6284 }
              ],
              "elected": { "party": 1, "name_np": "हिमिला यामी", "name_en": "Hisila Yami", "vote": 29507 }
            },
            {
              "id": 2.2,
              "declared": false,
              "result": [
                { "party": 1, "name_np": "रवि लामिछाने", "name_en": "Rabi Lamichhane", "vote": 24843 },
                { "party": 0, "name_np": "केपी ओली", "name_en": "KP Oli", "vote": 12587 },
                { "party": 2, "name_np": "माधव कुमार नेपाल", "name_en": "Madhab Kumar Nepal", "vote": 14852 },
                { "party": 4, "name_np": "गगन थापा", "name_en": "Gagan Thapa", "vote": 301 }
              ],
              "elected": {}
            }
          ]
        },
        {
          "id": "kaski",
          "regions": [
            {
              "id": 1.1,
              "declared": false,
              "result": [
                { "party": 4, "name_np": "सागर ढकाल", "name_en": "Sagar Dhakal", "vote": 24769 },
                { "party": 1, "name_np": "जलनाथ खनाल", "name_en": "Jhalanath Khanal", "vote": 9667 },
                { "party": 0, "name_np": "केपी ओली", "name_en": "KP Oli", "vote": 10367 },
                { "party": 2, "name_np": "गगन थापा", "name_en": "Gagan Thapa", "vote": 101 }
              ],
              "elected": {}
            },
            {
              "id": 1.2,
              "declared": false,
              "result": [
                { "party": 1, "name_np": "बाबुरल भट्टराई", "name_en": "Baburam Bhattara", "vote": 9762 },
                { "party": 2, "name_np": "हिमिला यामी", "name_en": "Hisila Yami", "vote": 8833 },
                { "party": 0, "name_np": "केपी ओली", "name_en": "KP Oli", "vote": 6112 },
                { "party": 4, "name_np": "जलनाथ खनाल", "name_en": "Jhalanath Khanal", "vote": 3857 }
              ],
              "elected": {}
            },
            {
              "id": 2.1,
              "declared": true,
              "result": [
                { "party": 3, "name_np": "योगेश भट्टराई", "name_en": "Yogesh Bhattarai", "vote": 20989 },
                { "party": 2, "name_np": "हिमिला यामी", "name_en": "Hisila Yami", "vote": 19723 },
                { "party": 4, "name_np": "जलनाथ खनाल", "name_en": "Jhalanath Khanal", "vote": 16180 },
                { "party": 1, "name_np": "माधव कुमार नेपाल", "name_en": "Madhab Kumar Nepal", "vote": 6043 }
              ],
              "elected": { "party": 3, "name_np": "योगेश भट्टराई", "name_en": "Yogesh Bhattarai", "vote": 20989 }
            },
            {
              "id": 2.2,
              "declared": false,
              "result": [
                { "party": 4, "name_np": "गगन थापा", "name_en": "Gagan Thapa", "vote": 13878 },
                { "party": 3, "name_np": "पुष्पकमल दाहाल", "name_en": "Pushpakamal Dahal", "vote": 25827 },
                { "party": 0, "name_np": "बाबुरल भट्टराई", "name_en": "Baburam Bhattara", "vote": 2200 },
                { "party": 2, "name_np": "माधव कुमार नेपाल", "name_en": "Madhab Kumar Nepal", "vote": 6936 }
              ],
              "elected": {}
            },
            {
              "id": 3.1,
              "declared": false,
              "result": [
                { "party": 0, "name_np": "राजेन्द्र लिङ्देन", "name_en": "Ranjendra Lingden", "vote": 26915 },
                { "party": 3, "name_np": "माधव कुमार नेपाल", "name_en": "Madhab Kumar Nepal", "vote": 14384 },
                { "party": 4, "name_np": "विश्वप्रकाश सुवेदी", "name_en": "Bishwa Prakash Subedi", "vote": 21926 },
                { "party": 1, "name_np": "बाबुरल भट्टराई", "name_en": "Baburam Bhattara", "vote": 28082 }
              ],
              "elected": {}
            },
            {
              "id": 3.2,
              "declared": false,
              "result": [
                { "party": 3, "name_np": "बाबुरल भट्टराई", "name_en": "Baburam Bhattara", "vote": 23523 },
                { "party": 1, "name_np": "योगेश भट्टराई", "name_en": "Yogesh Bhattarai", "vote": 13121 },
                { "party": 0, "name_np": "राजेन्द्र लिङ्देन", "name_en": "Ranjendra Lingden", "vote": 12454 },
                { "party": 2, "name_np": "जलनाथ खनाल", "name_en": "Jhalanath Khanal", "vote": 950 }
              ],
              "elected": {}
            }
          ]
        },
        {
          "id": "manang",
          "regions": [
            {
              "id": 1.1,
              "declared": false,
              "result": [
                { "party": 1, "name_np": "केपी ओली", "name_en": "KP Oli", "vote": 16817 },
                { "party": 4, "name_np": "गगन थापा", "name_en": "Gagan Thapa", "vote": 16835 },
                { "party": 3, "name_np": "पुष्पकमल दाहाल", "name_en": "Pushpakamal Dahal", "vote": 6724 },
                { "party": 0, "name_np": "शेरबहादुर देउवा", "name_en": "Sher Bahadur Deuba", "vote": 22732 }
              ],
              "elected": {}
            },
            {
              "id": 1.2,
              "declared": false,
              "result": [
                { "party": 2, "name_np": "विश्वप्रकाश सुवेदी", "name_en": "Bishwa Prakash Subedi", "vote": 11822 },
                { "party": 0, "name_np": "माधव कुमार नेपाल", "name_en": "Madhab Kumar Nepal", "vote": 7476 },
                { "party": 3, "name_np": "हिमिला यामी", "name_en": "Hisila Yami", "vote": 19447 },
                { "party": 1, "name_np": "बाबुरल भट्टराई", "name_en": "Baburam Bhattara", "vote": 6507 }
              ],
              "elected": {}
            }
          ]
        },
        {
          "id": "mustang",
          "regions": [
            {
              "id": 1.1,
              "declared": false,
              "result": [
                { "party": 0, "name_np": "सागर ढकाल", "name_en": "Sagar Dhakal", "vote": 5354 },
                { "party": 4, "name_np": "हिमिला यामी", "name_en": "Hisila Yami", "vote": 19378 },
                { "party": 3, "name_np": "शेरबहादुर देउवा", "name_en": "Sher Bahadur Deuba", "vote": 23210 },
                { "party": 1, "name_np": "योगेश भट्टराई", "name_en": "Yogesh Bhattarai", "vote": 17606 }
              ],
              "elected": {}
            },
            {
              "id": 1.2,
              "declared": false,
              "result": [
                { "party": 1, "name_np": "गगन थापा", "name_en": "Gagan Thapa", "vote": 15158 },
                { "party": 0, "name_np": "माधव कुमार नेपाल", "name_en": "Madhab Kumar Nepal", "vote": 10068 },
                { "party": 3, "name_np": "रवि लामिछाने", "name_en": "Rabi Lamichhane", "vote": 24736 },
                { "party": 4, "name_np": "जलनाथ खनाल", "name_en": "Jhalanath Khanal", "vote": 5064 }
              ],
              "elected": {}
            }
          ]
        },
        {
          "id": "parbat",
          "regions": [
            {
              "id": 1.1,
              "declared": false,
              "result": [
                { "party": 3, "name_np": "जलनाथ खनाल", "name_en": "Jhalanath Khanal", "vote": 21829 },
                { "party": 1, "name_np": "गगन थापा", "name_en": "Gagan Thapa", "vote": 29375 },
                { "party": 4, "name_np": "शेरबहादुर देउवा", "name_en": "Sher Bahadur Deuba", "vote": 6096 },
                { "party": 2, "name_np": "रवि लामिछाने", "name_en": "Rabi Lamichhane", "vote": 21125 }
              ],
              "elected": {}
            },
            {
              "id": 1.2,
              "declared": false,
              "result": [
                { "party": 2, "name_np": "केपी ओली", "name_en": "KP Oli", "vote": 21414 },
                { "party": 1, "name_np": "माधव कुमार नेपाल", "name_en": "Madhab Kumar Nepal", "vote": 23513 },
                { "party": 0, "name_np": "राजेन्द्र लिङ्देन", "name_en": "Ranjendra Lingden", "vote": 20210 },
                { "party": 4, "name_np": "गगन थापा", "name_en": "Gagan Thapa", "vote": 15428 }
              ],
              "elected": {}
            }
          ]
        },
        {
          "id": "myagdi",
          "regions": [
            {
              "id": 1.1,
              "declared": false,
              "result": [
                { "party": 1, "name_np": "केपी ओली", "name_en": "KP Oli", "vote": 9715 },
                { "party": 2, "name_np": "शेरबहादुर देउवा", "name_en": "Sher Bahadur Deuba", "vote": 16523 },
                { "party": 0, "name_np": "पुष्पकमल दाहाल", "name_en": "Pushpakamal Dahal", "vote": 6978 },
                { "party": 3, "name_np": "रवि लामिछाने", "name_en": "Rabi Lamichhane", "vote": 12580 }
              ],
              "elected": {}
            },
            {
              "id": 1.2,
              "declared": false,
              "result": [
                { "party": 2, "name_np": "योगेश भट्टराई", "name_en": "Yogesh Bhattarai", "vote": 27801 },
                { "party": 0, "name_np": "बाबुरल भट्टराई", "name_en": "Baburam Bhattara", "vote": 24169 },
                { "party": 1, "name_np": "हिमिला यामी", "name_en": "Hisila Yami", "vote": 19373 },
                { "party": 3, "name_np": "विश्वप्रकाश सुवेदी", "name_en": "Bishwa Prakash Subedi", "vote": 13969 }
              ],
              "elected": {}
            }
          ]
        },
        {
          "id": "baglung",
          "regions": [
            {
              "id": 1.1,
              "declared": false,
              "result": [
                { "party": 4, "name_np": "शेरबहादुर देउवा", "name_en": "Sher Bahadur Deuba", "vote": 7790 },
                { "party": 1, "name_np": "हिमिला यामी", "name_en": "Hisila Yami", "vote": 17901 },
                { "party": 0, "name_np": "गगन थापा", "name_en": "Gagan Thapa", "vote": 1078 },
                { "party": 2, "name_np": "माधव कुमार नेपाल", "name_en": "Madhab Kumar Nepal", "vote": 17613 }
              ],
              "elected": {}
            },
            {
              "id": 1.2,
              "declared": false,
              "result": [
                { "party": 3, "name_np": "विश्वप्रकाश सुवेदी", "name_en": "Bishwa Prakash Subedi", "vote": 5408 },
                { "party": 2, "name_np": "बाबुरल भट्टराई", "name_en": "Baburam Bhattara", "vote": 8508 },
                { "party": 4, "name_np": "हिमिला यामी", "name_en": "Hisila Yami", "vote": 15068 },
                { "party": 1, "name_np": "शेरबहादुर देउवा", "name_en": "Sher Bahadur Deuba", "vote": 13145 }
              ],
              "elected": {}
            },
            {
              "id": 2.1,
              "declared": true,
              "result": [
                { "party": 4, "name_np": "रवि लामिछाने", "name_en": "Rabi Lamichhane", "vote": 28858 },
                { "party": 1, "name_np": "शेरबहादुर देउवा", "name_en": "Sher Bahadur Deuba", "vote": 23006 },
                { "party": 0, "name_np": "माधव कुमार नेपाल", "name_en": "Madhab Kumar Nepal", "vote": 9088 },
                { "party": 3, "name_np": "बाबुरल भट्टराई", "name_en": "Baburam Bhattara", "vote": 7038 }
              ],
              "elected": { "party": 4, "name_np": "रवि लामिछाने", "name_en": "Rabi Lamichhane", "vote": 28858 }
            },
            {
              "id": 2.2,
              "declared": false,
              "result": [
                { "party": 3, "name_np": "जलनाथ खनाल", "name_en": "Jhalanath Khanal", "vote": 17403 },
                { "party": 4, "name_np": "योगेश भट्टराई", "name_en": "Yogesh Bhattarai", "vote": 19505 },
                { "party": 2, "name_np": "रवि लामिछाने", "name_en": "Rabi Lamichhane", "vote": 5351 },
                { "party": 0, "name_np": "गगन थापा", "name_en": "Gagan Thapa", "vote": 27526 }
              ],
              "elected": {}
            }
          ]
        },
        {
          "id": "nawalparasieast",
          "regions": [
            {
              "id": 1.1,
              "declared": false,
              "result": [
                { "party": 3, "name_np": "जलनाथ खनाल", "name_en": "Jhalanath Khanal", "vote": 843 },
                { "party": 4, "name_np": "पुष्पकमल दाहाल", "name_en": "Pushpakamal Dahal", "vote": 9669 },
                { "party": 2, "name_np": "बाबुरल भट्टराई", "name_en": "Baburam Bhattara", "vote": 22290 },
                { "party": 0, "name_np": "राजेन्द्र लिङ्देन", "name_en": "Ranjendra Lingden", "vote": 23941 }
              ],
              "elected": {}
            },
            {
              "id": 1.2,
              "declared": false,
              "result": [
                { "party": 0, "name_np": "सागर ढकाल", "name_en": "Sagar Dhakal", "vote": 22124 },
                { "party": 3, "name_np": "माधव कुमार नेपाल", "name_en": "Madhab Kumar Nepal", "vote": 824 },
                { "party": 1, "name_np": "रवि लामिछाने", "name_en": "Rabi Lamichhane", "vote": 22886 },
                { "party": 2, "name_np": "केपी ओली", "name_en": "KP Oli", "vote": 22666 }
              ],
              "elected": {}
            },
            {
              "id": 2.1,
              "declared": true,
              "result": [
                { "party": 1, "name_np": "सागर ढकाल", "name_en": "Sagar Dhakal", "vote": 19620 },
                { "party": 4, "name_np": "हिमिला यामी", "name_en": "Hisila Yami", "vote": 16005 },
                { "party": 2, "name_np": "शेरबहादुर देउवा", "name_en": "Sher Bahadur Deuba", "vote": 7077 },
                { "party": 3, "name_np": "योगेश भट्टराई", "name_en": "Yogesh Bhattarai", "vote": 3838 }
              ],
              "elected": { "party": 1, "name_np": "सागर ढकाल", "name_en": "Sagar Dhakal", "vote": 19620 }
            },
            {
              "id": 2.2,
              "declared": false,
              "result": [
                { "party": 1, "name_np": "केपी ओली", "name_en": "KP Oli", "vote": 5946 },
                { "party": 0, "name_np": "बाबुरल भट्टराई", "name_en": "Baburam Bhattara", "vote": 16233 },
                { "party": 3, "name_np": "गगन थापा", "name_en": "Gagan Thapa", "vote": 8842 },
                { "party": 2, "name_np": "विश्वप्रकाश सुवेदी", "name_en": "Bishwa Prakash Subedi", "vote": 1441 }
              ],
              "elected": {}
            }
          ]
        }
      ]
    },
    {
      "id": 5,
      "districts": [
        {
          "id": "gulmi",
          "regions": [
            {
              "id": 1.1,
              "declared": false,
              "result": [
                { "party": 2, "name_np": "जलनाथ खनाल", "name_en": "Jhalanath Khanal", "vote": 16257 },
                { "party": 4, "name_np": "बाबुरल भट्टराई", "name_en": "Baburam Bhattara", "vote": 19474 },
                { "party": 0, "name_np": "पुष्पकमल दाहाल", "name_en": "Pushpakamal Dahal", "vote": 14876 },
                { "party": 1, "name_np": "सागर ढकाल", "name_en": "Sagar Dhakal", "vote": 29092 }
              ],
              "elected": {}
            },
            {
              "id": 1.2,
              "declared": false,
              "result": [
                { "party": 4, "name_np": "योगेश भट्टराई", "name_en": "Yogesh Bhattarai", "vote": 19794 },
                { "party": 3, "name_np": "विश्वप्रकाश सुवेदी", "name_en": "Bishwa Prakash Subedi", "vote": 1009 },
                { "party": 0, "name_np": "जलनाथ खनाल", "name_en": "Jhalanath Khanal", "vote": 13281 },
                { "party": 2, "name_np": "सागर ढकाल", "name_en": "Sagar Dhakal", "vote": 10285 }
              ],
              "elected": {}
            },
            {
              "id": 2.1,
              "declared": true,
              "result": [
                { "party": 3, "name_np": "विश्वप्रकाश सुवेदी", "name_en": "Bishwa Prakash Subedi", "vote": 27933 },
                { "party": 1, "name_np": "योगेश भट्टराई", "name_en": "Yogesh Bhattarai", "vote": 22359 },
                { "party": 0, "name_np": "गगन थापा", "name_en": "Gagan Thapa", "vote": 16474 },
                { "party": 4, "name_np": "सागर ढकाल", "name_en": "Sagar Dhakal", "vote": 2536 }
              ],
              "elected": { "party": 3, "name_np": "विश्वप्रकाश सुवेदी", "name_en": "Bishwa Prakash Subedi", "vote": 27933 }
            },
            {
              "id": 2.2,
              "declared": false,
              "result": [
                { "party": 0, "name_np": "राजेन्द्र लिङ्देन", "name_en": "Ranjendra Lingden", "vote": 20900 },
                { "party": 4, "name_np": "जलनाथ खनाल", "name_en": "Jhalanath Khanal", "vote": 17883 },
                { "party": 2, "name_np": "गगन थापा", "name_en": "Gagan Thapa", "vote": 23355 },
                { "party": 3, "name_np": "बाबुरल भट्टराई", "name_en": "Baburam Bhattara", "vote": 11865 }
              ],
              "elected": {}
            }
          ]
        },
        {
          "id": "palpa",
          "regions": [
            {
              "id": 1.1,
              "declared": false,
              "result": [
                { "party": 0, "name_np": "बाबुरल भट्टराई", "name_en": "Baburam Bhattara", "vote": 14040 },
                { "party": 2, "name_np": "केपी ओली", "name_en": "KP Oli", "vote": 29528 },
                { "party": 1, "name_np": "जलनाथ खनाल", "name_en": "Jhalanath Khanal", "vote": 645 },
                { "party": 3, "name_np": "रवि लामिछाने", "name_en": "Rabi Lamichhane", "vote": 11983 }
              ],
              "elected": {}
            },
            {
              "id": 1.2,
              "declared": false,
              "result": [
                { "party": 0, "name_np": "सागर ढकाल", "name_en": "Sagar Dhakal", "vote": 14019 },
                { "party": 1, "name_np": "माधव कुमार नेपाल", "name_en": "Madhab Kumar Nepal", "vote": 8643 },
                { "party": 2, "name_np": "विश्वप्रकाश सुवेदी", "name_en": "Bishwa Prakash Subedi", "vote": 15473 },
                { "party": 3, "name_np": "शेरबहादुर देउवा", "name_en": "Sher Bahadur Deuba", "vote": 19902 }
              ],
              "elected": {}
            },
            {
              "id": 2.1,
              "declared": true,
              "result": [
                { "party": 4, "name_np": "शेरबहादुर देउवा", "name_en": "Sher Bahadur Deuba", "vote": 29581 },
                { "party": 0, "name_np": "जलनाथ खनाल", "name_en": "Jhalanath Khanal", "vote": 26532 },
                { "party": 2, "name_np": "हिमिला यामी", "name_en": "Hisila Yami", "vote": 11536 },
                { "party": 3, "name_np": "गगन थापा", "name_en": "Gagan Thapa", "vote": 1604 }
              ],
              "elected": { "party": 4, "name_np": "शेरबहादुर देउवा", "name_en": "Sher Bahadur Deuba", "vote": 29581 }
            },
            {
              "id": 2.2,
              "declared": false,
              "result": [
                { "party": 2, "name_np": "शेरबहादुर देउवा", "name_en": "Sher Bahadur Deuba", "vote": 13011 },
                { "party": 4, "name_np": "सागर ढकाल", "name_en": "Sagar Dhakal", "vote": 21969 },
                { "party": 1, "name_np": "हिमिला यामी", "name_en": "Hisila Yami", "vote": 21823 },
                { "party": 0, "name_np": "गगन थापा", "name_en": "Gagan Thapa", "vote": 23651 }
              ],
              "elected": {}
            }
          ]
        },
        {
          "id": "rupandehi",
          "regions": [
            {
              "id": 1.1,
              "declared": false,
              "result": [
                { "party": 2, "name_np": "बाबुरल भट्टराई", "name_en": "Baburam Bhattara", "vote": 29389 },
                { "party": 4, "name_np": "जलनाथ खनाल", "name_en": "Jhalanath Khanal", "vote": 27522 },
                { "party": 3, "name_np": "राजेन्द्र लिङ्देन", "name_en": "Ranjendra Lingden", "vote": 6769 },
                { "party": 1, "name_np": "केपी ओली", "name_en": "KP Oli", "vote": 2920 }
              ],
              "elected": {}
            },
            {
              "id": 1.2,
              "declared": false,
              "result": [
                { "party": 3, "name_np": "बाबुरल भट्टराई", "name_en": "Baburam Bhattara", "vote": 21603 },
                { "party": 2, "name_np": "जलनाथ खनाल", "name_en": "Jhalanath Khanal", "vote": 29035 },
                { "party": 4, "name_np": "रवि लामिछाने", "name_en": "Rabi Lamichhane", "vote": 12553 },
                { "party": 0, "name_np": "शेरबहादुर देउवा", "name_en": "Sher Bahadur Deuba", "vote": 17216 }
              ],
              "elected": {}
            },
            {
              "id": 2.1,
              "declared": true,
              "result": [
                { "party": 2, "name_np": "पुष्पकमल दाहाल", "name_en": "Pushpakamal Dahal", "vote": 17740 },
                { "party": 3, "name_np": "विश्वप्रकाश सुवेदी", "name_en": "Bishwa Prakash Subedi", "vote": 10778 },
                { "party": 1, "name_np": "हिमिला यामी", "name_en": "Hisila Yami", "vote": 6446 },
                { "party": 0, "name_np": "जलनाथ खनाल", "name_en": "Jhalanath Khanal", "vote": 400 }
              ],
              "elected": { "party": 2, "name_np": "पुष्पकमल दाहाल", "name_en": "Pushpakamal Dahal", "vote": 17740 }
            },
            {
              "id": 2.2,
              "declared": false,
              "result": [
                { "party": 4, "name_np": "बाबुरल भट्टराई", "name_en": "Baburam Bhattara", "vote": 3302 },
                { "party": 2, "name_np": "माधव कुमार नेपाल", "name_en": "Madhab Kumar Nepal", "vote": 10024 },
                { "party": 3, "name_np": "योगेश भट्टराई", "name_en": "Yogesh Bhattarai", "vote": 29319 },
                { "party": 0, "name_np": "जलनाथ खनाल", "name_en": "Jhalanath Khanal", "vote": 7350 }
              ],
              "elected": {}
            },
            {
              "id": 3.1,
              "declared": false,
              "result": [
                { "party": 4, "name_np": "केपी ओली", "name_en": "KP Oli", "vote": 3837 },
                { "party": 0, "name_np": "जलनाथ खनाल", "name_en": "Jhalanath Khanal", "vote": 15084 },
                { "party": 3, "name_np": "माधव कुमार नेपाल", "name_en": "Madhab Kumar Nepal", "vote": 4009 },
                { "party": 2, "name_np": "विश्वप्रकाश सुवेदी", "name_en": "Bishwa Prakash Subedi", "vote": 4391 }
              ],
              "elected": {}
            },
            {
              "id": 3.2,
              "declared": false,
              "result": [
                { "party": 2, "name_np": "हिमिला यामी", "name_en": "Hisila Yami", "vote": 21693 },
                { "party": 0, "name_np": "राजेन्द्र लिङ्देन", "name_en": "Ranjendra Lingden", "vote": 12895 },
                { "party": 4, "name_np": "केपी ओली", "name_en": "KP Oli", "vote": 3205 },
                { "party": 3, "name_np": "शेरबहादुर देउवा", "name_en": "Sher Bahadur Deuba", "vote": 25955 }
              ],
              "elected": {}
            },
            {
              "id": 4.1,
              "declared": false,
              "result": [
                { "party": 0, "name_np": "रवि लामिछाने", "name_en": "Rabi Lamichhane", "vote": 19609 },
                { "party": 4, "name_np": "विश्वप्रकाश सुवेदी", "name_en": "Bishwa Prakash Subedi", "vote": 28786 },
                { "party": 1, "name_np": "राजेन्द्र लिङ्देन", "name_en": "Ranjendra Lingden", "vote": 6747 },
                { "party": 3, "name_np": "बाबुरल भट्टराई", "name_en": "Baburam Bhattara", "vote": 4626 }
              ],
              "elected": {}
            },
            {
              "id": 4.2,
              "declared": false,
              "result": [
                { "party": 4, "name_np": "केपी ओली", "name_en": "KP Oli", "vote": 2993 },
                { "party": 3, "name_np": "रवि लामिछाने", "name_en": "Rabi Lamichhane", "vote": 10445 },
                { "party": 2, "name_np": "हिमिला यामी", "name_en": "Hisila Yami", "vote": 2593 },
                { "party": 1, "name_np": "योगेश भट्टराई", "name_en": "Yogesh Bhattarai", "vote": 29933 }
              ],
              "elected": {}
            },
            {
              "id": 5.1,
              "declared": false,
              "result": [
                { "party": 2, "name_np": "शेरबहादुर देउवा", "name_en": "Sher Bahadur Deuba", "vote": 15099 },
                { "party": 4, "name_np": "सागर ढकाल", "name_en": "Sagar Dhakal", "vote": 7630 },
                { "party": 0, "name_np": "माधव कुमार नेपाल", "name_en": "Madhab Kumar Nepal", "vote": 14942 },
                { "party": 1, "name_np": "विश्वप्रकाश सुवेदी", "name_en": "Bishwa Prakash Subedi", "vote": 21029 }
              ],
              "elected": {}
            },
            {
              "id": 5.2,
              "declared": false,
              "result": [
                { "party": 3, "name_np": "राजेन्द्र लिङ्देन", "name_en": "Ranjendra Lingden", "vote": 17615 },
                { "party": 2, "name_np": "जलनाथ खनाल", "name_en": "Jhalanath Khanal", "vote": 16078 },
                { "party": 0, "name_np": "शेरबहादुर देउवा", "name_en": "Sher Bahadur Deuba", "vote": 14004 },
                { "party": 4, "name_np": "योगेश भट्टराई", "name_en": "Yogesh Bhattarai", "vote": 20195 }
              ],
              "elected": {}
            }
          ]
        },
        {
          "id": "arghakhanchi",
          "regions": [
            {
              "id": 1.1,
              "declared": false,
              "result": [
                { "party": 2, "name_np": "माधव कुमार नेपाल", "name_en": "Madhab Kumar Nepal", "vote": 21237 },
                { "party": 3, "name_np": "पुष्पकमल दाहाल", "name_en": "Pushpakamal Dahal", "vote": 20495 },
                { "party": 0, "name_np": "योगेश भट्टराई", "name_en": "Yogesh Bhattarai", "vote": 12 },
                { "party": 1, "name_np": "रवि लामिछाने", "name_en": "Rabi Lamichhane", "vote": 24474 }
              ],
              "elected": {}
            },
            {
              "id": 1.2,
              "declared": false,
              "result": [
                { "party": 2, "name_np": "जलनाथ खनाल", "name_en": "Jhalanath Khanal", "vote": 8701 },
                { "party": 3, "name_np": "माधव कुमार नेपाल", "name_en": "Madhab Kumar Nepal", "vote": 5906 },
                { "party": 4, "name_np": "गगन थापा", "name_en": "Gagan Thapa", "vote": 8488 },
                { "party": 1, "name_np": "सागर ढकाल", "name_en": "Sagar Dhakal", "vote": 7215 }
              ],
              "elected": {}
            }
          ]
        },
        {
          "id": "kapilvastu",
          "regions": [
            {
              "id": 1.1,
              "declared": false,
              "result": [
                { "party": 0, "name_np": "पुष्पकमल दाहाल", "name_en": "Pushpakamal Dahal", "vote": 22610 },
                { "party": 2, "name_np": "रवि लामिछाने", "name_en": "Rabi Lamichhane", "vote": 17296 },
                { "party": 4, "name_np": "विश्वप्रकाश सुवेदी", "name_en": "Bishwa Prakash Subedi", "vote": 2447 },
                { "party": 1, "name_np": "योगेश भट्टराई", "name_en": "Yogesh Bhattarai", "vote": 22430 }
              ],
              "elected": {}
            },
            {
              "id": 1.2,
              "declared": false,
              "result": [
                { "party": 0, "name_np": "जलनाथ खनाल", "name_en": "Jhalanath Khanal", "vote": 11984 },
                { "party": 4, "name_np": "राजेन्द्र लिङ्देन", "name_en": "Ranjendra Lingden", "vote": 28830 },
                { "party": 1, "name_np": "रवि लामिछाने", "name_en": "Rabi Lamichhane", "vote": 16504 },
                { "party": 2, "name_np": "विश्वप्रकाश सुवेदी", "name_en": "Bishwa Prakash Subedi", "vote": 13121 }
              ],
              "elected": {}
            },
            {
              "id": 2.1,
              "declared": true,
              "result": [
                { "party": 0, "name_np": "पुष्पकमल दाहाल", "name_en": "Pushpakamal Dahal", "vote": 26261 },
                { "party": 3, "name_np": "रवि लामिछाने", "name_en": "Rabi Lamichhane", "vote": 25491 },
                { "party": 1, "name_np": "सागर ढकाल", "name_en": "Sagar Dhakal", "vote": 18771 },
                { "party": 2, "name_np": "राजेन्द्र लिङ्देन", "name_en": "Ranjendra Lingden", "vote": 15400 }
              ],
              "elected": { "party": 0, "name_np": "पुष्पकमल दाहाल", "name_en": "Pushpakamal Dahal", "vote": 26261 }
            },
            {
              "id": 2.2,
              "declared": false,
              "result": [
                { "party": 1, "name_np": "पुष्पकमल दाहाल", "name_en": "Pushpakamal Dahal", "vote": 19898 },
                { "party": 4, "name_np": "योगेश भट्टराई", "name_en": "Yogesh Bhattarai", "vote": 19455 },
                { "party": 2, "name_np": "रवि लामिछाने", "name_en": "Rabi Lamichhane", "vote": 3000 },
                { "party": 0, "name_np": "जलनाथ खनाल", "name_en": "Jhalanath Khanal", "vote": 19300 }
              ],
              "elected": {}
            },
            {
              "id": 3.1,
              "declared": false,
              "result": [
                { "party": 4, "name_np": "बाबुरल भट्टराई", "name_en": "Baburam Bhattara", "vote": 27666 },
                { "party": 2, "name_np": "जलनाथ खनाल", "name_en": "Jhalanath Khanal", "vote": 9598 },
                { "party": 1, "name_np": "केपी ओली", "name_en": "KP Oli", "vote": 29745 },
                { "party": 0, "name_np": "योगेश भट्टराई", "name_en": "Yogesh Bhattarai", "vote": 21203 }
              ],
              "elected": {}
            },
            {
              "id": 3.2,
              "declared": false,
              "result": [
                { "party": 4, "name_np": "गगन थापा", "name_en": "Gagan Thapa", "vote": 28351 },
                { "party": 2, "name_np": "पुष्पकमल दाहाल", "name_en": "Pushpakamal Dahal", "vote": 27205 },
                { "party": 1, "name_np": "जलनाथ खनाल", "name_en": "Jhalanath Khanal", "vote": 10212 },
                { "party": 0, "name_np": "हिमिला यामी", "name_en": "Hisila Yami", "vote": 6394 }
              ],
              "elected": {}
            }
          ]
        },
        {
          "id": "pyuthan",
          "regions": [
            {
              "id": 1.1,
              "declared": false,
              "result": [
                { "party": 4, "name_np": "केपी ओली", "name_en": "KP Oli", "vote": 17721 },
                { "party": 3, "name_np": "विश्वप्रकाश सुवेदी", "name_en": "Bishwa Prakash Subedi", "vote": 2185 },
                { "party": 2, "name_np": "हिमिला यामी", "name_en": "Hisila Yami", "vote": 2957 },
                { "party": 1, "name_np": "शेरबहादुर देउवा", "name_en": "Sher Bahadur Deuba", "vote": 9388 }
              ],
              "elected": {}
            },
            {
              "id": 1.2,
              "declared": false,
              "result": [
                { "party": 1, "name_np": "बाबुरल भट्टराई", "name_en": "Baburam Bhattara", "vote": 23206 },
                { "party": 0, "name_np": "हिमिला यामी", "name_en": "Hisila Yami", "vote": 16931 },
                { "party": 4, "name_np": "रवि लामिछाने", "name_en": "Rabi Lamichhane", "vote": 1032 },
                { "party": 3, "name_np": "सागर ढकाल", "name_en": "Sagar Dhakal", "vote": 257 }
              ],
              "elected": {}
            }
          ]
        },
        {
          "id": "rolpa",
          "regions": [
            {
              "id": 1.1,
              "declared": false,
              "result": [
                { "party": 4, "name_np": "माधव कुमार नेपाल", "name_en": "Madhab Kumar Nepal", "vote": 25947 },
                { "party": 2, "name_np": "रवि लामिछाने", "name_en": "Rabi Lamichhane", "vote": 10385 },
                { "party": 1, "name_np": "जलनाथ खनाल", "name_en": "Jhalanath Khanal", "vote": 15537 },
                { "party": 0, "name_np": "योगेश भट्टराई", "name_en": "Yogesh Bhattarai", "vote": 1693 }
              ],
              "elected": {}
            },
            {
              "id": 1.2,
              "declared": false,
              "result": [
                { "party": 1, "name_np": "जलनाथ खनाल", "name_en": "Jhalanath Khanal", "vote": 7331 },
                { "party": 0, "name_np": "पुष्पकमल दाहाल", "name_en": "Pushpakamal Dahal", "vote": 18946 },
                { "party": 2, "name_np": "राजेन्द्र लिङ्देन", "name_en": "Ranjendra Lingden", "vote": 14070 },
                { "party": 3, "name_np": "विश्वप्रकाश सुवेदी", "name_en": "Bishwa Prakash Subedi", "vote": 13477 }
              ],
              "elected": {}
            }
          ]
        },
        {
          "id": "dang",
          "regions": [
            {
              "id": 1.1,
              "declared": false,
              "result": [
                { "party": 4, "name_np": "राजेन्द्र लिङ्देन", "name_en": "Ranjendra Lingden", "vote": 19373 },
                { "party": 1, "name_np": "केपी ओली", "name_en": "KP Oli", "vote": 29845 },
                { "party": 0, "name_np": "रवि लामिछाने", "name_en": "Rabi Lamichhane", "vote": 18498 },
                { "party": 3, "name_np": "योगेश भट्टराई", "name_en": "Yogesh Bhattarai", "vote": 27212 }
              ],
              "elected": {}
            },
            {
              "id": 1.2,
              "declared": false,
              "result": [
                { "party": 3, "name_np": "राजेन्द्र लिङ्देन", "name_en": "Ranjendra Lingden", "vote": 28133 },
                { "party": 4, "name_np": "बाबुरल भट्टराई", "name_en": "Baburam Bhattara", "vote": 26157 },
                { "party": 0, "name_np": "शेरबहादुर देउवा", "name_en": "Sher Bahadur Deuba", "vote": 1247 },
                { "party": 1, "name_np": "गगन थापा", "name_en": "Gagan Thapa", "vote": 25877 }
              ],
              "elected": {}
            },
            {
              "id": 2.1,
              "declared": true,
              "result": [
                { "party": 4, "name_np": "हिमिला यामी", "name_en": "Hisila Yami", "vote": 28135 },
                { "party": 3, "name_np": "जलनाथ खनाल", "name_en": "Jhalanath Khanal", "vote": 24877 },
                { "party": 1, "name_np": "पुष्पकमल दाहाल", "name_en": "Pushpakamal Dahal", "vote": 5430 },
                { "party": 2, "name_np": "शेरबहादुर देउवा", "name_en": "Sher Bahadur Deuba", "vote": 4812 }
              ],
              "elected": { "party": 4, "name_np": "हिमिला यामी", "name_en": "Hisila Yami", "vote": 28135 }
            },
            {
              "id": 2.2,
              "declared": false,
              "result": [
                { "party": 1, "name_np": "माधव कुमार नेपाल", "name_en": "Madhab Kumar Nepal", "vote": 26167 },
                { "party": 0, "name_np": "पुष्पकमल दाहाल", "name_en": "Pushpakamal Dahal", "vote": 26130 },
                { "party": 4, "name_np": "राजेन्द्र लिङ्देन", "name_en": "Ranjendra Lingden", "vote": 1974 },
                { "party": 3, "name_np": "केपी ओली", "name_en": "KP Oli", "vote": 5853 }
              ],
              "elected": {}
            },
            {
              "id": 3.1,
              "declared": false,
              "result": [
                { "party": 2, "name_np": "जलनाथ खनाल", "name_en": "Jhalanath Khanal", "vote": 3071 },
                { "party": 4, "name_np": "गगन थापा", "name_en": "Gagan Thapa", "vote": 17896 },
                { "party": 3, "name_np": "रवि लामिछाने", "name_en": "Rabi Lamichhane", "vote": 16570 },
                { "party": 0, "name_np": "पुष्पकमल दाहाल", "name_en": "Pushpakamal Dahal", "vote": 15227 }
              ],
              "elected": {}
            },
            {
              "id": 3.2,
              "declared": false,
              "result": [
                { "party": 3, "name_np": "माधव कुमार नेपाल", "name_en": "Madhab Kumar Nepal", "vote": 26994 },
                { "party": 2, "name_np": "हिमिला यामी", "name_en": "Hisila Yami", "vote": 20550 },
                { "party": 0, "name_np": "पुष्पकमल दाहाल", "name_en": "Pushpakamal Dahal", "vote": 3904 },
                { "party": 1, "name_np": "गगन थापा", "name_en": "Gagan Thapa", "vote": 18010 }
              ],
              "elected": {}
            }
          ]
        },
        {
          "id": "bardiya",
          "regions": [
            {
              "id": 1.1,
              "declared": false,
              "result": [
                { "party": 2, "name_np": "माधव कुमार नेपाल", "name_en": "Madhab Kumar Nepal", "vote": 20866 },
                { "party": 3, "name_np": "विश्वप्रकाश सुवेदी", "name_en": "Bishwa Prakash Subedi", "vote": 94 },
                { "party": 0, "name_np": "राजेन्द्र लिङ्देन", "name_en": "Ranjendra Lingden", "vote": 27203 },
                { "party": 1, "name_np": "जलनाथ खनाल", "name_en": "Jhalanath Khanal", "vote": 6937 }
              ],
              "elected": {}
            },
            {
              "id": 1.2,
              "declared": false,
              "result": [
                { "party": 2, "name_np": "योगेश भट्टराई", "name_en": "Yogesh Bhattarai", "vote": 23779 },
                { "party": 4, "name_np": "शेरबहादुर देउवा", "name_en": "Sher Bahadur Deuba", "vote": 16137 },
                { "party": 1, "name_np": "राजेन्द्र लिङ्देन", "name_en": "Ranjendra Lingden", "vote": 11275 },
                { "party": 0, "name_np": "रवि लामिछाने", "name_en": "Rabi Lamichhane", "vote": 11947 }
              ],
              "elected": {}
            },
            {
              "id": 2.1,
              "declared": true,
              "result": [
                { "party": 0, "name_np": "रवि लामिछाने", "name_en": "Rabi Lamichhane", "vote": 27604 },
                { "party": 4, "name_np": "जलनाथ खनाल", "name_en": "Jhalanath Khanal", "vote": 22695 },
                { "party": 3, "name_np": "सागर ढकाल", "name_en": "Sagar Dhakal", "vote": 20129 },
                { "party": 2, "name_np": "गगन थापा", "name_en": "Gagan Thapa", "vote": 4655 }
              ],
              "elected": { "party": 0, "name_np": "रवि लामिछाने", "name_en": "Rabi Lamichhane", "vote": 27604 }
            },
            {
              "id": 2.2,
              "declared": false,
              "result": [
                { "party": 4, "name_np": "माधव कुमार नेपाल", "name_en": "Madhab Kumar Nepal", "vote": 21111 },
                { "party": 3, "name_np": "शेरबहादुर देउवा", "name_en": "Sher Bahadur Deuba", "vote": 9144 },
                { "party": 2, "name_np": "रवि लामिछाने", "name_en": "Rabi Lamichhane", "vote": 7336 },
                { "party": 0, "name_np": "विश्वप्रकाश सुवेदी", "name_en": "Bishwa Prakash Subedi", "vote": 21860 }
              ],
              "elected": {}
            }
          ]
        },
        {
          "id": "banke",
          "regions": [
            {
              "id": 1.1,
              "declared": false,
              "result": [
                { "party": 4, "name_np": "विश्वप्रकाश सुवेदी", "name_en": "Bishwa Prakash Subedi", "vote": 9644 },
                { "party": 2, "name_np": "सागर ढकाल", "name_en": "Sagar Dhakal", "vote": 28113 },
                { "party": 1, "name_np": "रवि लामिछाने", "name_en": "Rabi Lamichhane", "vote": 1615 },
                { "party": 0, "name_np": "योगेश भट्टराई", "name_en": "Yogesh Bhattarai", "vote": 13602 }
              ],
              "elected": {}
            },
            {
              "id": 1.2,
              "declared": false,
              "result": [
                { "party": 1, "name_np": "राजेन्द्र लिङ्देन", "name_en": "Ranjendra Lingden", "vote": 17104 },
                { "party": 0, "name_np": "केपी ओली", "name_en": "KP Oli", "vote": 20747 },
                { "party": 3, "name_np": "विश्वप्रकाश सुवेदी", "name_en": "Bishwa Prakash Subedi", "vote": 25793 },
                { "party": 4, "name_np": "गगन थापा", "name_en": "Gagan Thapa", "vote": 9003 }
              ],
              "elected": {}
            },
            {
              "id": 2.1,
              "declared": true,
              "result": [
                { "party": 3, "name_np": "रवि लामिछाने", "name_en": "Rabi Lamichhane", "vote": 17073 },
                { "party": 0, "name_np": "बाबुरल भट्टराई", "name_en": "Baburam Bhattara", "vote": 11303 },
                { "party": 2, "name_np": "पुष्पकमल दाहाल", "name_en": "Pushpakamal Dahal", "vote": 6400 },
                { "party": 4, "name_np": "केपी ओली", "name_en": "KP Oli", "vote": 4330 }
              ],
              "elected": { "party": 3, "name_np": "रवि लामिछाने", "name_en": "Rabi Lamichhane", "vote": 17073 }
            },
            {
              "id": 2.2,
              "declared": false,
              "result": [
                { "party": 0, "name_np": "रवि लामिछाने", "name_en": "Rabi Lamichhane", "vote": 18148 },
                { "party": 1, "name_np": "केपी ओली", "name_en": "KP Oli", "vote": 28736 },
                { "party": 2, "name_np": "योगेश भट्टराई", "name_en": "Yogesh Bhattarai", "vote": 29333 },
                { "party": 4, "name_np": "जलनाथ खनाल", "name_en": "Jhalanath Khanal", "vote": 22824 }
              ],
              "elected": {}
            },
            {
              "id": 3.1,
              "declared": false,
              "result": [
                { "party": 2, "name_np": "शेरबहादुर देउवा", "name_en": "Sher Bahadur Deuba", "vote": 1617 },
                { "party": 4, "name_np": "जलनाथ खनाल", "name_en": "Jhalanath Khanal", "vote": 21588 },
                { "party": 1, "name_np": "पुष्पकमल दाहाल", "name_en": "Pushpakamal Dahal", "vote": 14899 },
                { "party": 0, "name_np": "योगेश भट्टराई", "name_en": "Yogesh Bhattarai", "vote": 12461 }
              ],
              "elected": {}
            },
            {
              "id": 3.2,
              "declared": false,
              "result": [
                { "party": 0, "name_np": "राजेन्द्र लिङ्देन", "name_en": "Ranjendra Lingden", "vote": 1594 },
                { "party": 3, "name_np": "जलनाथ खनाल", "name_en": "Jhalanath Khanal", "vote": 21215 },
                { "party": 4, "name_np": "सागर ढकाल", "name_en": "Sagar Dhakal", "vote": 20792 },
                { "party": 1, "name_np": "माधव कुमार नेपाल", "name_en": "Madhab Kumar Nepal", "vote": 4446 }
              ],
              "elected": {}
            }
          ]
        },
        {
          "id": "nawalparasiwest",
          "regions": [
            {
              "id": 1.1,
              "declared": false,
              "result": [
                { "party": 2, "name_np": "केपी ओली", "name_en": "KP Oli", "vote": 29591 },
                { "party": 1, "name_np": "शेरबहादुर देउवा", "name_en": "Sher Bahadur Deuba", "vote": 27673 },
                { "party": 4, "name_np": "विश्वप्रकाश सुवेदी", "name_en": "Bishwa Prakash Subedi", "vote": 4007 },
                { "party": 3, "name_np": "पुष्पकमल दाहाल", "name_en": "Pushpakamal Dahal", "vote": 5156 }
              ],
              "elected": {}
            },
            {
              "id": 1.2,
              "declared": false,
              "result": [
                { "party": 0, "name_np": "राजेन्द्र लिङ्देन", "name_en": "Ranjendra Lingden", "vote": 1756 },
                { "party": 4, "name_np": "शेरबहादुर देउवा", "name_en": "Sher Bahadur Deuba", "vote": 17788 },
                { "party": 2, "name_np": "केपी ओली", "name_en": "KP Oli", "vote": 16542 },
                { "party": 3, "name_np": "गगन थापा", "name_en": "Gagan Thapa", "vote": 21094 }
              ],
              "elected": {}
            },
            {
              "id": 2.1,
              "declared": true,
              "result": [
                { "party": 4, "name_np": "केपी ओली", "name_en": "KP Oli", "vote": 19445 },
                { "party": 0, "name_np": "माधव कुमार नेपाल", "name_en": "Madhab Kumar Nepal", "vote": 14041 },
                { "party": 1, "name_np": "पुष्पकमल दाहाल", "name_en": "Pushpakamal Dahal", "vote": 8744 },
                { "party": 3, "name_np": "विश्वप्रकाश सुवेदी", "name_en": "Bishwa Prakash Subedi", "vote": 7800 }
              ],
              "elected": { "party": 4, "name_np": "केपी ओली", "name_en": "KP Oli", "vote": 19445 }
            },
            {
              "id": 2.2,
              "declared": false,
              "result": [
                { "party": 2, "name_np": "राजेन्द्र लिङ्देन", "name_en": "Ranjendra Lingden", "vote": 1275 },
                { "party": 3, "name_np": "हिमिला यामी", "name_en": "Hisila Yami", "vote": 16289 },
                { "party": 1, "name_np": "पुष्पकमल दाहाल", "name_en": "Pushpakamal Dahal", "vote": 11595 },
                { "party": 0, "name_np": "बाबुरल भट्टराई", "name_en": "Baburam Bhattara", "vote": 19151 }
              ],
              "elected": {}
            }
          ]
        },
        {
          "id": "rukumeast",
          "regions": [
            {
              "id": 1.1,
              "declared": false,
              "result": [
                { "party": 2, "name_np": "विश्वप्रकाश सुवेदी", "name_en": "Bishwa Prakash Subedi", "vote": 21276 },
                { "party": 4, "name_np": "केपी ओली", "name_en": "KP Oli", "vote": 9965 },
                { "party": 3, "name_np": "बाबुरल भट्टराई", "name_en": "Baburam Bhattara", "vote": 6394 },
                { "party": 0, "name_np": "सागर ढकाल", "name_en": "Sagar Dhakal", "vote": 3828 }
              ],
              "elected": {}
            },
            {
              "id": 1.2,
              "declared": false,
              "result": [
                { "party": 0, "name_np": "बाबुरल भट्टराई", "name_en": "Baburam Bhattara", "vote": 7373 },
                { "party": 3, "name_np": "शेरबहादुर देउवा", "name_en": "Sher Bahadur Deuba", "vote": 23200 },
                { "party": 2, "name_np": "गगन थापा", "name_en": "Gagan Thapa", "vote": 17127 },
                { "party": 1, "name_np": "जलनाथ खनाल", "name_en": "Jhalanath Khanal", "vote": 26214 }
              ],
              "elected": {}
            }
          ]
        }
      ]
    },
    {
      "id": 6,
      "districts": [
        {
          "id": "rukumwest",
          "regions": [
            {
              "id": 1.1,
              "declared": false,
              "result": [
                { "party": 4, "name_np": "सागर ढकाल", "name_en": "Sagar Dhakal", "vote": 5696 },
                { "party": 2, "name_np": "योगेश भट्टराई", "name_en": "Yogesh Bhattarai", "vote": 9280 },
                { "party": 3, "name_np": "गगन थापा", "name_en": "Gagan Thapa", "vote": 10662 },
                { "party": 1, "name_np": "बाबुरल भट्टराई", "name_en": "Baburam Bhattara", "vote": 12003 }
              ],
              "elected": {}
            },
            {
              "id": 1.2,
              "declared": false,
              "result": [
                { "party": 0, "name_np": "विश्वप्रकाश सुवेदी", "name_en": "Bishwa Prakash Subedi", "vote": 26967 },
                { "party": 2, "name_np": "रवि लामिछाने", "name_en": "Rabi Lamichhane", "vote": 9715 },
                { "party": 3, "name_np": "सागर ढकाल", "name_en": "Sagar Dhakal", "vote": 555 },
                { "party": 1, "name_np": "बाबुरल भट्टराई", "name_en": "Baburam Bhattara", "vote": 27751 }
              ],
              "elected": {}
            }
          ]
        },
        {
          "id": "salyan",
          "regions": [
            {
              "id": 1.1,
              "declared": false,
              "result": [
                { "party": 2, "name_np": "पुष्पकमल दाहाल", "name_en": "Pushpakamal Dahal", "vote": 19901 },
                { "party": 0, "name_np": "माधव कुमार नेपाल", "name_en": "Madhab Kumar Nepal", "vote": 5103 },
                { "party": 3, "name_np": "सागर ढकाल", "name_en": "Sagar Dhakal", "vote": 607 },
                { "party": 1, "name_np": "हिमिला यामी", "name_en": "Hisila Yami", "vote": 3139 }
              ],
              "elected": {}
            },
            {
              "id": 1.2,
              "declared": false,
              "result": [
                { "party": 3, "name_np": "विश्वप्रकाश सुवेदी", "name_en": "Bishwa Prakash Subedi", "vote": 20909 },
                { "party": 4, "name_np": "हिमिला यामी", "name_en": "Hisila Yami", "vote": 24654 },
                { "party": 1, "name_np": "जलनाथ खनाल", "name_en": "Jhalanath Khanal", "vote": 16822 },
                { "party": 0, "name_np": "माधव कुमार नेपाल", "name_en": "Madhab Kumar Nepal", "vote": 27144 }
              ],
              "elected": {}
            }
          ]
        },
        {
          "id": "surkhet",
          "regions": [
            {
              "id": 1.1,
              "declared": false,
              "result": [
                { "party": 1, "name_np": "योगेश भट्टराई", "name_en": "Yogesh Bhattarai", "vote": 20133 },
                { "party": 4, "name_np": "सागर ढकाल", "name_en": "Sagar Dhakal", "vote": 23587 },
                { "party": 0, "name_np": "शेरबहादुर देउवा", "name_en": "Sher Bahadur Deuba", "vote": 23354 },
                { "party": 3, "name_np": "गगन थापा", "name_en": "Gagan Thapa", "vote": 21821 }
              ],
              "elected": {}
            },
            {
              "id": 1.2,
              "declared": false,
              "result": [
                { "party": 3, "name_np": "गगन थापा", "name_en": "Gagan Thapa", "vote": 1659 },
                { "party": 4, "name_np": "शेरबहादुर देउवा", "name_en": "Sher Bahadur Deuba", "vote": 21167 },
                { "party": 2, "name_np": "सागर ढकाल", "name_en": "Sagar Dhakal", "vote": 22408 },
                { "party": 0, "name_np": "केपी ओली", "name_en": "KP Oli", "vote": 4824 }
              ],
              "elected": {}
            },
            {
              "id": 2.1,
              "declared": true,
              "result": [
                { "party": 1, "name_np": "रवि लामिछाने", "name_en": "Rabi Lamichhane", "vote": 22876 },
                { "party": 0, "name_np": "पुष्पकमल दाहाल", "name_en": "Pushpakamal Dahal", "vote": 19738 },
                { "party": 4, "name_np": "योगेश भट्टराई", "name_en": "Yogesh Bhattarai", "vote": 3385 },
                { "party": 2, "name_np": "गगन थापा", "name_en": "Gagan Thapa", "vote": 1062 }
              ],
              "elected": { "party": 1, "name_np": "रवि लामिछाने", "name_en": "Rabi Lamichhane", "vote": 22876 }
            },
            {
              "id": 2.2,
              "declared": false,
              "result": [
                { "party": 0, "name_np": "राजेन्द्र लिङ्देन", "name_en": "Ranjendra Lingden", "vote": 25778 },
                { "party": 3, "name_np": "योगेश भट्टराई", "name_en": "Yogesh Bhattarai", "vote": 18235 },
                { "party": 4, "name_np": "विश्वप्रकाश सुवेदी", "name_en": "Bishwa Prakash Subedi", "vote": 9409 },
                { "party": 2, "name_np": "माधव कुमार नेपाल", "name_en": "Madhab Kumar Nepal", "vote": 4144 }
              ],
              "elected": {}
            }
          ]
        },
        {
          "id": "dailekh",
          "regions": [
            {
              "id": 1.1,
              "declared": false,
              "result": [
                { "party": 1, "name_np": "राजेन्द्र लिङ्देन", "name_en": "Ranjendra Lingden", "vote": 13672 },
                { "party": 3, "name_np": "विश्वप्रकाश सुवेदी", "name_en": "Bishwa Prakash Subedi", "vote": 16285 },
                { "party": 0, "name_np": "गगन थापा", "name_en": "Gagan Thapa", "vote": 1152 },
                { "party": 2, "name_np": "हिमिला यामी", "name_en": "Hisila Yami", "vote": 27185 }
              ],
              "elected": {}
            },
            {
              "id": 1.2,
              "declared": false,
              "result": [
                { "party": 1, "name_np": "शेरबहादुर देउवा", "name_en": "Sher Bahadur Deuba", "vote": 12554 },
                { "party": 4, "name_np": "केपी ओली", "name_en": "KP Oli", "vote": 14852 },
                { "party": 3, "name_np": "जलनाथ खनाल", "name_en": "Jhalanath Khanal", "vote": 7655 },
                { "party": 0, "name_np": "विश्वप्रकाश सुवेदी", "name_en": "Bishwa Prakash Subedi", "vote": 9305 }
              ],
              "elected": {}
            },
            {
              "id": 2.1,
              "declared": true,
              "result": [
                { "party": 2, "name_np": "जलनाथ खनाल", "name_en": "Jhalanath Khanal", "vote": 25642 },
                { "party": 0, "name_np": "हिमिला यामी", "name_en": "Hisila Yami", "vote": 24586 },
                { "party": 3, "name_np": "विश्वप्रकाश सुवेदी", "name_en": "Bishwa Prakash Subedi", "vote": 19280 },
                { "party": 1, "name_np": "माधव कुमार नेपाल", "name_en": "Madhab Kumar Nepal", "vote": 14865 }
              ],
              "elected": { "party": 2, "name_np": "जलनाथ खनाल", "name_en": "Jhalanath Khanal", "vote": 25642 }
            },
            {
              "id": 2.2,
              "declared": false,
              "result": [
                { "party": 4, "name_np": "हिमिला यामी", "name_en": "Hisila Yami", "vote": 4982 },
                { "party": 2, "name_np": "विश्वप्रकाश सुवेदी", "name_en": "Bishwa Prakash Subedi", "vote": 9090 },
                { "party": 1, "name_np": "राजेन्द्र लिङ्देन", "name_en": "Ranjendra Lingden", "vote": 20990 },
                { "party": 0, "name_np": "रवि लामिछाने", "name_en": "Rabi Lamichhane", "vote": 17821 }
              ],
              "elected": {}
            }
          ]
        },
        {
          "id": "jajarkot",
          "regions": [
            {
              "id": 1.1,
              "declared": false,
              "result": [
                { "party": 2, "name_np": "गगन थापा", "name_en": "Gagan Thapa", "vote": 27093 },
                { "party": 3, "name_np": "शेरबहादुर देउवा", "name_en": "Sher Bahadur Deuba", "vote": 25106 },
                { "party": 4, "name_np": "राजेन्द्र लिङ्देन", "name_en": "Ranjendra Lingden", "vote": 10835 },
                { "party": 1, "name_np": "केपी ओली", "name_en": "KP Oli", "vote": 8097 }
              ],
              "elected": {}
            },
            {
              "id": 1.2,
              "declared": false,
              "result": [
                { "party": 1, "name_np": "राजेन्द्र लिङ्देन", "name_en": "Ranjendra Lingden", "vote": 9671 },
                { "party": 4, "name_np": "रवि लामिछाने", "name_en": "Rabi Lamichhane", "vote": 21607 },
                { "party": 0, "name_np": "शेरबहादुर देउवा", "name_en": "Sher Bahadur Deuba", "vote": 29747 },
                { "party": 3, "name_np": "माधव कुमार नेपाल", "name_en": "Madhab Kumar Nepal", "vote": 27641 }
              ],
              "elected": {}
            }
          ]
        },
        {
          "id": "dolpa",
          "regions": [
            {
              "id": 1.1,
              "declared": false,
              "result": [
                { "party": 3, "name_np": "बाबुरल भट्टराई", "name_en": "Baburam Bhattara", "vote": 27496 },
                { "party": 4, "name_np": "जलनाथ खनाल", "name_en": "Jhalanath Khanal", "vote": 5930 },
                { "party": 2, "name_np": "योगेश भट्टराई", "name_en": "Yogesh Bhattarai", "vote": 17059 },
                { "party": 1, "name_np": "केपी ओली", "name_en": "KP Oli", "vote": 14444 }
              ],
              "elected": {}
            },
            {
              "id": 1.2,
              "declared": false,
              "result": [
                { "party": 1, "name_np": "केपी ओली", "name_en": "KP Oli", "vote": 4593 },
                { "party": 0, "name_np": "रवि लामिछाने", "name_en": "Rabi Lamichhane", "vote": 17528 },
                { "party": 2, "name_np": "पुष्पकमल दाहाल", "name_en": "Pushpakamal Dahal", "vote": 21748 },
                { "party": 4, "name_np": "जलनाथ खनाल", "name_en": "Jhalanath Khanal", "vote": 23175 }
              ],
              "elected": {}
            }
          ]
        },
        {
          "id": "humla",
          "regions": [
            {
              "id": 1.1,
              "declared": false,
              "result": [
                { "party": 1, "name_np": "सागर ढकाल", "name_en": "Sagar Dhakal", "vote": 19841 },
                { "party": 3, "name_np": "पुष्पकमल दाहाल", "name_en": "Pushpakamal Dahal", "vote": 27903 },
                { "party": 4, "name_np": "रवि लामिछाने", "name_en": "Rabi Lamichhane", "vote": 18600 },
                { "party": 0, "name_np": "माधव कुमार नेपाल", "name_en": "Madhab Kumar Nepal", "vote": 5788 }
              ],
              "elected": {}
            },
            {
              "id": 1.2,
              "declared": false,
              "result": [
                { "party": 1, "name_np": "गगन थापा", "name_en": "Gagan Thapa", "vote": 4011 },
                { "party": 3, "name_np": "जलनाथ खनाल", "name_en": "Jhalanath Khanal", "vote": 19961 },
                { "party": 4, "name_np": "रवि लामिछाने", "name_en": "Rabi Lamichhane", "vote": 17461 },
                { "party": 0, "name_np": "केपी ओली", "name_en": "KP Oli", "vote": 12978 }
              ],
              "elected": {}
            }
          ]
        },
        {
          "id": "kalikot",
          "regions": [
            {
              "id": 1.1,
              "declared": false,
              "result": [
                { "party": 0, "name_np": "योगेश भट्टराई", "name_en": "Yogesh Bhattarai", "vote": 14857 },
                { "party": 2, "name_np": "सागर ढकाल", "name_en": "Sagar Dhakal", "vote": 19157 },
                { "party": 1, "name_np": "विश्वप्रकाश सुवेदी", "name_en": "Bishwa Prakash Subedi", "vote": 19915 },
                { "party": 3, "name_np": "गगन थापा", "name_en": "Gagan Thapa", "vote": 21987 }
              ],
              "elected": {}
            },
            {
              "id": 1.2,
              "declared": false,
              "result": [
                { "party": 0, "name_np": "सागर ढकाल", "name_en": "Sagar Dhakal", "vote": 17695 },
                { "party": 4, "name_np": "गगन थापा", "name_en": "Gagan Thapa", "vote": 26270 },
                { "party": 1, "name_np": "माधव कुमार नेपाल", "name_en": "Madhab Kumar Nepal", "vote": 13286 },
                { "party": 2, "name_np": "योगेश भट्टराई", "name_en": "Yogesh Bhattarai", "vote": 13633 }
              ],
              "elected": {}
            }
          ]
        },
        {
          "id": "mugu",
          "regions": [
            {
              "id": 1.1,
              "declared": false,
              "result": [
                { "party": 2, "name_np": "बाबुरल भट्टराई", "name_en": "Baburam Bhattara", "vote": 23172 },
                { "party": 3, "name_np": "रवि लामिछाने", "name_en": "Rabi Lamichhane", "vote": 28114 },
                { "party": 4, "name_np": "माधव कुमार नेपाल", "name_en": "Madhab Kumar Nepal", "vote": 26393 },
                { "party": 0, "name_np": "गगन थापा", "name_en": "Gagan Thapa", "vote": 25963 }
              ],
              "elected": {}
            },
            {
              "id": 1.2,
              "declared": false,
              "result": [
                { "party": 3, "name_np": "माधव कुमार नेपाल", "name_en": "Madhab Kumar Nepal", "vote": 19591 },
                { "party": 2, "name_np": "शेरबहादुर देउवा", "name_en": "Sher Bahadur Deuba", "vote": 11053 },
                { "party": 0, "name_np": "हिमिला यामी", "name_en": "Hisila Yami", "vote": 24509 },
                { "party": 1, "name_np": "रवि लामिछाने", "name_en": "Rabi Lamichhane", "vote": 1870 }
              ],
              "elected": {}
            }
          ]
        },
        {
          "id": "jumla",
          "regions": [
            {
              "id": 1.1,
              "declared": false,
              "result": [
                { "party": 2, "name_np": "बाबुरल भट्टराई", "name_en": "Baburam Bhattara", "vote": 19434 },
                { "party": 0, "name_np": "केपी ओली", "name_en": "KP Oli", "vote": 17147 },
                { "party": 3, "name_np": "रवि लामिछाने", "name_en": "Rabi Lamichhane", "vote": 13869 },
                { "party": 1, "name_np": "योगेश भट्टराई", "name_en": "Yogesh Bhattarai", "vote": 20032 }
              ],
              "elected": {}
            },
            {
              "id": 1.2,
              "declared": false,
              "result": [
                { "party": 2, "name_np": "विश्वप्रकाश सुवेदी", "name_en": "Bishwa Prakash Subedi", "vote": 2472 },
                { "party": 1, "name_np": "माधव कुमार नेपाल", "name_en": "Madhab Kumar Nepal", "vote": 3562 },
                { "party": 4, "name_np": "हिमिला यामी", "name_en": "Hisila Yami", "vote": 16872 },
                { "party": 0, "name_np": "सागर ढकाल", "name_en": "Sagar Dhakal", "vote": 28248 }
              ],
              "elected": {}
            }
          ]
        }
      ]
    },
    {
      "id": 7,
      "districts": [
        {
          "id": "bajura",
          "regions": [
            {
              "id": 1.1,
              "declared": false,
              "result": [
                { "party": 0, "name_np": "माधव कुमार नेपाल", "name_en": "Madhab Kumar Nepal", "vote": 10044 },
                { "party": 4, "name_np": "हिमिला यामी", "name_en": "Hisila Yami", "vote": 26737 },
                { "party": 2, "name_np": "जलनाथ खनाल", "name_en": "Jhalanath Khanal", "vote": 3947 },
                { "party": 1, "name_np": "राजेन्द्र लिङ्देन", "name_en": "Ranjendra Lingden", "vote": 21155 }
              ],
              "elected": {}
            },
            {
              "id": 1.2,
              "declared": false,
              "result": [
                { "party": 4, "name_np": "रवि लामिछाने", "name_en": "Rabi Lamichhane", "vote": 4034 },
                { "party": 0, "name_np": "पुष्पकमल दाहाल", "name_en": "Pushpakamal Dahal", "vote": 27887 },
                { "party": 3, "name_np": "जलनाथ खनाल", "name_en": "Jhalanath Khanal", "vote": 22269 },
                { "party": 2, "name_np": "बाबुरल भट्टराई", "name_en": "Baburam Bhattara", "vote": 25755 }
              ],
              "elected": {}
            }
          ]
        },
        {
          "id": "bajhang",
          "regions": [
            {
              "id": 1.1,
              "declared": false,
              "result": [
                { "party": 0, "name_np": "जलनाथ खनाल", "name_en": "Jhalanath Khanal", "vote": 3175 },
                { "party": 2, "name_np": "योगेश भट्टराई", "name_en": "Yogesh Bhattarai", "vote": 2972 },
                { "party": 3, "name_np": "बाबुरल भट्टराई", "name_en": "Baburam Bhattara", "vote": 3433 },
                { "party": 4, "name_np": "गगन थापा", "name_en": "Gagan Thapa", "vote": 14652 }
              ],
              "elected": {}
            },
            {
              "id": 1.2,
              "declared": false,
              "result": [
                { "party": 3, "name_np": "रवि लामिछाने", "name_en": "Rabi Lamichhane", "vote": 26168 },
                { "party": 0, "name_np": "पुष्पकमल दाहाल", "name_en": "Pushpakamal Dahal", "vote": 27402 },
                { "party": 4, "name_np": "जलनाथ खनाल", "name_en": "Jhalanath Khanal", "vote": 11427 },
                { "party": 1, "name_np": "केपी ओली", "name_en": "KP Oli", "vote": 9616 }
              ],
              "elected": {}
            }
          ]
        },
        {
          "id": "achham",
          "regions": [
            {
              "id": 1.1,
              "declared": false,
              "result": [
                { "party": 2, "name_np": "सागर ढकाल", "name_en": "Sagar Dhakal", "vote": 4122 },
                { "party": 0, "name_np": "विश्वप्रकाश सुवेदी", "name_en": "Bishwa Prakash Subedi", "vote": 15237 },
                { "party": 3, "name_np": "माधव कुमार नेपाल", "name_en": "Madhab Kumar Nepal", "vote": 10025 },
                { "party": 4, "name_np": "हिमिला यामी", "name_en": "Hisila Yami", "vote": 26710 }
              ],
              "elected": {}
            },
            {
              "id": 1.2,
              "declared": false,
              "result": [
                { "party": 2, "name_np": "सागर ढकाल", "name_en": "Sagar Dhakal", "vote": 6901 },
                { "party": 3, "name_np": "माधव कुमार नेपाल", "name_en": "Madhab Kumar Nepal", "vote": 5353 },
                { "party": 4, "name_np": "पुष्पकमल दाहाल", "name_en": "Pushpakamal Dahal", "vote": 9670 },
                { "party": 1, "name_np": "शेरबहादुर देउवा", "name_en": "Sher Bahadur Deuba", "vote": 10825 }
              ],
              "elected": {}
            },
            {
              "id": 2.1,
              "declared": true,
              "result": [
                { "party": 4, "name_np": "राजेन्द्र लिङ्देन", "name_en": "Ranjendra Lingden", "vote": 11876 },
                { "party": 1, "name_np": "सागर ढकाल", "name_en": "Sagar Dhakal", "vote": 8902 },
                { "party": 2, "name_np": "योगेश भट्टराई", "name_en": "Yogesh Bhattarai", "vote": 7011 },
                { "party": 0, "name_np": "पुष्पकमल दाहाल", "name_en": "Pushpakamal Dahal", "vote": 1179 }
              ],
              "elected": { "party": 4, "name_np": "राजेन्द्र लिङ्देन", "name_en": "Ranjendra Lingden", "vote": 11876 }
            },
            {
              "id": 2.2,
              "declared": false,
              "result": [
                { "party": 2, "name_np": "केपी ओली", "name_en": "KP Oli", "vote": 12322 },
                { "party": 3, "name_np": "माधव कुमार नेपाल", "name_en": "Madhab Kumar Nepal", "vote": 27117 },
                { "party": 0, "name_np": "योगेश भट्टराई", "name_en": "Yogesh Bhattarai", "vote": 2098 },
                { "party": 1, "name_np": "जलनाथ खनाल", "name_en": "Jhalanath Khanal", "vote": 13836 }
              ],
              "elected": {}
            }
          ]
        },
        {
          "id": "doti",
          "regions": [
            {
              "id": 1.1,
              "declared": false,
              "result": [
                { "party": 2, "name_np": "सागर ढकाल", "name_en": "Sagar Dhakal", "vote": 15064 },
                { "party": 1, "name_np": "जलनाथ खनाल", "name_en": "Jhalanath Khanal", "vote": 1529 },
                { "party": 4, "name_np": "शेरबहादुर देउवा", "name_en": "Sher Bahadur Deuba", "vote": 17385 },
                { "party": 3, "name_np": "राजेन्द्र लिङ्देन", "name_en": "Ranjendra Lingden", "vote": 6762 }
              ],
              "elected": {}
            },
            {
              "id": 1.2,
              "declared": false,
              "result": [
                { "party": 0, "name_np": "पुष्पकमल दाहाल", "name_en": "Pushpakamal Dahal", "vote": 1837 },
                { "party": 1, "name_np": "केपी ओली", "name_en": "KP Oli", "vote": 6059 },
                { "party": 3, "name_np": "माधव कुमार नेपाल", "name_en": "Madhab Kumar Nepal", "vote": 26280 },
                { "party": 4, "name_np": "जलनाथ खनाल", "name_en": "Jhalanath Khanal", "vote": 20671 }
              ],
              "elected": {}
            }
          ]
        },
        {
          "id": "kailali",
          "regions": [
            {
              "id": 1.1,
              "declared": false,
              "result": [
                { "party": 2, "name_np": "राजेन्द्र लिङ्देन", "name_en": "Ranjendra Lingden", "vote": 27481 },
                { "party": 3, "name_np": "पुष्पकमल दाहाल", "name_en": "Pushpakamal Dahal", "vote": 8766 },
                { "party": 1, "name_np": "रवि लामिछाने", "name_en": "Rabi Lamichhane", "vote": 29964 },
                { "party": 4, "name_np": "केपी ओली", "name_en": "KP Oli", "vote": 3366 }
              ],
              "elected": {}
            },
            {
              "id": 1.2,
              "declared": false,
              "result": [
                { "party": 4, "name_np": "माधव कुमार नेपाल", "name_en": "Madhab Kumar Nepal", "vote": 3595 },
                { "party": 0, "name_np": "गगन थापा", "name_en": "Gagan Thapa", "vote": 5806 },
                { "party": 1, "name_np": "योगेश भट्टराई", "name_en": "Yogesh Bhattarai", "vote": 22180 },
                { "party": 2, "name_np": "हिमिला यामी", "name_en": "Hisila Yami", "vote": 25379 }
              ],
              "elected": {}
            },
            {
              "id": 2.1,
              "declared": true,
              "result": [
                { "party": 0, "name_np": "विश्वप्रकाश सुवेदी", "name_en": "Bishwa Prakash Subedi", "vote": 23335 },
                { "party": 1, "name_np": "शेरबहादुर देउवा", "name_en": "Sher Bahadur Deuba", "vote": 17235 },
                { "party": 4, "name_np": "केपी ओली", "name_en": "KP Oli", "vote": 10413 },
                { "party": 3, "name_np": "रवि लामिछाने", "name_en": "Rabi Lamichhane", "vote": 22 }
              ],
              "elected": { "party": 0, "name_np": "विश्वप्रकाश सुवेदी", "name_en": "Bishwa Prakash Subedi", "vote": 23335 }
            },
            {
              "id": 2.2,
              "declared": false,
              "result": [
                { "party": 4, "name_np": "केपी ओली", "name_en": "KP Oli", "vote": 25376 },
                { "party": 0, "name_np": "रवि लामिछाने", "name_en": "Rabi Lamichhane", "vote": 18643 },
                { "party": 1, "name_np": "बाबुरल भट्टराई", "name_en": "Baburam Bhattara", "vote": 13601 },
                { "party": 2, "name_np": "राजेन्द्र लिङ्देन", "name_en": "Ranjendra Lingden", "vote": 20364 }
              ],
              "elected": {}
            },
            {
              "id": 3.1,
              "declared": false,
              "result": [
                { "party": 3, "name_np": "गगन थापा", "name_en": "Gagan Thapa", "vote": 382 },
                { "party": 2, "name_np": "पुष्पकमल दाहाल", "name_en": "Pushpakamal Dahal", "vote": 9747 },
                { "party": 0, "name_np": "केपी ओली", "name_en": "KP Oli", "vote": 27324 },
                { "party": 4, "name_np": "योगेश भट्टराई", "name_en": "Yogesh Bhattarai", "vote": 29234 }
              ],
              "elected": {}
            },
            {
              "id": 3.2,
              "declared": false,
              "result": [
                { "party": 3, "name_np": "सागर ढकाल", "name_en": "Sagar Dhakal", "vote": 12254 },
                { "party": 4, "name_np": "पुष्पकमल दाहाल", "name_en": "Pushpakamal Dahal", "vote": 29521 },
                { "party": 2, "name_np": "राजेन्द्र लिङ्देन", "name_en": "Ranjendra Lingden", "vote": 7918 },
                { "party": 1, "name_np": "केपी ओली", "name_en": "KP Oli", "vote": 21013 }
              ],
              "elected": {}
            },
            {
              "id": 4.1,
              "declared": false,
              "result": [
                { "party": 2, "name_np": "गगन थापा", "name_en": "Gagan Thapa", "vote": 2531 },
                { "party": 4, "name_np": "माधव कुमार नेपाल", "name_en": "Madhab Kumar Nepal", "vote": 18396 },
                { "party": 1, "name_np": "जलनाथ खनाल", "name_en": "Jhalanath Khanal", "vote": 1283 },
                { "party": 3, "name_np": "राजेन्द्र लिङ्देन", "name_en": "Ranjendra Lingden", "vote": 5828 }
              ],
              "elected": {}
            },
            {
              "id": 4.2,
              "declared": false,
              "result": [
                { "party": 1, "name_np": "सागर ढकाल", "name_en": "Sagar Dhakal", "vote": 24929 },
                { "party": 2, "name_np": "हिमिला यामी", "name_en": "Hisila Yami", "vote": 19883 },
                { "party": 4, "name_np": "केपी ओली", "name_en": "KP Oli", "vote": 11560 },
                { "party": 3, "name_np": "योगेश भट्टराई", "name_en": "Yogesh Bhattarai", "vote": 2970 }
              ],
              "elected": {}
            },
            {
              "id": 5.1,
              "declared": false,
              "result": [
                { "party": 4, "name_np": "शेरबहादुर देउवा", "name_en": "Sher Bahadur Deuba", "vote": 3036 },
                { "party": 1, "name_np": "गगन थापा", "name_en": "Gagan Thapa", "vote": 19125 },
                { "party": 2, "name_np": "रवि लामिछाने", "name_en": "Rabi Lamichhane", "vote": 23630 },
                { "party": 3, "name_np": "हिमिला यामी", "name_en": "Hisila Yami", "vote": 11511 }
              ],
              "elected": {}
            },
            {
              "id": 5.2,
              "declared": false,
              "result": [
                { "party": 0, "name_np": "गगन थापा", "name_en": "Gagan Thapa", "vote": 7341 },
                { "party": 1, "name_np": "योगेश भट्टराई", "name_en": "Yogesh Bhattarai", "vote": 6939 },
                { "party": 2, "name_np": "सागर ढकाल", "name_en": "Sagar Dhakal", "vote": 1044 },
                { "party": 3, "name_np": "हिमिला यामी", "name_en": "Hisila Yami", "vote": 26598 }
              ],
              "elected": {}
            }
          ]
        },
        {
          "id": "kanchanpur",
          "regions": [
            {
              "id": 1.1,
              "declared": false,
              "result": [
                { "party": 3, "name_np": "राजेन्द्र लिङ्देन", "name_en": "Ranjendra Lingden", "vote": 3357 },
                { "party": 4, "name_np": "शेरबहादुर देउवा", "name_en": "Sher Bahadur Deuba", "vote": 6892 },
                { "party": 2, "name_np": "केपी ओली", "name_en": "KP Oli", "vote": 2837 },
                { "party": 1, "name_np": "सागर ढकाल", "name_en": "Sagar Dhakal", "vote": 28768 }
              ],
              "elected": {}
            },
            {
              "id": 1.2,
              "declared": false,
              "result": [
                { "party": 3, "name_np": "केपी ओली", "name_en": "KP Oli", "vote": 24081 },
                { "party": 2, "name_np": "गगन थापा", "name_en": "Gagan Thapa", "vote": 20256 },
                { "party": 4, "name_np": "राजेन्द्र लिङ्देन", "name_en": "Ranjendra Lingden", "vote": 23320 },
                { "party": 1, "name_np": "रवि लामिछाने", "name_en": "Rabi Lamichhane", "vote": 21922 }
              ],
              "elected": {}
            },
            {
              "id": 2.1,
              "declared": true,
              "result": [
                { "party": 2, "name_np": "विश्वप्रकाश सुवेदी", "name_en": "Bishwa Prakash Subedi", "vote": 29323 },
                { "party": 0, "name_np": "माधव कुमार नेपाल", "name_en": "Madhab Kumar Nepal", "vote": 21316 },
                { "party": 3, "name_np": "बाबुरल भट्टराई", "name_en": "Baburam Bhattara", "vote": 12573 },
                { "party": 4, "name_np": "पुष्पकमल दाहाल", "name_en": "Pushpakamal Dahal", "vote": 5117 }
              ],
              "elected": { "party": 2, "name_np": "विश्वप्रकाश सुवेदी", "name_en": "Bishwa Prakash Subedi", "vote": 29323 }
            },
            {
              "id": 2.2,
              "declared": false,
              "result": [
                { "party": 2, "name_np": "हिमिला यामी", "name_en": "Hisila Yami", "vote": 24473 },
                { "party": 0, "name_np": "विश्वप्रकाश सुवेदी", "name_en": "Bishwa Prakash Subedi", "vote": 17546 },
                { "party": 1, "name_np": "पुष्पकमल दाहाल", "name_en": "Pushpakamal Dahal", "vote": 9041 },
                { "party": 3, "name_np": "जलनाथ खनाल", "name_en": "Jhalanath Khanal", "vote": 18371 }
              ],
              "elected": {}
            },
            {
              "id": 3.1,
              "declared": false,
              "result": [
                { "party": 2, "name_np": "हिमिला यामी", "name_en": "Hisila Yami", "vote": 16668 },
                { "party": 4, "name_np": "माधव कुमार नेपाल", "name_en": "Madhab Kumar Nepal", "vote": 8947 },
                { "party": 0, "name_np": "बाबुरल भट्टराई", "name_en": "Baburam Bhattara", "vote": 25594 },
                { "party": 1, "name_np": "योगेश भट्टराई", "name_en": "Yogesh Bhattarai", "vote": 6535 }
              ],
              "elected": {}
            },
            {
              "id": 3.2,
              "declared": false,
              "result": [
                { "party": 2, "name_np": "रवि लामिछाने", "name_en": "Rabi Lamichhane", "vote": 26032 },
                { "party": 3, "name_np": "विश्वप्रकाश सुवेदी", "name_en": "Bishwa Prakash Subedi", "vote": 27105 },
                { "party": 0, "name_np": "बाबुरल भट्टराई", "name_en": "Baburam Bhattara", "vote": 83 },
                { "party": 4, "name_np": "केपी ओली", "name_en": "KP Oli", "vote": 16060 }
              ],
              "elected": {}
            }
          ]
        },
        {
          "id": "dadeldhura",
          "regions": [
            {
              "id": 1.1,
              "declared": false,
              "result": [
                { "party": 3, "name_np": "विश्वप्रकाश सुवेदी", "name_en": "Bishwa Prakash Subedi", "vote": 706 },
                { "party": 0, "name_np": "केपी ओली", "name_en": "KP Oli", "vote": 25129 },
                { "party": 2, "name_np": "राजेन्द्र लिङ्देन", "name_en": "Ranjendra Lingden", "vote": 6359 },
                { "party": 4, "name_np": "शेरबहादुर देउवा", "name_en": "Sher Bahadur Deuba", "vote": 26388 }
              ],
              "elected": {}
            },
            {
              "id": 1.2,
              "declared": false,
              "result": [
                { "party": 0, "name_np": "विश्वप्रकाश सुवेदी", "name_en": "Bishwa Prakash Subedi", "vote": 8849 },
                { "party": 4, "name_np": "हिमिला यामी", "name_en": "Hisila Yami", "vote": 29984 },
                { "party": 3, "name_np": "माधव कुमार नेपाल", "name_en": "Madhab Kumar Nepal", "vote": 25994 },
                { "party": 1, "name_np": "गगन थापा", "name_en": "Gagan Thapa", "vote": 6888 }
              ],
              "elected": {}
            }
          ]
        },
        {
          "id": "baitadi",
          "regions": [
            {
              "id": 1.1,
              "declared": false,
              "result": [
                { "party": 4, "name_np": "माधव कुमार नेपाल", "name_en": "Madhab Kumar Nepal", "vote": 29621 },
                { "party": 1, "name_np": "योगेश भट्टराई", "name_en": "Yogesh Bhattarai", "vote": 533 },
                { "party": 2, "name_np": "केपी ओली", "name_en": "KP Oli", "vote": 10090 },
                { "party": 0, "name_np": "पुष्पकमल दाहाल", "name_en": "Pushpakamal Dahal", "vote": 28711 }
              ],
              "elected": {}
            },
            {
              "id": 1.2,
              "declared": false,
              "result": [
                { "party": 0, "name_np": "केपी ओली", "name_en": "KP Oli", "vote": 18787 },
                { "party": 3, "name_np": "राजेन्द्र लिङ्देन", "name_en": "Ranjendra Lingden", "vote": 17801 },
                { "party": 4, "name_np": "सागर ढकाल", "name_en": "Sagar Dhakal", "vote": 11243 },
                { "party": 2, "name_np": "बाबुरल भट्टराई", "name_en": "Baburam Bhattara", "vote": 19010 }
              ],
              "elected": {}
            }
          ]
        },
        {
          "id": "darchula",
          "regions": [
            {
              "id": 1.1,
              "declared": false,
              "result": [
                { "party": 4, "name_np": "हिमिला यामी", "name_en": "Hisila Yami", "vote": 5678 },
                { "party": 1, "name_np": "राजेन्द्र लिङ्देन", "name_en": "Ranjendra Lingden", "vote": 8592 },
                { "party": 2, "name_np": "माधव कुमार नेपाल", "name_en": "Madhab Kumar Nepal", "vote": 23523 },
                { "party": 3, "name_np": "केपी ओली", "name_en": "KP Oli", "vote": 21797 }
              ],
              "elected": {}
            },
            {
              "id": 1.2,
              "declared": false,
              "result": [
                { "party": 1, "name_np": "योगेश भट्टराई", "name_en": "Yogesh Bhattarai", "vote": 26098 },
                { "party": 3, "name_np": "बाबुरल भट्टराई", "name_en": "Baburam Bhattara", "vote": 5646 },
                { "party": 2, "name_np": "राजेन्द्र लिङ्देन", "name_en": "Ranjendra Lingden", "vote": 20508 },
                { "party": 0, "name_np": "पुष्पकमल दाहाल", "name_en": "Pushpakamal Dahal", "vote": 4586 }
              ],
              "elected": {}
            }
          ]
        }
      ]
    }
  ]
}
